{
  "type": "FeatureCollection",
  "name": "kunming_asf_11tiles_rect_resolved",
  "features": [
    {
      "type": "Feature",
      "id": "kunming-asf-11tiles-rect",
      "properties": {
        "project_id": "kunming-asf-11tiles-rect",
        "reference_center_wgs84": [102.70228, 25.05042],
        "reference_center_role": "reference_only_not_clip_authority",
        "project_crs": "EPSG:32648",
        "projected_bounds_m": [209000.0, 2651625.0, 344500.0, 2885125.0],
        "area_km2": 31639.25,
        "width_m": 135500.0,
        "height_m": 233500.0,
        "grid_width": 10840,
        "grid_height": 18680,
        "pixel_spacing_m": 12.5,
        "source_dem_count": 11,
        "valid_fraction": 1.0,
        "status": "exact_boundary_resolved"
      },
      "geometry": {
        "type": "Polygon",
        "coordinates": [
          [
            [102.14086273384817, 23.949865582403287],
            [103.47164907811238, 23.96889091976421],
            [103.4453113114003, 26.07687652784521],
            [102.0916517185676, 26.055941546057234],
            [102.14086273384817, 23.949865582403287]
          ]
        ]
      }
    }
  ]
}
