{
  "type": "FeatureCollection",
  "name": "Airai Stone Money Island reef evidence AOI R01",
  "crs": {"type":"name","properties":{"name":"EPSG:4326"}},
  "features": [
    {
      "type": "Feature",
      "properties": {
        "id": "AIRAI_CONTEXT_R01",
        "role": "retain_all_islands_and_reef_context",
        "precision": "background_to_mid",
        "note": "User-approved working frame. Islands are retained; outside reef is deep-ocean background."
      },
      "geometry": {
        "type": "Polygon",
        "coordinates": [[[134.49,7.27],[134.64,7.27],[134.64,7.42],[134.49,7.42],[134.49,7.27]]]
      }
    },
    {
      "type": "Feature",
      "properties": {
        "id": "AIRAI_STORY_REEF_CORE_R01",
        "role": "high_precision_reef_and_bathymetry",
        "precision": "high_to_very_high",
        "note": "Complex KAOPU multiband field is concentrated here; exact boundary remains evidence-driven."
      },
      "geometry": {
        "type": "Polygon",
        "coordinates": [[[134.535,7.315],[134.605,7.315],[134.605,7.385],[134.535,7.385],[134.535,7.315]]]
      }
    },
    {
      "type": "Feature",
      "properties": {
        "id": "USER_CONFIRMED_STORY_ISLAND_ANCHOR_R01",
        "role": "story_island_candidate_anchor",
        "user_label": "格利 Island / Stone Money Island",
        "official_name_status": "UNRESOLVED_DO_NOT_ASSERT",
        "note": "Anchor inherited from the accepted visual location. It is not an official-name claim."
      },
      "geometry": {"type":"Point","coordinates":[134.5667427743189,7.349032638038719]}
    }
  ]
}
