{
  "type": "FeatureCollection",
  "name": "wenzhou_qingjiang_22000km2_square",
  "crs": {
    "type": "name",
    "properties": {
      "name": "urn:ogc:def:crs:OGC:1.3:CRS84"
    }
  },
  "features": [
    {
      "type": "Feature",
      "id": "wenzhou-qingjiang-22000km2-square",
      "properties": {
        "project_id": "wenzhou-qingjiang-dem-v001",
        "display_name_zh": "温州清江镇中心 22000 平方公里正方形 DEM AOI",
        "center_name_zh": "浙江省温州市乐清市清江镇",
        "center_wgs84": [
          121.101666666667,
          28.275
        ],
        "center_source": "Wikidata Q14065537 coordinate location",
        "construction_crs": "EPSG:32651",
        "center_utm_m": [
          313808.152694,
          3129127.610786
        ],
        "requested_area_km2": 22000.0,
        "requested_side_m": 148323.969742,
        "requested_half_side_m": 74161.984871,
        "requested_bounds_utm_m": [
          239646.167823,
          3054965.625915,
          387970.137565,
          3203289.595657
        ],
        "target_pixel_spacing_m": 12.5,
        "raster_grid_width_px": 11866,
        "raster_grid_height_px": 11866,
        "raster_grid_side_m": 148325.0,
        "raster_grid_area_km2": 22000.305625,
        "raster_snap_policy": "centered outward snap, 0.515129 m added on every side",
        "full_coverage_required": true
      },
      "geometry": {
        "type": "Polygon",
        "coordinates": [
          [
            [
              120.362408800068,
              27.593635051527
            ],
            [
              121.864650129812,
              27.614060721889
            ],
            [
              121.850359552964,
              28.952702379589
            ],
            [
              120.329248533004,
              28.931106070604
            ],
            [
              120.362408800068,
              27.593635051527
            ]
          ]
        ]
      }
    }
  ]
}
