{
  "type": "FeatureCollection",
  "name": "kunming_baseline_reset_crop_v001",
  "features": [
    {
      "type": "Feature",
      "id": "kunming-baseline-reset-crop-v001",
      "properties": {
        "project": "kunming-dem",
        "baseline_sha256": "af95c47f55ab8ff25d33ddc96d07c6d85fc1fcd4c2a2de9e2bef51a015860c50",
        "source_crs": "EPSG:32648",
        "pixel_spacing_m": 12.5,
        "source_window": [2790, 5116, 5892, 8095],
        "preview_window": [269, 493, 568, 780],
        "width_m": 73650.0,
        "height_m": 101187.5,
        "area_km2": 7452.459375,
        "center_wgs84": [102.82649131251483, 25.034974909253624],
        "restart_rule": "No procedural hydrology, rock, debris, erosion, contour, vertical exaggeration or synthetic detail before this cropped COG passes QA."
      },
      "geometry": {
        "type": "Polygon",
        "coordinates": [
          [
            [102.47105857848926, 24.57271019615898],
            [103.19792874295025, 24.58316455218786],
            [103.18452800113268, 25.496535815226753],
            [102.45226477000254, 25.485639475169364],
            [102.47105857848926, 24.57271019615898]
          ]
        ]
      }
    }
  ]
}
