{
  "type": "FeatureCollection",
  "features": [
    {
      "type": "Feature",
      "properties": {
        "role": "final_dem_aoi",
        "status": "provisional_offline_preview"
      },
      "geometry": {
        "type": "Polygon",
        "coordinates": [
          [
            [
              109.80230650918028,
              26.2709499176912
            ],
            [
              110.88027873316969,
              26.2709499176912
            ],
            [
              110.88027873316969,
              24.599999999999998
            ],
            [
              110.8752787331697,
              24.599999999999998
            ],
            [
              110.15230650918028,
              24.599999999999998
            ],
            [
              109.80230650918028,
              24.599999999999998
            ],
            [
              109.80230650918028,
              26.2709499176912
            ]
          ]
        ]
      }
    },
    {
      "type": "Feature",
      "properties": {
        "role": "download_search_envelope"
      },
      "geometry": {
        "type": "Polygon",
        "coordinates": [
          [
            [
              109.77246458230498,
              24.572868848011286
            ],
            [
              110.910120660045,
              24.572868848011286
            ],
            [
              110.910120660045,
              26.298081069679913
            ],
            [
              109.77246458230498,
              26.298081069679913
            ],
            [
              109.77246458230498,
              24.572868848011286
            ]
          ]
        ]
      }
    },
    {
      "type": "Feature",
      "properties": {
        "role": "yangshuo_pingle_shared_boundary",
        "sharedWayIds": []
      },
      "geometry": {
        "type": "LineString",
        "coordinates": [
          [
            110.15230650918028,
            24.599999999999998
          ],
          [
            110.8752787331697,
            24.599999999999998
          ]
        ]
      }
    },
    {
      "type": "Feature",
      "properties": {
        "role": "zhenbao_ding_summit"
      },
      "geometry": {
        "type": "Point",
        "coordinates": [
          110.82528,
          26.13556
        ]
      }
    },
    {
      "type": "Feature",
      "properties": {
        "role": "north_limit_15000m"
      },
      "geometry": {
        "type": "Point",
        "coordinates": [
          110.82528000000003,
          26.2709499176912
        ]
      }
    }
  ]
}