{
  "type": "FeatureCollection",
  "name": "guilin-v075-accepted-aoi",
  "crs": {
    "type": "name",
    "properties": {
      "name": "urn:ogc:def:crs:EPSG::4326"
    }
  },
  "features": [
    {
      "type": "Feature",
      "properties": {
        "status": "ACCEPTED",
        "geometry_sha256": "36b750be56ae0dea906996258068eaf9aaa71e01667eb328b9ce6bd1b48cbe80",
        "reported_area_km2": 33113.874,
        "source_resolution_m": 12.5,
        "epsg32649_bounds": [
          380331.8,
          2705928.1,
          530128.2,
          2926987.2
        ]
      },
      "geometry": {
        "type": "Polygon",
        "coordinates": [
          [
            [
              109.81924791197692,
              24.462357030555296
            ],
            [
              111.29729459582944,
              24.466676736764846
            ],
            [
              111.30224176414697,
              26.46292757634923
            ],
            [
              109.79960479808928,
              26.45820375801599
            ],
            [
              109.81924791197692,
              24.462357030555296
            ]
          ]
        ]
      }
    }
  ]
}
