{"type":"FeatureCollection","features":[{"type":"Feature","properties":{"index":1,"file":"AP_04997_FBS_F0480_RT1.dem.tif","sha256":"d909de355956f0ae570fba8aaa7a2faa073d32c87d97e0848a7d326b8ca735fa"},"geometry":{"type":"Polygon","coordinates":[[[109.80464759408291,24.44449427151139],[110.58867566957773,24.448659191193812],[110.586588251974,25.080839084046506],[109.79858289925316,25.076552061022547],[109.80464759408291,24.44449427151139]]]}},{"type":"Feature","properties":{"index":2,"file":"AP_04997_FBS_F0490_RT1.dem.tif","sha256":"3d48b4f6e6eb9ff486dc2cfb66fc58f814748c524e403eec1842f97951dbbb27"},"geometry":{"type":"Polygon","coordinates":[[[109.70063496466088,24.94405301755235],[110.49136717756916,24.948851007861187],[110.4887335609209,25.57928655084352],[109.69390903568562,25.57435037208383],[109.70063496466088,24.94405301755235]]]}},{"type":"Feature","properties":{"index":3,"file":"AP_04997_FBS_F0500_RT1.dem.tif","sha256":"07aca91735a7171ce4795009ecd606f2370202d0b78b9c24ad119726de0e1e4b"},"geometry":{"type":"Polygon","coordinates":[[[109.59619099300366,25.4376732647644],[110.39009506054212,25.44311559795887],[110.38686434508236,26.0738362527263],[109.58875733711054,26.06823932565079],[109.59619099300366,25.4376732647644]]]}},{"type":"Feature","properties":{"index":4,"file":"AP_04997_FBS_F0510_RT1.dem.tif","sha256":"f7b53e91b08147f7cfa6eb3a5aa77e27f9d3e50f8aed5242b3fc1852b9d6cb40"},"geometry":{"type":"Polygon","coordinates":[[[109.50080419132104,25.933535857656633],[110.30035187145023,25.9396040180112],[110.29657361043891,26.56857712946417],[109.49271110239414,26.562339441922838],[109.50080419132104,25.933535857656633]]]}},{"type":"Feature","properties":{"index":5,"file":"AP_05172_FBS_F0480_RT1.dem.tif","sha256":"8a53e3782deb5832508457b1e94afaedd6c5e8b8ffc40c8f23fd809508d210c1"},"geometry":{"type":"Polygon","coordinates":[[[110.86898569514047,24.44067876222838],[111.66549678600455,24.439271551047167],[111.66888730627234,25.074134744465184],[110.86831815569546,25.075583400691336],[110.86898569514047,24.44067876222838]]]}},{"type":"Feature","properties":{"index":6,"file":"AP_05172_FBS_F0490_RT1.dem.tif","sha256":"6f1bc014c033c72c455afadbd588b63d8fda616daeaf2326f2c0c4f7c323e9db"},"geometry":{"type":"Polygon","coordinates":[[[110.77158978518165,24.940993951149068],[111.5587894230295,24.940121343151603],[111.56170212972604,25.57495454422218],[110.7703991266825,25.575852468376077],[110.77158978518165,24.940993951149068]]]}},{"type":"Feature","properties":{"index":7,"file":"AP_05172_FBS_F0500_RT1.dem.tif","sha256":"501ccc27e1e147823e129af8d2fb619147492d7981de81e69491f8d6059b3d2e"},"geometry":{"type":"Polygon","coordinates":[[[110.66914245528399,25.435588359348234],[111.45828835099489,25.435246108396342],[111.46072438200586,26.068353393955018],[110.66738374632175,26.06870540645947],[110.66914245528399,25.435588359348234]]]}},{"type":"Feature","properties":{"index":8,"file":"AP_05172_FBS_F0510_RT1.dem.tif","sha256":"5de62548aa0fa16e28df5f01922e940186982bd2c9cb1e929cdcdce281150644"},"geometry":{"type":"Polygon","coordinates":[[[110.57458627817518,25.93464154681841],[111.36166121838002,25.934814710005362],[111.36362493990474,26.567321665103112],[110.57227642171846,26.567143636016436],[110.57458627817518,25.93464154681841]]]}},{"type":"Feature","properties":{"index":9,"file":"AP_05420_FBS_F0480_RT1.dem.tif","sha256":"b1aa269673d9eb1297eff8708cb22432eddba18b0493f05c3c4b139656efaf51"},"geometry":{"type":"Polygon","coordinates":[[[110.35132565514337,24.444221572886892],[111.14133240729407,24.44554661559296],[111.14205111702393,25.079095922105257],[110.34802725856756,25.077731943844483],[110.35132565514337,24.444221572886892]]]}},{"type":"Feature","properties":{"index":10,"file":"AP_05420_FBS_F0490_RT1.dem.tif","sha256":"82e91b0d7bfc2730c0e3f700b7fbc83ec664df2d95d3863348a3897153de7495"},"geometry":{"type":"Polygon","coordinates":[[[110.24832271064733,24.939837647879305],[111.03972132750404,24.941728151011038],[111.03992820735915,25.576027145572347],[110.24440821516569,25.574081845279206],[110.24832271064733,24.939837647879305]]]}},{"type":"Feature","properties":{"index":11,"file":"AP_05420_FBS_F0500_RT1.dem.tif","sha256":"f6d91721e9160b0848c67054f53e461a94032b20319149774b25e26b88fb567b"},"geometry":{"type":"Polygon","coordinates":[[[110.15316729352274,25.436838750525553],[110.95846759158347,25.43927377679828],[110.95824706418307,26.071610889194233],[110.14867146781909,26.069106506506866],[110.15316729352274,25.436838750525553]]]}},{"type":"Feature","properties":{"index":12,"file":"AP_05420_FBS_F0510_RT1.dem.tif","sha256":"432caf877db65edb70daaadb500a55f1bb13920a8a6f053c6092fa1360adeece"},"geometry":{"type":"Polygon","coordinates":[[[110.0486978235114,25.932707356751582],[110.84359664733027,25.93574604588432],[110.84274876690392,26.567247487962447],[110.04354163543461,26.56412355216841],[110.0486978235114,25.932707356751582]]]}}]}
