{"type":"FeatureCollection","name":"Wenzhou_1953_NH51_14_major_water_control","features":[{"type":"Feature","properties":{"sheet":"NH51-14","year":1953,"role":"coarse-open-water-control","pixelArea":1923395.0},"geometry":{"type":"Polygon","coordinates":[[[121.5,29.0],[123.0,29.0],[123.0,28.0],[121.5,28.0],[121.5,28.469355],[121.50355,28.470132],[121.506213,28.475562],[121.511538,28.478666],[121.522189,28.477114],[121.527515,28.471684],[121.528402,28.461599],[121.533728,28.454617],[121.536391,28.445308],[121.546154,28.439103],[121.549704,28.426691],[121.559467,28.417382],[121.557692,28.410399],[121.56568,28.406519],[121.563018,28.39721],[121.570118,28.390227],[121.572781,28.381695],[121.580769,28.376265],[121.582544,28.36618],[121.588757,28.359974],[121.588757,28.350665],[121.595858,28.348337],[121.596746,28.340579],[121.605621,28.335925],[121.610059,28.329719],[121.610947,28.321961],[121.618047,28.316531],[121.621598,28.307998],[121.626036,28.303344],[121.627811,28.292483],[121.632249,28.286277],[121.632249,28.278519],[121.637574,28.27464],[121.640237,28.266107],[121.643787,28.26378],[121.645562,28.253695],[121.650888,28.247489],[121.650888,28.240506],[121.656213,28.235852],[121.658876,28.227319],[121.663314,28.221114],[121.663314,28.213356],[121.667751,28.209476],[121.670414,28.200168],[121.673077,28.19784],[121.67574,28.188531],[121.681065,28.183877],[121.680178,28.176119],[121.684615,28.173791],[121.687278,28.165259],[121.690828,28.162931],[121.691716,28.154398],[121.696154,28.151295],[121.696154,28.143537],[121.700592,28.140433],[121.701479,28.1319],[121.705917,28.128797],[121.705917,28.121815],[121.711243,28.116385],[121.711243,28.109402],[121.716568,28.103196],[121.716568,28.096214],[121.721006,28.09311],[121.721006,28.085352],[121.724556,28.082249],[121.724556,28.075267],[121.728994,28.071387],[121.728994,28.064405],[121.732544,28.061301],[121.732544,28.053543],[121.73787,28.048889],[121.73787,28.042683],[121.74142,28.03958],[121.74142,28.032597],[121.74497,28.029494],[121.74497,28.021736],[121.749408,28.017857],[121.749408,28.010874],[121.753846,28.006996],[121.753846,28.0],[121.5,28.0],[121.5,29.0]],[[121.552367,28.886758],[121.556805,28.884431],[121.556805,28.879001],[121.553254,28.876674],[121.548817,28.879001],[121.548817,28.883655],[121.552367,28.886758]],[[121.600296,28.788222],[121.603846,28.785895],[121.603846,28.78124],[121.600296,28.778913],[121.596746,28.78124],[121.596746,28.785895],[121.600296,28.788222]],[[121.649112,28.746893],[121.65355,28.743789],[121.652663,28.738359],[121.648225,28.736032],[121.644675,28.739135],[121.644675,28.743789],[121.649112,28.746893]],[[121.632249,28.705563],[121.637574,28.701685],[121.636686,28.695479],[121.631361,28.693151],[121.626923,28.69703],[121.627811,28.70246],[121.632249,28.705563]],[[121.744083,28.648213],[121.748521,28.64511],[121.748521,28.63968],[121.744083,28.637353],[121.740533,28.640456],[121.740533,28.64511],[121.744083,28.648213]],[[121.691716,28.63037],[121.696154,28.627267],[121.695266,28.621837],[121.690828,28.619509],[121.687278,28.622613],[121.687278,28.627267],[121.691716,28.63037]],[[121.810947,28.58904],[121.814497,28.586713],[121.814497,28.582058],[121.810947,28.579731],[121.807396,28.582058],[121.807396,28.586713],[121.810947,28.58904]],[[121.767456,28.549263],[121.771893,28.54616],[121.771006,28.54073],[121.766568,28.538403],[121.763018,28.541506],[121.763018,28.54616],[121.767456,28.549263]],[[121.845562,28.484116],[121.85,28.481013],[121.849112,28.475583],[121.844675,28.473256],[121.841124,28.476359],[121.841124,28.481013],[121.845562,28.484116]],[[121.912426,28.413338],[121.916864,28.410234],[121.915976,28.404804],[121.911538,28.402477],[121.907988,28.40558],[121.907988,28.410234],[121.912426,28.413338]],[[121.986095,28.30255],[121.990533,28.299447],[121.989645,28.294017],[121.985207,28.29169],[121.981657,28.294793],[121.981657,28.299447],[121.986095,28.30255]],[[122.073964,28.184653],[122.078402,28.18155],[122.077515,28.176119],[122.073077,28.173792],[122.069527,28.176895],[122.069527,28.18155],[122.073964,28.184653]],[[122.22929,28.112501],[122.23284,28.110174],[122.23284,28.105519],[122.22929,28.103192],[122.22574,28.105519],[122.22574,28.110174],[122.22929,28.112501]]]}]}}]}