{"type":"FeatureCollection","features":[{"type":"Feature","properties":{"pixelArea":185724.5,"control":"1953-water-coarse"},"geometry":{"type":"Polygon","coordinates":[[[120.0,28.999225],[120.024476,28.999225],[120.027098,28.995352],[120.038462,28.995352],[120.038462,28.992254],[120.045455,28.992254],[120.047203,28.989156],[120.067308,28.989156],[120.068182,28.986832],[120.076049,28.986832],[120.077797,28.983733],[120.08479,28.983733],[120.08479,28.980635],[120.091783,28.980635],[120.092657,28.977537],[120.100524,28.977537],[120.101399,28.974438],[120.106643,28.974438],[120.108392,28.97134],[120.112762,28.97134],[120.11451,28.968242],[120.120629,28.968242],[120.121503,28.965143],[120.127622,28.965143],[120.129371,28.962045],[120.134615,28.962045],[120.136364,28.958946],[120.142483,28.958946],[120.144231,28.955848],[120.149476,28.955848],[120.151224,28.95275],[120.156469,28.95275],[120.158217,28.949651],[120.164336,28.949651],[120.166084,28.946553],[120.171329,28.946553],[120.173077,28.943455],[120.178322,28.943455],[120.18007,28.940356],[120.186189,28.940356],[120.187937,28.937258],[120.193182,28.937258],[120.19493,28.93416],[120.201049,28.93416],[120.202797,28.931061],[120.208042,28.931061],[120.20979,28.927963],[120.215035,28.927963],[120.216783,28.924864],[120.222902,28.924864],[120.22465,28.921766],[120.229895,28.921766],[120.231643,28.918668],[120.237762,28.918668],[120.23951,28.915569],[120.244755,28.915569],[120.246503,28.912471],[120.251748,28.912471],[120.253497,28.909373],[120.259615,28.909373],[120.261364,28.906274],[120.266608,28.906274],[120.268357,28.903176],[120.274476,28.903176],[120.276224,28.900077],[120.281469,28.900077],[120.283217,28.896979],[120.288462,28.896979],[120.29021,28.893881],[120.296329,28.893881],[120.298077,28.890782],[120.303322,28.890782],[120.30507,28.887684],[120.311189,28.887684],[120.312937,28.884586],[120.318182,28.884586],[120.31993,28.881487],[120.325175,28.881487],[120.326923,28.878389],[120.333042,28.878389],[120.33479,28.875291],[120.340035,28.875291],[120.341783,28.872192],[120.347902,28.872192],[120.34965,28.869094],[120.354895,28.869094],[120.356643,28.865995],[120.361888,28.865995],[120.363636,28.862897],[120.369755,28.862897],[120.371503,28.859799],[120.376748,28.859799],[120.378497,28.8567],[120.384615,28.8567],[120.386364,28.853602],[120.391608,28.853602],[120.393357,28.850504],[120.398601,28.850504],[120.40035,28.847405],[120.406469,28.847405],[120.408217,28.844307],[120.413462,28.844307],[120.41521,28.841208],[120.421329,28.841208],[120.423077,28.83811],[120.428322,28.83811],[120.43007,28.835012],[120.435315,28.835012],[120.437063,28.831913],[120.443182,28.831913],[120.44493,28.828815],[120.450175,28.828815],[120.451923,28.825717],[120.458042,28.825717],[120.45979,28.822618],[120.465035,28.822618],[120.466783,28.81952],[120.472028,28.81952],[120.473776,28.816421],[120.479895,28.816421],[120.481643,28.813323],[120.486888,28.813323],[120.488636,28.810225],[120.494755,28.810225],[120.496503,28.807126],[120.501748,28.807126],[120.503497,28.804028],[120.508741,28.804028],[120.51049,28.80093],[120.516608,28.80093],[120.518357,28.797831],[120.523601,28.797831],[120.52535,28.794733],[120.531469,28.794733],[120.533217,28.791634],[120.538462,28.791634],[120.54021,28.788536],[120.545455,28.788536],[120.547203,28.785438],[120.553322,28.785438],[120.55507,28.782339],[120.560315,28.782339],[120.562063,28.779241],[120.568182,28.779241],[120.56993,28.776143],[120.575175,28.776143],[120.576923,28.773044],[120.582168,28.773044],[120.583916,28.769946],[120.590035,28.769946],[120.591783,28.766847],[120.597028,28.766847],[120.598776,28.763749],[120.604895,28.763749],[120.606643,28.760651],[120.611888,28.760651],[120.613636,28.757552],[120.618881,28.757552],[120.620629,28.754454],[120.626748,28.754454],[120.628497,28.751356],[120.633741,28.751356],[120.63549,28.748257],[120.641608,28.748257],[120.643357,28.745159],[120.648601,28.745159],[120.65035,28.74206],[120.655594,28.74206],[120.657343,28.738962],[120.663462,28.738962],[120.66521,28.735864],[120.670455,28.735864],[120.672203,28.732765],[120.678322,28.732765],[120.68007,28.729667],[120.685315,28.729667],[120.687063,28.726568],[120.692308,28.726568],[120.694056,28.72347],[120.700175,28.72347],[120.701923,28.720372],[120.707168,28.720372],[120.708916,28.717273],[120.715035,28.717273],[120.716783,28.714175],[120.722028,28.714175],[120.723776,28.711077],[120.729021,28.711077],[120.730769,28.707978],[120.736888,28.707978],[120.738636,28.70488],[120.743881,28.70488],[120.745629,28.701781],[120.751748,28.701781],[120.753497,28.698683],[120.758741,28.698683],[120.76049,28.695585],[120.765734,28.695585],[120.767483,28.692486],[120.773601,28.692486],[120.77535,28.689388],[120.780594,28.689388],[120.782343,28.68629],[120.788462,28.68629],[120.79021,28.683191],[120.795455,28.683191],[120.797203,28.680093],[120.802448,28.680093],[120.804196,28.676995],[120.810315,28.676995],[120.812063,28.673896],[120.817308,28.673896],[120.819056,28.670798],[120.825175,28.670798],[120.826923,28.667699],[120.832168,28.667699],[120.833916,28.664601],[120.839161,28.664601],[120.840909,28.661503],[120.847028,28.661503],[120.848776,28.658404],[120.854021,28.658404],[120.855769,28.655306],[120.861888,28.655306],[120.863636,28.652208],[120.868881,28.652208],[120.870629,28.649109],[120.875874,28.649109],[120.877622,28.646011],[120.883741,28.646011],[120.88549,28.642912],[120.890734,28.642912],[120.892483,28.639814],[120.898601,28.639814],[120.90035,28.636716],[120.905594,28.636716],[120.907343,28.633617],[120.912587,28.633617],[120.914336,28.630519],[120.920455,28.630519],[120.922203,28.627421],[120.927448,28.627421],[120.929196,28.624322],[120.935315,28.624322],[120.937063,28.621224],[120.942308,28.621224],[120.944056,28.618125],[120.949301,28.618125],[120.951049,28.615027],[120.957168,28.615027],[120.958916,28.611929],[120.964161,28.611929],[120.965909,28.60883],[120.972028,28.60883],[120.973776,28.605732],[120.979021,28.605732],[120.980769,28.602634],[120.986014,28.602634],[120.987762,28.599535],[120.993881,28.599535],[120.995629,28.596437],[121.000874,28.596437],[121.002622,28.593338],[121.008741,28.593338],[121.01049,28.59024],[121.015734,28.59024],[121.017483,28.587142],[121.022727,28.587142],[121.024476,28.584043],[121.030594,28.584043],[121.032343,28.580945],[121.037587,28.580945],[121.039336,28.577847],[121.045455,28.577847],[121.047203,28.574748],[121.052448,28.574748],[121.054196,28.57165],[121.059441,28.57165],[121.061189,28.568552],[121.067308,28.568552],[121.069056,28.565453],[121.074301,28.565453],[121.076049,28.562355],[121.082168,28.562355],[121.083916,28.559256],[121.089161,28.559256],[121.090909,28.556158],[121.096154,28.556158],[121.097902,28.55306],[121.104021,28.55306],[121.105769,28.549961],[121.111014,28.549961],[121.112762,28.546863],[121.118881,28.546863],[121.120629,28.543765],[121.125874,28.543765],[121.127622,28.540666],[121.132867,28.540666],[121.134615,28.537568],[121.140734,28.537568],[121.142483,28.53447],[121.147727,28.53447],[121.149476,28.531371],[121.155594,28.531371],[121.157343,28.528273],[121.162587,28.528273],[121.164336,28.525174],[121.16958,28.525174],[121.171329,28.522076],[121.177448,28.522076],[121.179196,28.518978],[121.184441,28.518978],[121.186189,28.515879],[121.192308,28.515879],[121.194056,28.512781],[121.199301,28.512781],[121.201049,28.509683],[121.206294,28.509683],[121.208042,28.506584],[121.214161,28.506584],[121.215909,28.503486],[121.221154,28.503486],[121.222902,28.500387],[121.229021,28.500387],[121.230769,28.497289],[121.236014,28.497289],[121.237762,28.494191],[121.243007,28.494191],[121.244755,28.491092],[121.250874,28.491092],[121.252622,28.487994],[121.257867,28.487994],[121.259615,28.484896],[121.265734,28.484896],[121.267483,28.481797],[121.272727,28.481797],[121.274476,28.478699],[121.27972,28.478699],[121.281469,28.4756],[121.287587,28.4756],[121.289336,28.472502],[121.29458,28.472502],[121.296329,28.469404],[121.302448,28.469404],[121.304196,28.466305],[121.309441,28.466305],[121.311189,28.463207],[121.316434,28.463207],[121.318182,28.460109],[121.324301,28.460109],[121.326049,28.45701],[121.331294,28.45701],[121.333042,28.453912],[121.339161,28.453912],[121.340909,28.450814],[121.346154,28.450814],[121.347902,28.447715],[121.353147,28.447715],[121.354895,28.444617],[121.361014,28.444617],[121.362762,28.441518],[121.368007,28.441518],[121.369755,28.43842],[121.375874,28.43842],[121.377622,28.435322],[121.382867,28.435322],[121.384615,28.432223],[121.38986,28.432223],[121.391608,28.429125],[121.397727,28.429125],[121.399476,28.426027],[121.40472,28.426027],[121.406469,28.422928],[121.412587,28.422928],[121.414336,28.41983],[121.41958,28.41983],[121.421329,28.416731],[121.426573,28.416731],[121.428322,28.413633],[121.434441,28.413633],[121.436189,28.410535],[121.441434,28.410535],[121.443182,28.407436],[121.449301,28.407436],[121.451049,28.404338],[121.456294,28.404338],[121.458042,28.40124],[121.463287,28.40124],[121.465035,28.398141],[121.471154,28.398141],[121.472902,28.395043],[121.478147,28.395043],[121.479895,28.391944],[121.486014,28.391944],[121.487762,28.388846],[121.493007,28.388846],[121.494755,28.385748],[121.5,28.385748],[121.5,28.0],[120.0,28.0],[120.0,28.999225]],[[120.987762,28.853602],[120.993881,28.849729],[120.993007,28.843532],[120.986888,28.840434],[120.981643,28.844307],[120.982517,28.850503],[120.987762,28.853602]],[[121.026224,28.82959],[121.031469,28.826492],[121.031469,28.821069],[121.026224,28.817971],[121.021853,28.821069],[121.021853,28.826492],[121.026224,28.82959]],[[121.106643,28.796282],[121.111888,28.793183],[121.111888,28.787761],[121.106643,28.784663],[121.102273,28.787761],[121.102273,28.793183],[121.106643,28.796282]],[[121.198427,28.735089],[121.203671,28.731991],[121.203671,28.726568],[121.198427,28.72347],[121.194056,28.726568],[121.194056,28.731991],[121.198427,28.735089]],[[121.253497,28.703331],[121.258741,28.700232],[121.258741,28.69481],[121.253497,28.691712],[121.249126,28.69481],[121.249126,28.700232],[121.253497,28.703331]],[[121.336538,28.644461],[121.341783,28.641363],[121.341783,28.635941],[121.336538,28.632843],[121.332168,28.635941],[121.332168,28.641363],[121.336538,28.644461]],[[121.402098,28.606507],[121.407343,28.603408],[121.407343,28.597986],[121.402098,28.594888],[121.397727,28.597986],[121.397727,28.603408],[121.402098,28.606507]],[[121.457168,28.57165],[121.462413,28.568552],[121.462413,28.563129],[121.457168,28.560031],[121.452797,28.563129],[121.452797,28.568552],[121.457168,28.57165]],[[120.796329,28.541441],[120.800699,28.538343],[120.800699,28.533695],[120.796329,28.530596],[120.792832,28.533695],[120.792832,28.538343],[120.796329,28.541441]],[[120.851399,28.512781],[120.855769,28.509683],[120.855769,28.505035],[120.851399,28.501936],[120.847902,28.505035],[120.847902,28.509683],[120.851399,28.512781]],[[120.897727,28.487994],[120.902098,28.484896],[120.902098,28.480248],[120.897727,28.477149],[120.894231,28.480248],[120.894231,28.484896],[120.897727,28.487994]],[[120.94493,28.460109],[120.949301,28.45701],[120.949301,28.452363],[120.94493,28.449264],[120.941434,28.452363],[120.941434,28.45701],[120.94493,28.460109]],[[120.676573,28.458559],[120.681818,28.455461],[120.681818,28.450039],[120.676573,28.44694],[120.672203,28.450039],[120.672203,28.455461],[120.676573,28.458559]],[[121.001748,28.426027],[121.006119,28.422928],[121.006119,28.41828],[121.001748,28.415182],[120.998252,28.41828],[120.998252,28.422928],[121.001748,28.426027]],[[120.630245,28.423703],[120.63549,28.420604],[120.63549,28.415182],[120.630245,28.412084],[120.625874,28.415182],[120.625874,28.420604],[120.630245,28.423703]],[[120.579545,28.391169],[120.58479,28.388071],[120.58479,28.382649],[120.579545,28.379551],[120.575175,28.382649],[120.575175,28.388071],[120.579545,28.391169]],[[120.528846,28.358637],[120.534091,28.355539],[120.534091,28.350116],[120.528846,28.347018],[120.524476,28.350116],[120.524476,28.355539],[120.528846,28.358637]],[[120.481643,28.328428],[120.486014,28.325329],[120.486014,28.320682],[120.481643,28.317583],[120.478147,28.320682],[120.478147,28.325329],[120.481643,28.328428]],[[120.430944,28.295895],[120.435315,28.292796],[120.435315,28.288149],[120.430944,28.28505],[120.427448,28.288149],[120.427448,28.292796],[120.430944,28.295895]],[[120.380245,28.263362],[120.384615,28.260263],[120.384615,28.255616],[120.380245,28.252517],[120.376748,28.255616],[120.376748,28.260263],[120.380245,28.263362]],[[120.329545,28.230829],[120.333916,28.22773],[120.333916,28.223083],[120.329545,28.219984],[120.326049,28.223083],[120.326049,28.22773],[120.329545,28.230829]],[[120.27972,28.199845],[120.284091,28.196747],[120.284091,28.192099],[120.27972,28.189001],[120.276224,28.192099],[120.276224,28.196747],[120.27972,28.199845]],[[120.229021,28.167312],[120.233392,28.164214],[120.233392,28.159566],[120.229021,28.156468],[120.225524,28.159566],[120.225524,28.164214],[120.229021,28.167312]],[[120.178322,28.13478],[120.182692,28.131681],[120.182692,28.127034],[120.178322,28.123935],[120.174825,28.127034],[120.174825,28.131681],[120.178322,28.13478]],[[120.127622,28.102247],[120.131993,28.099148],[120.131993,28.094501],[120.127622,28.091402],[120.124126,28.094501],[120.124126,28.099148],[120.127622,28.102247]],[[120.076923,28.069714],[120.081294,28.066615],[120.081294,28.061968],[120.076923,28.058869],[120.073427,28.061968],[120.073427,28.066615],[120.076923,28.069714]],[[120.026224,28.037181],[120.030594,28.034082],[120.030594,28.029435],[120.026224,28.026336],[120.022727,28.029435],[120.022727,28.034082],[120.026224,28.037181]]]}]}}]}