{"type":"FeatureCollection","features":[{"type":"Feature","properties":{"pixelArea":3215.5,"control":"1953-water-coarse"},"geometry":{"type":"Polygon","coordinates":[[[121.439341,28.625094],[121.428943,28.62963],[121.428943,28.622827],[121.423744,28.619803],[121.413345,28.619048],[121.404679,28.623583],[121.391681,28.615268],[121.387348,28.617536],[121.384749,28.634165],[121.393414,28.640212],[121.357886,28.640212],[121.361352,28.633409],[121.355286,28.628874],[121.381282,28.619803],[121.382149,28.616024],[121.37695,28.613757],[121.366551,28.61678],[121.361352,28.609221],[121.347487,28.622071],[121.338821,28.60393],[121.350087,28.604686],[121.361352,28.597884],[121.364818,28.590325],[121.357886,28.581255],[121.370017,28.580499],[121.369151,28.571429],[121.363951,28.567649],[121.37435,28.566893],[121.370884,28.574452],[121.377816,28.585034],[121.37175,28.590325],[121.376083,28.59486],[121.386482,28.598639],[121.40208,28.593348],[121.40208,28.588813],[121.394281,28.587302],[121.39948,28.584278],[121.42721,28.591081],[121.419411,28.60393],[121.402946,28.598639],[121.389081,28.601663],[121.390815,28.610733],[121.402946,28.616024],[121.409879,28.611489],[121.415945,28.617536],[121.428076,28.61678],[121.439341,28.625094]]]}},{"type":"Feature","properties":{"pixelArea":2728.0,"control":"1953-water-coarse"},"geometry":{"type":"Polygon","coordinates":[[[120.986135,28.257748],[120.989601,28.243386],[120.996534,28.241875],[120.995667,28.235828],[120.999133,28.235072],[120.999133,28.239607],[121.005199,28.24263],[121.012998,28.238851],[121.008666,28.232804],[121.000867,28.234316],[121.0026,28.227513],[120.986135,28.217687],[120.987868,28.213152],[120.994801,28.213908],[121.000867,28.209373],[121.010399,28.214664],[121.014731,28.213152],[121.015598,28.207105],[121.010399,28.20257],[121.02253,28.201814],[121.028596,28.197279],[121.026863,28.185941],[121.016464,28.185185],[121.016464,28.182162],[121.024263,28.18065],[121.02513,28.176115],[121.043328,28.176115],[121.056326,28.188964],[121.041594,28.188964],[121.039861,28.206349],[121.036395,28.207861],[121.037262,28.213152],[121.031196,28.21542],[121.029463,28.223734],[121.036395,28.226757],[121.044194,28.221466],[121.05026,28.222978],[121.046794,28.229025],[121.056326,28.234316],[121.049393,28.232804],[121.043328,28.235828],[121.046794,28.243386],[121.032062,28.24263],[121.036395,28.235828],[121.029463,28.229025],[121.02253,28.228269],[121.021664,28.222222],[121.015598,28.219955],[121.011265,28.226002],[121.017331,28.231293],[121.014731,28.239607],[121.018198,28.243386],[120.994801,28.24641],[120.991334,28.259259],[120.986135,28.257748]]]}},{"type":"Feature","properties":{"pixelArea":2063.5,"control":"1953-water-coarse"},"geometry":{"type":"Polygon","coordinates":[[[120.448007,28.172336],[120.455806,28.154951],[120.471404,28.151172],[120.471404,28.145125],[120.487002,28.146636],[120.487002,28.150416],[120.493068,28.153439],[120.507799,28.148148],[120.542461,28.154951],[120.560659,28.151172],[120.562392,28.119426],[120.555459,28.114135],[120.558925,28.10582],[120.561525,28.111111],[120.568458,28.113379],[120.568458,28.117914],[120.580589,28.124717],[120.592721,28.120181],[120.586655,28.133031],[120.57539,28.12774],[120.568458,28.131519],[120.566724,28.146636],[120.571057,28.151172],[120.562392,28.15873],[120.538995,28.159486],[120.523397,28.153439],[120.516464,28.156463],[120.5026,28.154951],[120.493068,28.165533],[120.4974,28.173091],[120.491334,28.176871],[120.491334,28.165533],[120.475737,28.162509],[120.467071,28.154951],[120.448007,28.172336]]]}},{"type":"Feature","properties":{"pixelArea":1513.5,"control":"1953-water-coarse"},"geometry":{"type":"Polygon","coordinates":[[[121.455806,28.625094],[121.446274,28.625094],[121.445407,28.614512],[121.434142,28.613757],[121.430676,28.608466],[121.434142,28.59486],[121.429809,28.591081],[121.438475,28.588057],[121.438475,28.583522],[121.415078,28.57672],[121.401213,28.580499],[121.388215,28.575208],[121.382149,28.567649],[121.389081,28.56387],[121.390815,28.571429],[121.398614,28.575208],[121.406412,28.569161],[121.404679,28.56387],[121.420277,28.563114],[121.417678,28.571429],[121.428076,28.577475],[121.458406,28.57672],[121.455806,28.58579],[121.44974,28.584278],[121.444541,28.587302],[121.446274,28.591837],[121.454073,28.591837],[121.45234,28.598639],[121.436742,28.601663],[121.441075,28.60771],[121.45234,28.60771],[121.44714,28.612245],[121.448007,28.61678],[121.454073,28.619048],[121.462738,28.615268],[121.455806,28.625094]]]}}],"metadata":{"schema":"wenzhou-history-1953-water-control/v1","sheet":"NH51-13","title":"YUNG-CHIA (WENCHOW)","year":1953,"scale":"1:250000","sourceImageSha256":"cb6bde447701c0e7d93c12ec3795f361af79c3a5084f05702483246726d4f3d3","georeference":"linear neatline interpolation from printed geographic corners; coarse control only","truthBoundary":"derived from user-provided authoritative map; use for major coastline/open-water/reclamation/reservoir conflict control, not survey-grade shoreline","pixelBounds":{"left":59,"top":48,"right":1790,"bottom":1371},"geographicBounds":{"west":120.0,"south":28.0,"east":121.5,"north":29.0},"part":3,"partCount":3}}