{"type":"FeatureCollection","features":[{"type":"Feature","properties":{"pixelArea":185724.5,"control":"1953-water-coarse"},"geometry":{"type":"Polygon","coordinates":[[[121.021664,28.309902],[121.024958,28.308505],[121.028253,28.309902],[121.0299,28.313397],[121.033194,28.313397],[121.034841,28.31759],[121.038136,28.318289],[121.039783,28.321784],[121.042254,28.322483],[121.043077,28.326677],[121.046372,28.327376],[121.047195,28.33157],[121.051313,28.332269],[121.052136,28.335764],[121.056254,28.335764],[121.057077,28.339259],[121.060372,28.339259],[121.062018,28.342754],[121.065313,28.342754],[121.067783,28.346249],[121.070254,28.346249],[121.072724,28.349744],[121.076018,28.349744],[121.078489,28.353239],[121.081783,28.353239],[121.084254,28.356734],[121.087548,28.356734],[121.089195,28.360229],[121.092489,28.360229],[121.094136,28.363724],[121.098254,28.363724],[121.099077,28.367219],[121.103195,28.367219],[121.104018,28.370714],[121.108136,28.370714],[121.109783,28.374209],[121.113077,28.374209],[121.114724,28.377704],[121.118842,28.377704],[121.119665,28.381199],[121.123783,28.381199],[121.124606,28.384694],[121.128724,28.384694],[121.130371,28.388189],[121.133665,28.388189],[121.135312,28.391684],[121.13943,28.391684],[121.140253,28.395179],[121.144371,28.395179],[121.146018,28.398674],[121.149312,28.398674],[121.150959,28.402169],[121.155077,28.402169],[121.1559,28.405664],[121.160018,28.405664],[121.161665,28.409159],[121.164959,28.409159],[121.166606,28.412654],[121.170724,28.412654],[121.171547,28.416149],[121.175665,28.416149],[121.177312,28.419644],[121.180606,28.419644],[121.182253,28.423139],[121.186371,28.423139],[121.187194,28.426634],[121.191312,28.426634],[121.192959,28.430129],[121.196253,28.430129],[121.1979,28.433624],[121.202018,28.433624],[121.202841,28.437119],[121.206959,28.437119],[121.208606,28.440614],[121.2119,28.440614],[121.213547,28.444109],[121.217665,28.444109],[121.218488,28.447604],[121.222606,28.447604],[121.224253,28.451099],[121.227547,28.451099],[121.229194,28.454594],[121.233312,28.454594],[121.234135,28.458089],[121.238253,28.458089],[121.2399,28.461584],[121.243194,28.461584],[121.244841,28.465079],[121.248959,28.465079],[121.249782,28.468574],[121.2539,28.468574],[121.255547,28.472069],[121.258841,28.472069],[121.260488,28.475564],[121.264606,28.475564],[121.265429,28.479059],[121.269547,28.479059],[121.271194,28.482554],[121.274488,28.482554],[121.276135,28.486049],[121.280253,28.486049],[121.281076,28.489544],[121.285194,28.489544],[121.286841,28.493039],[121.290135,28.493039],[121.291782,28.496534],[121.2959,28.496534],[121.296723,28.500029],[121.300841,28.500029],[121.302488,28.503524],[121.305782,28.503524],[121.307429,28.507019],[121.311547,28.507019],[121.31237,28.510514],[121.316488,28.510514],[121.318135,28.514009],[121.321429,28.514009],[121.323076,28.517504],[121.327194,28.517504],[121.328017,28.520999],[121.332135,28.520999],[121.333782,28.524494],[121.337076,28.524494],[121.338723,28.527989],[121.342841,28.527989],[121.343664,28.531484],[121.347782,28.531484],[121.349429,28.534979],[121.352723,28.534979],[121.35437,28.538474],[121.358488,28.538474],[121.359311,28.541969],[121.363429,28.541969],[121.365076,28.545464],[121.36837,28.545464],[121.370017,28.548959],[121.374135,28.548959],[121.374958,28.552454],[121.379076,28.552454],[121.380723,28.555949],[121.384017,28.555949],[121.385664,28.559444],[121.389782,28.559444],[121.390605,28.562939],[121.394723,28.562939],[121.39637,28.566434],[121.399664,28.566434],[121.401311,28.569929],[121.405429,28.569929],[121.406252,28.573424],[121.41037,28.573424],[121.412017,28.576919],[121.415311,28.576919],[121.416958,28.580414],[121.421076,28.580414],[121.421899,28.583909],[121.426017,28.583909],[121.427664,28.587404],[121.430958,28.587404],[121.432605,28.590899],[121.436723,28.590899],[121.437546,28.594394],[121.441664,28.594394],[121.443311,28.597889],[121.446605,28.597889],[121.448252,28.601384],[121.45237,28.601384],[121.453193,28.604879],[121.457311,28.604879],[121.458958,28.608374],[121.462252,28.608374],[121.463899,28.611869],[121.468017,28.611869],[121.46884,28.615364],[121.472958,28.615364],[121.474605,28.618859],[121.477899,28.618859],[121.479546,28.622354],[121.483664,28.622354],[121.484487,28.625849],[121.488605,28.625849],[121.490252,28.629344],[121.493546,28.629344],[121.495193,28.632839],[121.499311,28.632839],[121.5,28.634236],[121.5,28.99965],[120.001029,28.99965],[120.001029,28.141187],[120.004323,28.141187],[120.00597,28.144682],[120.010088,28.144682],[120.010911,28.148177],[120.015029,28.148177],[120.016676,28.151672],[120.01997,28.151672],[120.021617,28.155167],[120.025735,28.155167],[120.026558,28.158662],[120.030676,28.158662],[120.032323,28.162157],[120.035617,28.162157],[120.037264,28.165652],[120.041382,28.165652],[120.042205,28.169147],[120.046323,28.169147],[120.04797,28.172642],[120.051264,28.172642],[120.052911,28.176137],[120.057029,28.176137],[120.057852,28.179632],[120.06197,28.179632],[120.063617,28.183127],[120.066911,28.183127],[120.068558,28.186622],[120.072676,28.186622],[120.073499,28.190117],[120.077617,28.190117],[120.079264,28.193612],[120.082558,28.193612],[120.084205,28.197107],[120.088323,28.197107],[120.089146,28.200602],[120.093264,28.200602],[120.094911,28.204097],[120.098205,28.204097],[120.099852,28.207592],[120.10397,28.207592],[120.104793,28.211087],[120.108911,28.211087],[120.110558,28.214582],[120.113852,28.214582],[120.115499,28.218077],[120.119617,28.218077],[120.12044,28.221572],[120.124558,28.221572],[120.126205,28.225067],[120.129499,28.225067],[120.131146,28.228562],[120.135264,28.228562],[120.136087,28.232057],[120.140205,28.232057],[120.141852,28.235552],[120.145146,28.235552],[120.146793,28.239047],[120.150911,28.239047],[120.151734,28.242542],[120.155852,28.242542],[120.157499,28.246037],[120.160793,28.246037],[120.16244,28.249532],[120.166558,28.249532],[120.167381,28.253027],[120.171499,28.253027],[120.173146,28.256522],[120.17644,28.256522],[120.178087,28.260017],[120.182205,28.260017],[120.183028,28.263512],[120.187146,28.263512],[120.188793,28.267007],[120.192087,28.267007],[120.193734,28.270502],[120.197852,28.270502],[120.198675,28.273997],[120.202793,28.273997],[120.20444,28.277492],[120.207734,28.277492],[120.209381,28.280987],[120.213499,28.280987],[120.214322,28.284482],[120.21844,28.284482],[120.220087,28.287977],[120.223381,28.287977],[120.225028,28.291472],[120.229146,28.291472],[120.229969,28.294967],[120.234087,28.294967],[120.235734,28.298462],[120.239028,28.298462],[120.240675,28.301957],[120.244793,28.301957],[120.245616,28.305452],[120.249734,28.305452],[120.251381,28.308947],[120.254675,28.308947],[120.256322,28.312442],[120.26044,28.312442],[120.261263,28.315937],[120.265381,28.315937],[120.267028,28.319432],[120.270322,28.319432],[120.271969,28.322927],[120.276087,28.322927],[120.27691,28.326422],[120.281028,28.326422],[120.282675,28.329917],[120.285969,28.329917],[120.287616,28.333412],[120.291734,28.333412],[120.292557,28.336907],[120.296675,28.336907],[120.298322,28.340402],[120.301616,28.340402],[120.303263,28.343897],[120.307381,28.343897],[120.308204,28.347392],[120.312322,28.347392],[120.313969,28.350887],[120.317263,28.350887],[120.31891,28.354382],[120.323028,28.354382],[120.323851,28.357877],[120.327969,28.357877],[120.329616,28.361372],[120.33291,28.361372],[120.334557,28.364867],[120.338675,28.364867],[120.339498,28.368362],[120.343616,28.368362],[120.345263,28.371857],[120.348557,28.371857],[120.350204,28.375352],[120.354322,28.375352],[120.355145,28.378847],[120.359263,28.378847],[120.36091,28.382342],[120.364204,28.382342],[120.365851,28.385837],[120.369969,28.385837],[120.370792,28.389332],[120.37491,28.389332],[120.376557,28.392827],[120.379851,28.392827],[120.381498,28.396322],[120.385616,28.396322],[120.386439,28.399817],[120.390557,28.399817],[120.392204,28.403312],[120.395498,28.403312],[120.397145,28.406807],[120.401263,28.406807],[120.402086,28.410302],[120.406204,28.410302],[120.407851,28.413797],[120.411145,28.413797],[120.412792,28.417292],[120.41691,28.417292],[120.417733,28.420787],[120.421851,28.420787],[120.423498,28.424282],[120.426792,28.424282],[120.428439,28.427777],[120.432557,28.427777],[120.43338,28.431272],[120.437498,28.431272],[120.439145,28.434767],[120.442439,28.434767],[120.444086,28.438262],[120.448204,28.438262],[120.449027,28.441757],[120.453145,28.441757],[120.454792,28.445252],[120.458086,28.445252],[120.459733,28.448747],[120.463851,28.448747],[120.464674,28.452242],[120.468792,28.452242],[120.470439,28.455737],[120.473733,28.455737],[120.47538,28.459232],[120.479498,28.459232],[120.480321,28.462727],[120.484439,28.462727],[120.486086,28.466222],[120.48938,28.466222],[120.491027,28.469717],[120.495145,28.469717],[120.495968,28.473212],[120.500086,28.473212],[120.501733,28.476707],[120.505027,28.476707],[120.506674,28.480202],[120.510792,28.480202],[120.511615,28.483697],[120.515733,28.483697],[120.51738,28.487192],[120.520674,28.487192],[120.522321,28.490687],[120.526439,28.490687],[120.527262,28.494182],[120.53138,28.494182],[120.533027,28.497677],[120.536321,28.497677],[120.537968,28.501172],[120.542086,28.501172],[120.542909,28.504667],[120.547027,28.504667],[120.548674,28.508162],[120.551968,28.508162],[120.553615,28.511657],[120.557733,28.511657],[120.558556,28.515152],[120.562674,28.515152],[120.564321,28.518647],[120.567615,28.518647],[120.569262,28.522142],[120.57338,28.522142],[120.574203,28.525637],[120.578321,28.525637],[120.579968,28.529132],[120.583262,28.529132],[120.584909,28.532627],[120.589027,28.532627],[120.58985,28.536122],[120.593968,28.536122],[120.595615,28.539617],[120.598909,28.539617],[120.600556,28.543112],[120.604674,28.543112],[120.605497,28.546607],[120.609615,28.546607],[120.611262,28.550102],[120.614556,28.550102],[120.616203,28.553597],[120.620321,28.553597],[120.621144,28.557092],[120.625262,28.557092],[120.626909,28.560587],[120.630203,28.560587],[120.63185,28.564082],[120.635968,28.564082],[120.636791,28.567577],[120.640909,28.567577],[120.642556,28.571072],[120.64585,28.571072],[120.647497,28.574567],[120.651615,28.574567],[120.652438,28.578062],[120.656556,28.578062],[120.658203,28.581557],[120.661497,28.581557],[120.663144,28.585052],[120.667262,28.585052],[120.668085,28.588547],[120.672203,28.588547],[120.67385,28.592042],[120.677144,28.592042],[120.678791,28.595537],[120.682909,28.595537],[120.683732,28.599032],[120.68785,28.599032],[120.689497,28.602527],[120.692791,28.602527],[120.694438,28.606022],[120.698556,28.606022],[120.699379,28.609517],[120.703497,28.609517],[120.705144,28.613012],[120.708438,28.613012],[120.710085,28.616507],[120.714203,28.616507],[120.715026,28.620002],[120.719144,28.620002],[120.720791,28.623497],[120.724085,28.623497],[120.725732,28.626992],[120.72985,28.626992],[120.730673,28.630487],[120.734791,28.630487],[120.736438,28.633982],[120.739732,28.633982],[120.741379,28.637477],[120.745497,28.637477],[120.74632,28.640972],[120.750438,28.640972],[120.752085,28.644467],[120.755379,28.644467],[120.757026,28.647962],[120.761144,28.647962],[120.761967,28.651457],[120.766085,28.651457],[120.767732,28.654952],[120.771026,28.654952],[120.772673,28.658447],[120.776791,28.658447],[120.777614,28.661942],[120.781732,28.661942],[120.783379,28.665437],[120.786673,28.665437],[120.78832,28.668932],[120.792438,28.668932],[120.793261,28.672427],[120.797379,28.672427],[120.799026,28.675922],[120.80232,28.675922],[120.803967,28.679417],[120.808085,28.679417],[120.808908,28.682912],[120.813026,28.682912],[120.814673,28.686407],[120.817967,28.686407],[120.819614,28.689902],[120.823732,28.689902],[120.824555,28.693397],[120.828673,28.693397],[120.83032,28.696892],[120.833614,28.696892],[120.835261,28.700387],[120.839379,28.700387],[120.840202,28.703882],[120.84432,28.703882],[120.845967,28.707377],[120.849261,28.707377],[120.850908,28.710872],[120.855026,28.710872],[120.855849,28.714367],[120.859967,28.714367],[120.861614,28.717862],[120.864908,28.717862],[120.866555,28.721357],[120.870673,28.721357],[120.871496,28.724852],[120.875614,28.724852],[120.877261,28.728347],[120.880555,28.728347],[120.882202,28.731842],[120.88632,28.731842],[120.887143,28.735337],[120.891261,28.735337],[120.892908,28.738832],[120.896202,28.738832],[120.897849,28.742327],[120.901967,28.742327],[120.90279,28.745822],[120.906908,28.745822],[120.908555,28.749317],[120.911849,28.749317],[120.913496,28.752812],[120.917614,28.752812],[120.918437,28.756307],[120.922555,28.756307],[120.924202,28.759802],[120.927496,28.759802],[120.929143,28.763297],[120.933261,28.763297],[120.934084,28.766792],[120.938202,28.766792],[120.939849,28.770287],[120.943143,28.770287],[120.94479,28.773782],[120.948908,28.773782],[120.949731,28.777277],[120.953849,28.777277],[120.955496,28.780772],[120.95879,28.780772],[120.960437,28.784267],[120.964555,28.784267],[120.965378,28.787762],[120.969496,28.787762],[120.971143,28.791257],[120.974437,28.791257],[120.976084,28.794752],[120.980202,28.794752],[120.981025,28.798247],[120.985143,28.798247],[120.98679,28.801742],[120.990084,28.801742],[120.991731,28.805237],[120.995849,28.805237],[120.996672,28.808732],[121.00079,28.808732],[121.002437,28.812227],[121.005731,28.812227],[121.007378,28.815722],[121.011496,28.815722],[121.012319,28.819217],[121.016437,28.819217],[121.018084,28.822712],[121.021378,28.822712],[121.023025,28.826207],[121.027143,28.826207],[121.027966,28.829702],[121.032084,28.829702],[121.033731,28.833197],[121.037025,28.833197],[121.038672,28.836692],[121.04279,28.836692],[121.043613,28.840187],[121.047731,28.840187],[121.049378,28.843682],[121.052672,28.843682],[121.054319,28.847177],[121.058437,28.847177],[121.05926,28.850672],[121.063378,28.850672],[121.065025,28.854167],[121.068319,28.854167],[121.069966,28.857662],[121.074084,28.857662],[121.074907,28.861157],[121.079025,28.861157],[121.080672,28.864652],[121.083966,28.864652],[121.085613,28.868147],[121.089731,28.868147],[121.090554,28.871642],[121.094672,28.871642],[121.096319,28.875137],[121.099613,28.875137],[121.10126,28.878632],[121.105378,28.878632],[121.106201,28.882127],[121.110319,28.882127],[121.111966,28.885622],[121.11526,28.885622],[121.116907,28.889117],[121.121025,28.889117],[121.121848,28.892612],[121.125966,28.892612],[121.127613,28.896107],[121.130907,28.896107],[121.132554,28.899602],[121.136672,28.899602],[121.137495,28.903097],[121.141613,28.903097],[121.14326,28.906592],[121.146554,28.906592],[121.148201,28.910087],[121.152319,28.910087],[121.153142,28.913582],[121.15726,28.913582],[121.158907,28.917077],[121.162201,28.917077],[121.163848,28.920572],[121.167966,28.920572],[121.168789,28.924067],[121.172907,28.924067],[121.174554,28.927562],[121.177848,28.927562],[121.179495,28.931057],[121.183613,28.931057],[121.184436,28.934552],[121.188554,28.934552],[121.190201,28.938047],[121.193495,28.938047],[121.195142,28.941542],[121.19926,28.941542],[121.200083,28.945037],[121.204201,28.945037],[121.205848,28.948532],[121.209142,28.948532],[121.210789,28.952027],[121.214907,28.952027],[121.21573,28.955522],[121.219848,28.955522],[121.221495,28.959017],[121.224789,28.959017],[121.226436,28.962512],[121.230554,28.962512],[121.231377,28.966007],[121.235495,28.966007],[121.237142,28.969502],[121.240436,28.969502],[121.242083,28.972997],[121.246201,28.972997],[121.247024,28.976492],[121.251142,28.976492],[121.252789,28.979987],[121.256083,28.979987],[121.25773,28.983482],[121.261848,28.983482],[121.262671,28.986977],[121.266789,28.986977],[121.268436,28.990472],[121.27173,28.990472],[121.273377,28.993967],[121.277495,28.993967],[121.278318,28.997462],[121.282436,28.997462],[121.283259,28.999559],[121.5,28.99965],[121.5,28.634236],[121.499311,28.632839],[121.495193,28.632839],[121.493546,28.629344],[121.490252,28.629344],[121.488605,28.625849],[121.484487,28.625849],[121.483664,28.622354],[121.479546,28.622354],[121.477899,28.618859],[121.474605,28.618859],[121.472958,28.615364],[121.46884,28.615364],[121.468017,28.611869],[121.463899,28.611869],[121.462252,28.608374],[121.458958,28.608374],[121.457311,28.604879],[121.453193,28.604879],[121.45237,28.601384],[121.448252,28.601384],[121.446605,28.597889],[121.443311,28.597889],[121.441664,28.594394],[121.437546,28.594394],[121.436723,28.590899],[121.432605,28.590899],[121.430958,28.587404],[121.427664,28.587404],[121.426017,28.583909],[121.421899,28.583909],[121.421076,28.580414],[121.416958,28.580414],[121.415311,28.576919],[121.412017,28.576919],[121.41037,28.573424],[121.406252,28.573424],[121.405429,28.569929],[121.401311,28.569929],[121.399664,28.566434],[121.39637,28.566434],[121.394723,28.562939],[121.390605,28.562939],[121.389782,28.559444],[121.385664,28.559444],[121.384017,28.555949],[121.380723,28.555949],[121.379076,28.552454],[121.374958,28.552454],[121.374135,28.548959],[121.370017,28.548959],[121.36837,28.545464],[121.365076,28.545464],[121.363429,28.541969],[121.359311,28.541969],[121.358488,28.538474],[121.35437,28.538474],[121.352723,28.534979],[121.349429,28.534979],[121.347782,28.531484],[121.343664,28.531484],[121.342841,28.527989],[121.338723,28.527989],[121.337076,28.524494],[121.333782,28.524494],[121.332135,28.520999],[121.328017,28.520999],[121.327194,28.517504],[121.323076,28.517504],[121.321429,28.514009],[121.318135,28.514009],[121.316488,28.510514],[121.31237,28.510514],[121.311547,28.507019],[121.307429,28.507019],[121.305782,28.503524],[121.302488,28.503524],[121.300841,28.500029],[121.296723,28.500029],[121.2959,28.496534],[121.291782,28.496534],[121.290135,28.493039],[121.286841,28.493039],[121.285194,28.489544],[121.281076,28.489544],[121.280253,28.486049],[121.276135,28.486049],[121.274488,28.482554],[121.271194,28.482554],[121.269547,28.479059],[121.265429,28.479059],[121.264606,28.475564],[121.260488,28.475564],[121.258841,28.472069],[121.255547,28.472069],[121.2539,28.468574],[121.249782,28.468574],[121.248959,28.465079],[121.244841,28.465079],[121.243194,28.461584],[121.2399,28.461584],[121.238253,28.458089],[121.234135,28.458089],[121.233312,28.454594],[121.229194,28.454594],[121.227547,28.451099],[121.224253,28.451099],[121.222606,28.447604],[121.218488,28.447604],[121.217665,28.444109],[121.213547,28.444109],[121.2119,28.440614],[121.208606,28.440614],[121.206959,28.437119],[121.202841,28.437119],[121.202018,28.433624],[121.1979,28.433624],[121.196253,28.430129],[121.192959,28.430129],[121.191312,28.426634],[121.187194,28.426634],[121.186371,28.423139],[121.182253,28.423139],[121.180606,28.419644],[121.177312,28.419644],[121.175665,28.416149],[121.171547,28.416149],[121.170724,28.412654],[121.166606,28.412654],[121.164959,28.409159],[121.161665,28.409159],[121.160018,28.405664],[121.1559,28.405664],[121.155077,28.402169],[121.150959,28.402169],[121.149312,28.398674],[121.146018,28.398674],[121.144371,28.395179],[121.140253,28.395179],[121.13943,28.391684],[121.135312,28.391684],[121.133665,28.388189],[121.130371,28.388189],[121.128724,28.384694],[121.124606,28.384694],[121.123783,28.381199],[121.119665,28.381199],[121.118842,28.377704],[121.114724,28.377704],[121.113077,28.374209],[121.109783,28.374209],[121.108136,28.370714],[121.104018,28.370714],[121.103195,28.367219],[121.099077,28.367219],[121.098254,28.363724],[121.094136,28.363724],[121.092489,28.360229],[121.089195,28.360229],[121.087548,28.356734],[121.084254,28.356734],[121.081783,28.353239],[121.078489,28.353239],[121.076018,28.349744],[121.072724,28.349744],[121.070254,28.346249],[121.067783,28.346249],[121.065313,28.342754],[121.062018,28.342754],[121.060372,28.339259],[121.057077,28.339259],[121.056254,28.335764],[121.052136,28.335764],[121.051313,28.332269],[121.047195,28.33157],[121.046372,28.327376],[121.043077,28.326677],[121.042254,28.322483],[121.039783,28.321784],[121.038136,28.318289],[121.034841,28.31759],[121.033194,28.313397],[121.0299,28.313397],[121.028253,28.309902],[121.024958,28.308505],[121.021664,28.309902]]]}},{"type":"Feature","properties":{"pixelArea":14392.5,"control":"1953-water-coarse"},"geometry":{"type":"Polygon","coordinates":[[[121.154253,28.49968],[121.161665,28.497583],[121.165783,28.491292],[121.169901,28.490593],[121.171548,28.486399],[121.175666,28.484302],[121.175666,28.480108],[121.179784,28.479409],[121.180607,28.476613],[121.184725,28.475914],[121.185548,28.47172],[121.19049,28.470322],[121.191313,28.466128],[121.196255,28.464031],[121.197078,28.459837],[121.20202,28.45774],[121.202843,28.453546],[121.207785,28.451449],[121.208608,28.447255],[121.21355,28.445158],[121.214373,28.440964],[121.219315,28.438867],[121.220138,28.434673],[121.22508,28.432576],[121.225903,28.428382],[121.230845,28.426285],[121.231668,28.422091],[121.23661,28.419994],[121.237433,28.4158],[121.242375,28.413703],[121.243198,28.409509],[121.24814,28.407412],[121.248963,28.403218],[121.253905,28.401121],[121.254728,28.396927],[121.25967,28.39483],[121.260493,28.390636],[121.265435,28.388539],[121.266258,28.384345],[121.2712,28.382248],[121.272023,28.378054],[121.276965,28.375957],[121.277788,28.371763],[121.28273,28.369666],[121.283553,28.365472],[121.288495,28.363375],[121.289318,28.359181],[121.29426,28.357084],[121.295083,28.35289],[121.300025,28.350793],[121.300848,28.346599],[121.30579,28.344502],[121.306613,28.340308],[121.311555,28.338211],[121.312378,28.334017],[121.31732,28.33192],[121.318143,28.327726],[121.323085,28.325629],[121.323908,28.321435],[121.32885,28.319338],[121.329673,28.315144],[121.334615,28.313047],[121.335438,28.308853],[121.34038,28.306756],[121.341203,28.302562],[121.346145,28.300465],[121.346968,28.296271],[121.35191,28.294174],[121.352733,28.28998],[121.357675,28.287883],[121.358498,28.283689],[121.36344,28.281592],[121.364263,28.277398],[121.369205,28.275301],[121.370028,28.271107],[121.37497,28.26901],[121.375793,28.264816],[121.380735,28.262719],[121.381558,28.258525],[121.3865,28.256428],[121.387323,28.252234],[121.392265,28.250137],[121.393088,28.245943],[121.39803,28.243846],[121.398853,28.239652],[121.403795,28.237555],[121.404618,28.233361],[121.40956,28.231264],[121.410383,28.22707],[121.415325,28.224973],[121.416148,28.220779],[121.42109,28.218682],[121.421913,28.214488],[121.426855,28.212391],[121.427678,28.208197],[121.43262,28.2061],[121.433443,28.201906],[121.438385,28.199809],[121.439208,28.195615],[121.44415,28.193518],[121.444973,28.189324],[121.449915,28.187227],[121.450738,28.183033],[121.45568,28.180936],[121.456503,28.176742],[121.461445,28.174645],[121.462268,28.170451],[121.46721,28.168354],[121.468033,28.16416],[121.472975,28.162063],[121.473798,28.157869],[121.47874,28.155772],[121.479563,28.151578],[121.484505,28.149481],[121.485328,28.145287],[121.49027,28.14319],[121.491093,28.138996],[121.496035,28.136899],[121.496858,28.132705],[121.5,28.131307],[121.5,28.000349],[120.582588,28.000349],[120.584235,28.002446],[120.590824,28.002446],[120.591647,28.005941],[120.597413,28.005941],[120.598236,28.009436],[120.604825,28.009436],[120.605648,28.012931],[120.611414,28.012931],[120.612237,28.016426],[120.618826,28.016426],[120.619649,28.019921],[120.625415,28.019921],[120.626238,28.023416],[120.632827,28.023416],[120.63365,28.026911],[120.639416,28.026911],[120.640239,28.030406],[120.646828,28.030406],[120.647651,28.033901],[120.653417,28.033901],[120.65424,28.037396],[120.660829,28.037396],[120.661652,28.040891],[120.667418,28.040891],[120.668241,28.044386],[120.67483,28.044386],[120.675653,28.047881],[120.681419,28.047881],[120.682242,28.051376],[120.688831,28.051376],[120.689654,28.054871],[120.69542,28.054871],[120.696243,28.058366],[120.702832,28.058366],[120.703655,28.061861],[120.709421,28.061861],[120.710244,28.065356],[120.716833,28.065356],[120.717656,28.068851],[120.723422,28.068851],[120.724245,28.072346],[120.730834,28.072346],[120.731657,28.075841],[120.737423,28.075841],[120.738246,28.079336],[120.744835,28.079336],[120.745658,28.082831],[120.751424,28.082831],[120.752247,28.086326],[120.758836,28.086326],[120.759659,28.089821],[120.765425,28.089821],[120.766248,28.093316],[120.772837,28.093316],[120.77366,28.096811],[120.779426,28.096811],[120.780249,28.100306],[120.786838,28.100306],[120.787661,28.103801],[120.793427,28.103801],[120.79425,28.107296],[120.800839,28.107296],[120.801662,28.110791],[120.807428,28.110791],[120.808251,28.114286],[120.81484,28.114286],[120.815663,28.117781],[120.821429,28.117781],[120.822252,28.121276],[120.828841,28.121276],[120.829664,28.124771],[120.83543,28.124771],[120.836253,28.128266],[120.842842,28.128266],[120.843665,28.131761],[120.849431,28.131761],[120.850254,28.135256],[120.856843,28.135256],[120.857666,28.138751],[120.863432,28.138751],[120.864255,28.142246],[120.870844,28.142246],[120.871667,28.145741],[120.877433,28.145741],[120.878256,28.149236],[120.884845,28.149236],[120.885668,28.152731],[120.891434,28.152731],[120.892257,28.156226],[120.898846,28.156226],[120.899669,28.159721],[120.905435,28.159721],[120.906258,28.163216],[120.912847,28.163216],[120.91367,28.166711],[120.919436,28.166711],[120.920259,28.170206],[120.926848,28.170206],[120.927671,28.173701],[120.933437,28.173701],[120.93426,28.177196],[120.940849,28.177196],[120.941672,28.180691],[120.947438,28.180691],[120.948261,28.184186],[120.95485,28.184186],[120.955673,28.187681],[120.961439,28.187681],[120.962262,28.191176],[120.968851,28.191176],[120.969674,28.194671],[120.97544,28.194671],[120.976263,28.198166],[120.982852,28.198166],[120.983675,28.201661],[120.989441,28.201661],[120.990264,28.205156],[120.996853,28.205156],[120.997676,28.208651],[121.003442,28.208651],[121.004265,28.212146],[121.010854,28.212146],[121.011677,28.215641],[121.017443,28.215641],[121.018266,28.219136],[121.024855,28.219136],[121.025678,28.222631],[121.031444,28.222631],[121.032267,28.226126],[121.038856,28.226126],[121.039679,28.229621],[121.045445,28.229621],[121.046268,28.233116],[121.052857,28.233116],[121.05368,28.236611],[121.059446,28.236611],[121.060269,28.240106],[121.066858,28.240106],[121.067681,28.243601],[121.073447,28.243601],[121.07427,28.247096],[121.080859,28.247096],[121.081682,28.250591],[121.087448,28.250591],[121.088271,28.254086],[121.09486,28.254086],[121.095683,28.257581],[121.101449,28.257581],[121.102272,28.261076],[121.108861,28.261076],[121.109684,28.264571],[121.11545,28.264571],[121.116273,28.268066],[121.122862,28.268066],[121.123685,28.271561],[121.129451,28.271561],[121.130274,28.275056],[121.136863,28.275056],[121.137686,28.278551],[121.143452,28.278551],[121.144275,28.282046],[121.150864,28.282046],[121.151687,28.285541],[121.154253,28.286239],[121.154253,28.49968]]]}},{"type":"Feature","properties":{"pixelArea":9961.5,"control":"1953-water-coarse"},"geometry":{"type":"Polygon","coordinates":[[[120.503333,28.399716],[120.506628,28.398318],[120.510746,28.398318],[120.511569,28.394124],[120.515687,28.394124],[120.51651,28.38993],[120.520628,28.38993],[120.522275,28.385736],[120.525569,28.385736],[120.527216,28.381542],[120.531334,28.381542],[120.532157,28.377348],[120.536275,28.377348],[120.537922,28.373154],[120.541216,28.373154],[120.542863,28.36896],[120.546981,28.36896],[120.547804,28.364766],[120.551922,28.364766],[120.553569,28.360572],[120.556863,28.360572],[120.55851,28.356378],[120.562628,28.356378],[120.563451,28.352184],[120.567569,28.352184],[120.569216,28.34799],[120.57251,28.34799],[120.574157,28.343796],[120.578275,28.343796],[120.579098,28.339602],[120.583216,28.339602],[120.584863,28.335408],[120.588157,28.335408],[120.589804,28.331214],[120.593922,28.331214],[120.594745,28.32702],[120.598863,28.32702],[120.60051,28.322826],[120.603804,28.322826],[120.605451,28.318632],[120.609569,28.318632],[120.610392,28.314438],[120.61451,28.314438],[120.616157,28.310244],[120.619451,28.310244],[120.621098,28.30605],[120.625216,28.30605],[120.626039,28.301856],[120.630157,28.301856],[120.631804,28.297662],[120.635098,28.297662],[120.636745,28.293468],[120.640863,28.293468],[120.641686,28.289274],[120.645804,28.289274],[120.647451,28.28508],[120.650745,28.28508],[120.652392,28.280886],[120.65651,28.280886],[120.657333,28.276692],[120.661451,28.276692],[120.663098,28.272498],[120.666392,28.272498],[120.668039,28.268304],[120.672157,28.268304],[120.67298,28.26411],[120.677098,28.26411],[120.678745,28.259916],[120.682039,28.259916],[120.683686,28.255722],[120.687804,28.255722],[120.688627,28.251528],[120.692745,28.251528],[120.694392,28.247334],[120.697686,28.247334],[120.699333,28.24314],[120.703451,28.24314],[120.704274,28.238946],[120.708392,28.238946],[120.710039,28.234752],[120.713333,28.234752],[120.71498,28.230558],[120.719098,28.230558],[120.719921,28.226364],[120.724039,28.226364],[120.725686,28.22217],[120.72898,28.22217],[120.730627,28.217976],[120.734745,28.217976],[120.735568,28.213782],[120.739686,28.213782],[120.741333,28.209588],[120.744627,28.209588],[120.746274,28.205394],[120.750392,28.205394],[120.751215,28.2012],[120.755333,28.2012],[120.75698,28.197006],[120.760274,28.197006],[120.761921,28.192812],[120.766039,28.192812],[120.766862,28.188618],[120.77098,28.188618],[120.772627,28.184424],[120.775921,28.184424],[120.777568,28.18023],[120.781686,28.18023],[120.782509,28.176036],[120.786627,28.176036],[120.788274,28.171842],[120.791568,28.171842],[120.793215,28.167648],[120.797333,28.167648],[120.798156,28.163454],[120.802274,28.163454],[120.803921,28.15926],[120.807215,28.15926],[120.808862,28.155066],[120.81298,28.155066],[120.813803,28.150872],[120.817921,28.150872],[120.819568,28.146678],[120.822862,28.146678],[120.824509,28.142484],[120.828627,28.142484],[120.82945,28.13829],[120.833568,28.13829],[120.835215,28.134096],[120.838509,28.134096],[120.840156,28.129902],[120.844274,28.129902],[120.845097,28.125708],[120.849215,28.125708],[120.850862,28.121514],[120.854156,28.121514],[120.855803,28.11732],[120.859921,28.11732],[120.860744,28.113126],[120.864862,28.113126],[120.866509,28.108932],[120.869803,28.108932],[120.87145,28.104738],[120.875568,28.104738],[120.876391,28.100544],[120.880509,28.100544],[120.882156,28.09635],[120.88545,28.09635],[120.887097,28.092156],[120.891215,28.092156],[120.892038,28.087962],[120.896156,28.087962],[120.897803,28.083768],[120.901097,28.083768],[120.902744,28.079574],[120.906862,28.079574],[120.907685,28.07538],[120.911803,28.07538],[120.91345,28.071186],[120.916744,28.071186],[120.918391,28.066992],[120.922509,28.066992],[120.923332,28.062798],[120.92745,28.062798],[120.929097,28.058604],[120.932391,28.058604],[120.934038,28.05441],[120.938156,28.05441],[120.938979,28.050216],[120.943097,28.050216],[120.944744,28.046022],[120.948038,28.046022],[120.949685,28.041828],[120.953803,28.041828],[120.954626,28.037634],[120.958744,28.037634],[120.960391,28.03344],[120.963685,28.03344],[120.965332,28.029246],[120.96945,28.029246],[120.970273,28.025052],[120.974391,28.025052],[120.976038,28.020858],[120.979332,28.020858],[120.980979,28.016664],[120.985097,28.016664],[120.98592,28.01247],[120.990038,28.01247],[120.991685,28.008276],[120.994979,28.008276],[120.996626,28.004082],[121.000744,28.004082],[121.001567,28.000349],[120.582588,28.000349],[120.582588,28.001048],[120.579294,28.001048],[120.577647,28.005242],[120.573529,28.005242],[120.572706,28.009436],[120.568588,28.009436],[120.566941,28.01363],[120.563647,28.01363],[120.562,28.017824],[120.557882,28.017824],[120.557059,28.022018],[120.552941,28.022018],[120.551294,28.026212],[120.548,28.026212],[120.546353,28.030406],[120.542235,28.030406],[120.541412,28.0346],[120.537294,28.0346],[120.535647,28.038794],[120.532353,28.038794],[120.530706,28.042988],[120.526588,28.042988],[120.525765,28.047182],[120.521647,28.047182],[120.52,28.051376],[120.516706,28.051376],[120.515059,28.05557],[120.510941,28.05557],[120.510118,28.059764],[120.506,28.059764],[120.504353,28.063958],[120.501059,28.063958],[120.499412,28.068152],[120.495294,28.068152],[120.494471,28.072346],[120.490353,28.072346],[120.488706,28.07654],[120.485412,28.07654],[120.483765,28.080734],[120.479647,28.080734],[120.478824,28.084928],[120.474706,28.084928],[120.473059,28.089122],[120.469765,28.089122],[120.468118,28.093316],[120.464,28.093316],[120.463177,28.09751],[120.459059,28.09751],[120.457412,28.101704],[120.454118,28.101704],[120.452471,28.105898],[120.448353,28.105898],[120.44753,28.110092],[120.443412,28.110092],[120.441765,28.114286],[120.438471,28.114286],[120.436824,28.11848],[120.432706,28.11848],[120.431883,28.122674],[120.427765,28.122674],[120.426118,28.126868],[120.422824,28.126868],[120.421177,28.131062],[120.417059,28.131062],[120.416236,28.135256],[120.412118,28.135256],[120.410471,28.13945],[120.407177,28.13945],[120.40553,28.143644],[120.401412,28.143644],[120.400589,28.147838],[120.396471,28.147838],[120.394824,28.152032],[120.39153,28.152032],[120.389883,28.156226],[120.385765,28.156226],[120.384942,28.16042],[120.380824,28.16042],[120.379177,28.164614],[120.375883,28.164614],[120.374236,28.168808],[120.370118,28.168808],[120.369295,28.173002],[120.365177,28.173002],[120.36353,28.177196],[120.360236,28.177196],[120.358589,28.18139],[120.354471,28.18139],[120.353648,28.185584],[120.34953,28.185584],[120.347883,28.189778],[120.344589,28.189778],[120.342942,28.193972],[120.338824,28.193972],[120.338001,28.198166],[120.333883,28.198166],[120.332236,28.20236],[120.328942,28.20236],[120.327295,28.206554],[120.323177,28.206554],[120.322354,28.210748],[120.318236,28.210748],[120.316589,28.214942],[120.313295,28.214942],[120.311648,28.219136],[120.30753,28.219136],[120.306707,28.22333],[120.302589,28.22333],[120.300942,28.227524],[120.297648,28.227524],[120.296001,28.231718],[120.291883,28.231718],[120.29106,28.235912],[120.286942,28.235912],[120.285295,28.240106],[120.282001,28.240106],[120.280354,28.2443],[120.276236,28.2443],[120.275413,28.248494],[120.271295,28.248494],[120.269648,28.252688],[120.266354,28.252688],[120.264707,28.256882],[120.260589,28.256882],[120.259766,28.261076],[120.255648,28.261076],[120.254001,28.26527],[120.250707,28.26527],[120.24906,28.269464],[120.244942,28.269464],[120.244119,28.273658],[120.240001,28.273658],[120.238354,28.277852],[120.23506,28.277852],[120.233413,28.282046],[120.229295,28.282046],[120.228472,28.28624],[120.224354,28.28624],[120.222707,28.290434],[120.219413,28.290434],[120.217766,28.294628],[120.213648,28.294628],[120.212825,28.298822],[120.208707,28.298822],[120.20706,28.303016],[120.203766,28.303016],[120.202119,28.30721],[120.198001,28.30721],[120.197178,28.311404],[120.19306,28.311404],[120.191413,28.315598],[120.188119,28.315598],[120.186472,28.319792],[120.182354,28.319792],[120.181531,28.323986],[120.177413,28.323986],[120.175766,28.32818],[120.172472,28.32818],[120.170825,28.332374],[120.166707,28.332374],[120.165884,28.336568],[120.161766,28.336568],[120.160119,28.340762],[120.156825,28.340762],[120.155178,28.344956],[120.15106,28.344956],[120.150237,28.34915],[120.146119,28.34915],[120.144472,28.353344],[120.141178,28.353344],[120.139531,28.357538],[120.135413,28.357538],[120.13459,28.361732],[120.130472,28.361732],[120.128825,28.365926],[120.125531,28.365926],[120.123884,28.37012],[120.119766,28.37012],[120.118943,28.374314],[120.114825,28.374314],[120.113178,28.378508],[120.109884,28.378508],[120.108237,28.382702],[120.104119,28.382702],[120.103296,28.386896],[120.099178,28.386896],[120.097531,28.39109],[120.094237,28.39109],[120.09259,28.395284],[120.088472,28.395284],[120.087649,28.399478],[120.083531,28.399478],[120.081884,28.403672],[120.07859,28.403672],[120.076943,28.407866],[120.072825,28.407866],[120.072002,28.41206],[120.067884,28.41206],[120.066237,28.416254],[120.062943,28.416254],[120.061296,28.420448],[120.057178,28.420448],[120.056355,28.424642],[120.052237,28.424642],[120.05059,28.428836],[120.047296,28.428836],[120.045649,28.43303],[120.041531,28.43303],[120.040708,28.437224],[120.03659,28.437224],[120.034943,28.441418],[120.031649,28.441418],[120.030002,28.445612],[120.025884,28.445612],[120.025061,28.449806],[120.020943,28.449806],[120.019296,28.454],[120.016002,28.454],[120.014355,28.458194],[120.010237,28.458194],[120.009414,28.462388],[120.005296,28.462388],[120.003649,28.466582],[120.001029,28.466582],[120.001029,28.399716],[120.503333,28.399716]]]}}],"part":1,"partCount":3}