{"type":"FeatureCollection","features":[{"type":"Feature","properties":{"pixelArea":1255459.5,"control":"1953-water-coarse"},"geometry":{"type":"Polygon","coordinates":[[[121.465035,27.979086],[121.173951,27.979861],[121.185315,27.972889],[121.185315,27.969016],[121.16521,27.963594],[121.163462,27.955074],[121.159091,27.95275],[121.146853,27.965918],[121.146853,27.97134],[121.159091,27.980635],[121.05507,27.979861],[121.043706,27.972889],[121.037587,27.979086],[120.952797,27.978311],[120.929196,27.974438],[120.943182,27.969791],[120.94493,27.963594],[120.939685,27.960496],[120.91958,27.966692],[120.927448,27.974438],[120.916084,27.974438],[120.911713,27.969016],[120.891608,27.974438],[120.835664,27.975988],[120.821678,27.97134],[120.814685,27.973664],[120.80507,27.967467],[120.786713,27.972889],[120.782343,27.978311],[120.772727,27.972889],[120.762238,27.975988],[120.762238,27.972115],[120.776224,27.967467],[120.770979,27.96127],[120.75,27.966692],[120.746503,27.97134],[120.748252,27.976762],[120.726399,27.977537],[120.736888,27.956623],[120.777098,27.951975],[120.783217,27.948877],[120.781469,27.941131],[120.786713,27.941905],[120.787587,27.948877],[120.796329,27.951201],[120.801573,27.948102],[120.800699,27.941905],[120.812063,27.94268],[120.836538,27.930287],[120.837413,27.925639],[120.848776,27.923315],[120.852273,27.910922],[120.843531,27.907823],[120.847902,27.90395],[120.843531,27.893881],[120.843531,27.859799],[120.828671,27.859799],[120.833042,27.855151],[120.831294,27.850503],[120.823427,27.848954],[120.823427,27.845081],[120.812063,27.836561],[120.804196,27.835786],[120.804196,27.831913],[120.796329,27.824167],[120.789336,27.823393],[120.787587,27.817971],[120.777098,27.817971],[120.782343,27.810999],[120.767483,27.801704],[120.768357,27.794733],[120.76049,27.79086],[120.736014,27.751356],[120.717657,27.745933],[120.731643,27.739737],[120.727273,27.728118],[120.722028,27.725794],[120.714161,27.731991],[120.699301,27.732765],[120.715035,27.724245],[120.715035,27.720372],[120.701049,27.711851],[120.65035,27.74206],[120.651224,27.745933],[120.662587,27.750581],[120.672203,27.749806],[120.66958,27.759876],[120.655594,27.759876],[120.656469,27.754454],[120.644231,27.745933],[120.633741,27.751356],[120.617133,27.771495],[120.618007,27.778466],[120.606643,27.788536],[120.579545,27.796282],[120.579545,27.807126],[120.590909,27.815647],[120.585664,27.820294],[120.585664,27.827266],[120.576049,27.831139],[120.562063,27.824942],[120.550699,27.82804],[120.541084,27.824167],[120.531469,27.82804],[120.52535,27.822618],[120.534091,27.824942],[120.541084,27.821069],[120.542832,27.802479],[120.538462,27.800155],[120.527972,27.804028],[120.530594,27.814872],[120.497378,27.815647],[120.503497,27.80945],[120.502622,27.803253],[120.511364,27.79938],[120.511364,27.793958],[120.502622,27.789311],[120.502622,27.776917],[120.511364,27.78079],[120.516608,27.779241],[120.51486,27.786212],[120.520105,27.789311],[120.539336,27.78079],[120.556818,27.782339],[120.551573,27.786212],[120.55507,27.792409],[120.550699,27.794733],[120.550699,27.80093],[120.55507,27.803253],[120.569056,27.793958],[120.568182,27.786212],[120.562063,27.781565],[120.591783,27.785438],[120.602273,27.78079],[120.597902,27.775368],[120.590909,27.776143],[120.607517,27.773819],[120.617133,27.759876],[120.615385,27.755229],[120.606643,27.752905],[120.61014,27.749806],[120.606643,27.742835],[120.612762,27.744384],[120.612762,27.750581],[120.619755,27.750581],[120.63549,27.730442],[120.66521,27.70488],[120.664336,27.700232],[120.65472,27.701007],[120.652098,27.697909],[120.667832,27.694036],[120.667832,27.687064],[120.660839,27.683966],[120.642483,27.685515],[120.638986,27.682417],[120.652098,27.678544],[120.652098,27.672347],[120.646853,27.668474],[120.653846,27.662277],[120.644231,27.658404],[120.662587,27.645236],[120.66958,27.644462],[120.672203,27.634392],[120.659091,27.630519],[120.661713,27.621998],[120.658217,27.612703],[120.649476,27.60883],[120.642483,27.61038],[120.631993,27.594113],[120.613636,27.60031],[120.600524,27.591789],[120.587413,27.591789],[120.579545,27.586367],[120.564685,27.592564],[120.568182,27.599535],[120.550699,27.601084],[120.554196,27.606507],[120.551573,27.611929],[120.545455,27.61038],[120.545455,27.595662],[120.513112,27.588691],[120.51049,27.579396],[120.503497,27.575523],[120.484266,27.584043],[120.478147,27.582494],[120.47028,27.59024],[120.453671,27.584043],[120.44493,27.587142],[120.441434,27.593338],[120.41958,27.59024],[120.427448,27.585593],[120.437063,27.588691],[120.450175,27.579396],[120.450175,27.575523],[120.463287,27.570875],[120.48951,27.576297],[120.512238,27.57165],[120.507867,27.566228],[120.500874,27.568552],[120.493007,27.563904],[120.51049,27.563129],[120.515734,27.567777],[120.515734,27.575523],[120.524476,27.577847],[120.52535,27.583269],[120.532343,27.583269],[120.531469,27.577072],[120.535839,27.577072],[120.548077,27.591789],[120.559441,27.58172],[120.559441,27.577072],[120.589161,27.570101],[120.590909,27.549961],[120.587413,27.546863],[120.597028,27.543765],[120.593531,27.529822],[120.600524,27.525174],[120.602273,27.515879],[120.616259,27.496514],[120.604895,27.487219],[120.619755,27.487219],[120.626748,27.483346],[120.626748,27.477924],[120.631993,27.477149],[120.638112,27.49574],[120.65472,27.500387],[120.662587,27.496514],[120.661713,27.487219],[120.679196,27.474826],[120.678322,27.46708],[120.663462,27.451588],[120.647727,27.450039],[120.65035,27.43842],[120.63986,27.432223],[120.643357,27.41828],[120.638112,27.410534],[120.645979,27.406662],[120.645979,27.402789],[120.638986,27.398916],[120.65035,27.393493],[120.645979,27.387297],[120.648601,27.377227],[120.643357,27.372579],[120.63549,27.374903],[120.625874,27.369481],[120.619755,27.372579],[120.624126,27.383424],[120.612762,27.388846],[120.615385,27.395817],[120.603147,27.395043],[120.602273,27.387297],[120.591783,27.385747],[120.579545,27.400465],[120.565559,27.407436],[120.548077,27.406662],[120.541084,27.388071],[120.548077,27.384198],[120.561189,27.386522],[120.559441,27.375678],[120.547203,27.367157],[120.536713,27.364833],[120.534965,27.348567],[120.526224,27.344694],[120.511364,27.346243],[120.527972,27.33385],[120.54021,27.335399],[120.54458,27.333075],[120.545455,27.326104],[120.55507,27.327653],[120.560315,27.324555],[120.557692,27.316809],[120.54458,27.309837],[120.553322,27.30519],[120.548951,27.299768],[120.552448,27.292796],[120.541958,27.285825],[120.522727,27.285825],[120.527972,27.27653],[120.521853,27.268009],[120.523601,27.258714],[120.539336,27.254067],[120.54021,27.249419],[120.532343,27.244771],[120.535839,27.2378],[120.527098,27.236251],[120.516608,27.226956],[120.516608,27.218435],[120.524476,27.214562],[120.523601,27.20914],[120.512238,27.204493],[120.501748,27.205267],[120.48514,27.183579],[120.471154,27.19055],[120.469406,27.203718],[120.473776,27.206042],[120.477273,27.218435],[120.464161,27.238575],[120.458042,27.240124],[120.451923,27.228505],[120.440559,27.226181],[120.437937,27.214562],[120.43007,27.213013],[120.432692,27.20062],[120.442308,27.192874],[120.442308,27.185902],[120.430944,27.182804],[120.425699,27.185902],[120.424825,27.194423],[120.413462,27.203718],[120.412587,27.20914],[120.395979,27.21921],[120.396853,27.226181],[120.409965,27.22928],[120.409091,27.240899],[120.402098,27.248644],[120.381119,27.254841],[120.379371,27.260263],[120.362762,27.258714],[120.351399,27.246321],[120.343531,27.250194],[120.343531,27.255616],[120.338287,27.25639],[120.332168,27.249419],[120.318182,27.243222],[120.310315,27.251743],[120.312937,27.262587],[120.307692,27.271108],[120.31993,27.278854],[120.320804,27.284276],[120.344406,27.298218],[120.340909,27.302091],[120.325175,27.292796],[120.320804,27.29512],[120.333042,27.316034],[120.33042,27.320682],[120.318182,27.318358],[120.303322,27.307514],[120.298951,27.312936],[120.30507,27.327653],[120.298077,27.330751],[120.293706,27.322231],[120.284965,27.319907],[120.289336,27.30519],[120.278846,27.295895],[120.257867,27.318358],[120.247378,27.319132],[120.233392,27.326878],[120.234266,27.318358],[120.242133,27.318358],[120.248252,27.315259],[120.249126,27.309837],[120.257867,27.309063],[120.257867,27.295895],[120.263112,27.290473],[120.254371,27.2866],[120.256993,27.274206],[120.249126,27.265686],[120.242133,27.268009],[120.23951,27.281952],[120.232517,27.288923],[120.228147,27.303641],[120.219406,27.304415],[120.217657,27.29512],[120.201049,27.288149],[120.201923,27.279628],[120.211538,27.274206],[120.211538,27.269558],[120.207168,27.267235],[120.208916,27.261038],[120.204545,27.254841],[120.189685,27.252517],[120.199301,27.2378],[120.195804,27.222308],[120.198427,27.214562],[120.211538,27.213788],[120.222028,27.233153],[120.222028,27.243997],[120.236888,27.259489],[120.262238,27.253292],[120.265734,27.263362],[120.280594,27.264136],[120.285839,27.260263],[120.285839,27.254841],[120.278846,27.24787],[120.306818,27.242448],[120.303322,27.233927],[120.310315,27.230054],[120.310315,27.225407],[120.31993,27.223857],[120.322552,27.217661],[120.335664,27.232378],[120.343531,27.234702],[120.344406,27.240124],[120.357517,27.239349],[120.357517,27.245546],[120.367133,27.251743],[120.375874,27.248644],[120.379371,27.2378],[120.387238,27.233927],[120.383741,27.226956],[120.387238,27.214562],[120.383741,27.207591],[120.365385,27.202943],[120.365385,27.198296],[120.353147,27.189001],[120.353147,27.179706],[120.367133,27.178931],[120.379371,27.185128],[120.381119,27.192874],[120.392483,27.196747],[120.396853,27.194423],[120.395105,27.188226],[120.405594,27.183579],[120.413462,27.165763],[120.426573,27.165763],[120.437937,27.161115],[120.433566,27.154144],[120.427448,27.158017],[120.410839,27.153369],[120.388986,27.154919],[120.41521,27.142525],[120.414336,27.138652],[120.407343,27.136328],[120.382867,27.137878],[120.379371,27.127808],[120.384615,27.122386],[120.380245,27.11464],[120.387238,27.109992],[120.397727,27.111541],[120.398601,27.106894],[120.392483,27.103796],[120.387238,27.107668],[120.340035,27.111541],[120.329545,27.121611],[120.311189,27.112316],[120.297203,27.120837],[120.288462,27.118513],[120.284091,27.120837],[120.284091,27.128582],[120.27535,27.130132],[120.269231,27.141751],[120.262238,27.1433],[120.257867,27.139427],[120.262238,27.12471],[120.252622,27.120837],[120.257867,27.118513],[120.263112,27.107668],[120.284091,27.113091],[120.289336,27.110767],[120.288462,27.100697],[120.295455,27.097599],[120.29021,27.089078],[120.292832,27.078234],[120.284965,27.07591],[120.267483,27.085205],[120.254371,27.084431],[120.249126,27.069713],[120.256119,27.070488],[120.26049,27.065066],[120.256119,27.058095],[120.242133,27.054222],[120.247378,27.049574],[120.276224,27.048799],[120.27535,27.041828],[120.280594,27.036406],[120.27535,27.023238],[120.297203,27.020914],[120.693182,27.020914],[120.698427,27.029435],[120.704545,27.026336],[120.704545,27.021689],[121.347028,27.020139],[121.480769,27.023238],[121.465035,27.979086]]]}}],"metadata":{"schema":"wenzhou-history-1953-water-control/v1","sheet":"NG51-1","title":"JUI-AN","year":1953,"scale":"1:250000","sourceImageSha256":"42ef8bb533703d24d8023ff0d84f0476dd5b59ec2ac739f3e255dcd960f3ad3a","georeference":"linear neatline interpolation from printed geographic corners; coarse control only","truthBoundary":"derived from user-provided authoritative map; use for major coastline/open-water/reclamation/reservoir conflict control, not survey-grade shoreline","pixelBounds":{"left":69,"top":65,"right":1785,"bottom":1356},"geographicBounds":{"west":120.0,"south":27.0,"east":121.5,"north":28.0}}}
