{"type":"FeatureCollection","features":[{"type":"Feature","properties":{"pixelArea":7327.0,"control":"1953-water-coarse"},"geometry":{"type":"Polygon","coordinates":[[[121.270364,28.500378],[121.275563,28.493575],[121.300693,28.491308],[121.302426,28.476946],[121.312825,28.481481],[121.317158,28.479214],[121.311958,28.470144],[121.286828,28.465608],[121.288562,28.456538],[121.279029,28.44898],[121.292028,28.452003],[121.290295,28.45805],[121.297227,28.462585],[121.30156,28.460317],[121.30156,28.452759],[121.311958,28.453515],[121.318891,28.4452],[121.32669,28.442933],[121.325823,28.439153],[121.318024,28.43613],[121.309359,28.440665],[121.309359,28.42706],[121.288562,28.414966],[121.278163,28.41421],[121.279896,28.408919],[121.295494,28.41421],[121.305026,28.409675],[121.302426,28.402872],[121.307626,28.401361],[121.311092,28.407407],[121.320624,28.411943],[121.333622,28.405896],[121.345754,28.405896],[121.354419,28.412698],[121.358752,28.410431],[121.355286,28.405896],[121.359619,28.401361],[121.357019,28.39229],[121.363951,28.389267],[121.361352,28.374906],[121.370884,28.376417],[121.364818,28.39229],[121.367418,28.398337],[121.363085,28.400605],[121.363085,28.417234],[121.355286,28.413454],[121.347487,28.415722],[121.347487,28.421013],[121.358752,28.421769],[121.358752,28.424792],[121.340555,28.430083],[121.342288,28.43613],[121.35182,28.435374],[121.356153,28.44898],[121.363951,28.451247],[121.363951,28.456538],[121.370884,28.461829],[121.365685,28.463341],[121.361352,28.458806],[121.345754,28.46712],[121.350087,28.472411],[121.363085,28.46712],[121.363085,28.479214],[121.357019,28.482237],[121.357019,28.486772],[121.345754,28.48904],[121.340555,28.495087],[121.334489,28.492819],[121.336222,28.486017],[121.327556,28.481481],[121.312825,28.482993],[121.311958,28.488284],[121.327556,28.490552],[121.322357,28.501134],[121.325823,28.507181],[121.303293,28.507181],[121.29896,28.50189],[121.287695,28.508692],[121.290295,28.50189],[121.270364,28.500378]]]}},{"type":"Feature","properties":{"pixelArea":4619.0,"control":"1953-water-coarse"},"geometry":{"type":"Polygon","coordinates":[[[121.212305,28.907785],[121.204506,28.908541],[121.196707,28.898715],[121.196707,28.892668],[121.201906,28.890401],[121.20104,28.884354],[121.197574,28.882842],[121.182842,28.891156],[121.177643,28.882842],[121.167244,28.879063],[121.166378,28.873772],[121.156846,28.873772],[121.154246,28.863946],[121.139515,28.860166],[121.149913,28.857899],[121.15078,28.852608],[121.142981,28.849584],[121.133449,28.854875],[121.137782,28.842782],[121.129116,28.839758],[121.126516,28.832955],[121.122184,28.831444],[121.115251,28.835979],[121.10052,28.826909],[121.103986,28.823885],[121.10312,28.805745],[121.107452,28.803477],[121.107452,28.793651],[121.113518,28.812547],[121.124783,28.81935],[121.129983,28.812547],[121.139515,28.817082],[121.143847,28.814815],[121.145581,28.798186],[121.154246,28.787604],[121.164645,28.783069],[121.169844,28.783825],[121.186308,28.798942],[121.193241,28.794407],[121.196707,28.786092],[121.220971,28.786848],[121.219237,28.793651],[121.212305,28.794407],[121.210572,28.798942],[121.201906,28.795163],[121.190641,28.803477],[121.171577,28.805745],[121.17591,28.801965],[121.175043,28.796674],[121.160312,28.795163],[121.147314,28.812547],[121.15078,28.830688],[121.145581,28.839758],[121.15338,28.849584],[121.17331,28.858655],[121.188908,28.856387],[121.192374,28.870748],[121.179376,28.869237],[121.172444,28.873016],[121.172444,28.877551],[121.187175,28.882842],[121.20104,28.878307],[121.20364,28.893424],[121.210572,28.897959],[121.212305,28.907785]]]}},{"type":"Feature","properties":{"pixelArea":3893.0,"control":"1953-water-coarse"},"geometry":{"type":"Polygon","coordinates":[[[121.461005,28.564626],[121.454939,28.560847],[121.44974,28.562358],[121.443674,28.557067],[121.418544,28.557067],[121.423744,28.55102],[121.44714,28.555556],[121.457539,28.55102],[121.455806,28.546485],[121.444541,28.544218],[121.44974,28.54195],[121.44714,28.535903],[121.450607,28.534392],[121.451473,28.52381],[121.457539,28.525321],[121.461872,28.519274],[121.451473,28.518519],[121.445407,28.513228],[121.431542,28.514739],[121.444541,28.510204],[121.444541,28.505669],[121.435009,28.499622],[121.441075,28.501134],[121.446274,28.495087],[121.439341,28.491308],[121.430676,28.493575],[121.425477,28.488284],[121.421144,28.494331],[121.428943,28.501134],[121.423744,28.499622],[121.414211,28.505669],[121.402946,28.50189],[121.406412,28.49811],[121.417678,28.497354],[121.416811,28.492063],[121.406412,28.493575],[121.402946,28.48904],[121.414211,28.479214],[121.426343,28.479214],[121.42461,28.467876],[121.430676,28.464097],[121.437608,28.469388],[121.442808,28.46712],[121.443674,28.460317],[121.439341,28.456538],[121.44974,28.457294],[121.455806,28.461829],[121.468804,28.461073],[121.462738,28.467876],[121.468804,28.473923],[121.475737,28.469388],[121.474003,28.464097],[121.478336,28.463341],[121.47747,28.479214],[121.474003,28.480726],[121.448873,28.467876],[121.437608,28.47619],[121.438475,28.47997],[121.451473,28.486772],[121.450607,28.495843],[121.461872,28.495087],[121.465338,28.504157],[121.475737,28.507181],[121.474003,28.515495],[121.478336,28.524565],[121.468804,28.526077],[121.458406,28.537415],[121.463605,28.542706],[121.475737,28.532124],[121.470537,28.547997],[121.464471,28.55102],[121.466205,28.555556],[121.47487,28.557823],[121.461005,28.564626]]]}},{"type":"Feature","properties":{"pixelArea":3243.5,"control":"1953-water-coarse"},"geometry":{"type":"Polygon","coordinates":[[[121.409012,28.553288],[121.40208,28.555556],[121.394281,28.551776],[121.388215,28.558579],[121.388215,28.5548],[121.381282,28.551776],[121.370017,28.556311],[121.364818,28.551776],[121.350953,28.551776],[121.344887,28.546485],[121.359619,28.543462],[121.358752,28.536659],[121.376083,28.53288],[121.380416,28.528345],[121.398614,28.53288],[121.405546,28.529101],[121.401213,28.52381],[121.388215,28.521542],[121.378683,28.525321],[121.373484,28.52003],[121.356153,28.522298],[121.34662,28.519274],[121.342288,28.521542],[121.342288,28.526077],[121.348354,28.529101],[121.345754,28.533636],[121.329289,28.524565],[121.323224,28.525321],[121.323224,28.521542],[121.344021,28.514739],[121.341421,28.507937],[121.34922,28.503401],[121.34922,28.49811],[121.357886,28.496599],[121.362218,28.48904],[121.368284,28.487528],[121.369151,28.491308],[121.376083,28.493575],[121.357886,28.499622],[121.358752,28.505669],[121.368284,28.514739],[121.382149,28.514739],[121.388215,28.52003],[121.397747,28.513983],[121.396014,28.508692],[121.385615,28.509448],[121.377816,28.502646],[121.372617,28.504157],[121.372617,28.500378],[121.40208,28.503401],[121.406412,28.508692],[121.412478,28.507181],[121.418544,28.514739],[121.416811,28.522298],[121.409012,28.526833],[121.410745,28.533636],[121.400347,28.537415],[121.393414,28.533636],[121.384749,28.54195],[121.385615,28.549509],[121.389081,28.55102],[121.395147,28.546485],[121.409012,28.553288]]]}}],"metadata":{"schema":"wenzhou-history-1953-water-control/v1","sheet":"NH51-13","title":"YUNG-CHIA (WENCHOW)","year":1953,"scale":"1:250000","sourceImageSha256":"cb6bde447701c0e7d93c12ec3795f361af79c3a5084f05702483246726d4f3d3","georeference":"linear neatline interpolation from printed geographic corners; coarse control only","truthBoundary":"derived from user-provided authoritative map; use for major coastline/open-water/reclamation/reservoir conflict control, not survey-grade shoreline","pixelBounds":{"left":59,"top":48,"right":1790,"bottom":1371},"geographicBounds":{"west":120.0,"south":28.0,"east":121.5,"north":29.0},"part":2,"partCount":3}}