{
  "type": "FeatureCollection",
  "name": "WENZHOU_17TILE_AOI_EPSG32651",
  "crs": {
    "type": "name",
    "properties": {
      "name": "EPSG:32651"
    }
  },
  "metadata": {
    "schema": "wenzhou_17tile_aoi@1.0.0",
    "truthCogSha256": "c1da93dca81abc2ee9edaa47496d80c6fa36155e11c9b61464f4f2b547659b43",
    "pixelSpacingMeters": 12.5,
    "grid": [17555, 17918],
    "projectedBounds": [187912.5, 3019612.5, 407350.0, 3243587.5],
    "wgs84Envelope": [119.84414553534705, 27.293797468756548, 122.04907102781185, 29.286519694859074],
    "areaKm2": 49148.5140625,
    "axisPolicy": "x=easting, y=northing, raster row zero at north edge",
    "manualRotationAllowed": false,
    "manualFlipAllowed": false
  },
  "features": [
    {
      "type": "Feature",
      "id": "wenzhou-17tile-truth-aoi",
      "properties": {
        "role": "authoritative_truth_extent",
        "source": "WENZHOU_17TILE_SCREENSHOT_CROP_12_5M_COG.tif",
        "sha256": "c1da93dca81abc2ee9edaa47496d80c6fa36155e11c9b61464f4f2b547659b43"
      },
      "geometry": {
        "type": "Polygon",
        "coordinates": [
          [
            [187912.5, 3019612.5],
            [407350.0, 3019612.5],
            [407350.0, 3243587.5],
            [187912.5, 3243587.5],
            [187912.5, 3019612.5]
          ]
        ]
      }
    }
  ]
}
