{
"type": "FeatureCollection",
"name": "DEPARE",
"crs": { "type": "name", "properties": { "name": "urn:ogc:def:crs:OGC:1.3:CRS84" } },
"features": [
{ "type": "Feature", "properties": { "RCID": 2424, "PRIM": 3, "GRUP": 1, "OBJL": 42, "RVER": 1, "AGEN": 550, "FIDN": 778972640, "FIDS": 9, "LNAM": "02262E6E2DE00009", "LNAM_REFS": null, "FFPT_RIND": null, "DRVAL1": 30.0, "DRVAL2": 50.0, "QUASOU": null, "SOUACC": null, "VERDAT": null, "INFORM": null, "NINFOM": null, "NTXTDS": null, "SCAMAX": null, "SCAMIN": null, "TXTDSC": null, "RECDAT": null, "RECIND": null, "SORDAT": null, "SORIND": null, "_enc_cell": "US4TB3P0" }, "geometry": { "type": "Polygon", "coordinates": [ [ [ 134.522142800000012, 7.3364278 ], [ 134.522293100000013, 7.3363113 ], [ 134.5226135, 7.3361807 ], [ 134.5228119, 7.3362527 ], [ 134.523132299999986, 7.3363195 ], [ 134.5233307, 7.3362026 ], [ 134.5234375, 7.3358474 ], [ 134.523498499999988, 7.3355947 ], [ 134.5236969, 7.3355446 ], [ 134.5236816, 7.3354807 ], [ 134.523635899999988, 7.3352222 ], [ 134.5235291, 7.3349862 ], [ 134.5234375, 7.3348475 ], [ 134.5231934, 7.3348999 ], [ 134.522934, 7.3348475 ], [ 134.5228119, 7.33465 ], [ 134.5227509, 7.3344889 ], [ 134.522781400000014, 7.3342557 ], [ 134.5229797, 7.3340221 ], [ 134.5231934, 7.33395 ], [ 134.5233917, 7.3339334 ], [ 134.5235748, 7.3338447 ], [ 134.5236969, 7.3338585 ], [ 134.52383420000001, 7.3336473 ], [ 134.5240173, 7.3336058 ], [ 134.5242462, 7.3335943 ], [ 134.5244904, 7.3336778 ], [ 134.524581899999987, 7.3337526 ], [ 134.524765, 7.3338585 ], [ 134.52493290000001, 7.3339086 ], [ 134.525054899999986, 7.3338137 ], [ 134.5251465, 7.3337832 ], [ 134.525238, 7.3336363 ], [ 134.525238, 7.3334999 ], [ 134.5252075, 7.3333197 ], [ 134.5249939, 7.3330665 ], [ 134.524826100000013, 7.332911 ], [ 134.524581899999987, 7.3327832 ], [ 134.5241699, 7.3327637 ], [ 134.5241394, 7.3327498 ], [ 134.5240173, 7.3327751 ], [ 134.5239105, 7.3327584 ], [ 134.5237885, 7.3326888 ], [ 134.5236969, 7.3325558 ], [ 134.5236511, 7.3325362 ], [ 134.5234833, 7.3325086 ], [ 134.5231934, 7.3324084 ], [ 134.5227869, 7.3322414 ], [ 134.5224762, 7.3321137 ], [ 134.5223389, 7.3321085 ], [ 134.5222015, 7.3320527 ], [ 134.5221252, 7.3319807 ], [ 134.522064199999988, 7.3318749 ], [ 134.522049, 7.3317585 ], [ 134.5220947, 7.3316445 ], [ 134.522171, 7.3315501 ], [ 134.522277800000012, 7.3314943 ], [ 134.522399900000011, 7.3314805 ], [ 134.5227356, 7.3314805 ], [ 134.522781400000014, 7.3312974 ], [ 134.522781400000014, 7.3310137 ], [ 134.5228119, 7.3308363 ], [ 134.52287290000001, 7.3306527 ], [ 134.5229797, 7.3304696 ], [ 134.5230866, 7.3303251 ], [ 134.523254400000013, 7.3301697 ], [ 134.523407, 7.3300748 ], [ 134.5234504, 7.3300527 ], [ 134.5235596, 7.3299971 ], [ 134.5235291, 7.3298445 ], [ 134.5235291, 7.3298202 ], [ 134.5235291, 7.3297081 ], [ 134.523468, 7.3296137 ], [ 134.523361200000011, 7.3294859 ], [ 134.523269699999986, 7.3293748 ], [ 134.523147599999987, 7.3292584 ], [ 134.523025499999989, 7.3291416 ], [ 134.5229645, 7.3290196 ], [ 134.5229645, 7.3288918 ], [ 134.5230408, 7.328753 ], [ 134.5231171, 7.3286419 ], [ 134.5231934, 7.328547 ], [ 134.5233307, 7.3284917 ], [ 134.5235443, 7.3284807 ], [ 134.523849500000011, 7.3284416 ], [ 134.5240104, 7.3283976 ], [ 134.5240326, 7.3283916 ], [ 134.524200400000012, 7.3282805 ], [ 134.5242462, 7.3282585 ], [ 134.5242615, 7.3281474 ], [ 134.524155900000011, 7.3279674 ], [ 134.5240479, 7.3277831 ], [ 134.524215700000013, 7.3274665 ], [ 134.5243845, 7.327292 ], [ 134.5245514, 7.3271194 ], [ 134.5246277, 7.3268027 ], [ 134.5248871, 7.3265834 ], [ 134.5251465, 7.3264389 ], [ 134.525238, 7.3261862 ], [ 134.525177, 7.3261471 ], [ 134.5251007, 7.3260803 ], [ 134.5250244, 7.3261194 ], [ 134.524948099999989, 7.3261418 ], [ 134.524810800000012, 7.3261471 ], [ 134.5247752, 7.3261371 ], [ 134.5246735, 7.3261085 ], [ 134.5245514, 7.3260474 ], [ 134.524459799999988, 7.3259583 ], [ 134.5244141, 7.3258252 ], [ 134.5244141, 7.3256807 ], [ 134.52444460000001, 7.3255696 ], [ 134.5245056, 7.3254833 ], [ 134.5246277, 7.3254137 ], [ 134.524765, 7.3253584 ], [ 134.5250244, 7.3252807 ], [ 134.525065, 7.3252807 ], [ 134.5251007, 7.3252807 ], [ 134.525161700000012, 7.3251891 ], [ 134.525238, 7.3248973 ], [ 134.525227, 7.3248019 ], [ 134.525192299999986, 7.3245029 ], [ 134.5251007, 7.3242998 ], [ 134.525116, 7.3241582 ], [ 134.5251007, 7.3240776 ], [ 134.525085499999989, 7.3240333 ], [ 134.525085499999989, 7.3239584 ], [ 134.5250244, 7.3238306 ], [ 134.52493290000001, 7.3237195 ], [ 134.524826100000013, 7.3235998 ], [ 134.5247192, 7.3234553 ], [ 134.5247192, 7.3232999 ], [ 134.524765, 7.3231387 ], [ 134.524826100000013, 7.3230667 ], [ 134.5249786, 7.3229775 ], [ 134.5251312, 7.3229055 ], [ 134.525238, 7.3228722 ], [ 134.5253601, 7.3228278 ], [ 134.5254249, 7.3227671 ], [ 134.5254669, 7.3227277 ], [ 134.525416799999988, 7.3226772 ], [ 134.5252686, 7.3225279 ], [ 134.5251465, 7.3220501 ], [ 134.525085499999989, 7.3216 ], [ 134.5250397, 7.3211474 ], [ 134.5249176, 7.3207359 ], [ 134.524801186792246, 7.320108546267719 ], [ 134.523672433098028, 7.321773935540262 ], [ 134.5236511, 7.3221722 ], [ 134.523819, 7.3222113 ], [ 134.523819, 7.3224807 ], [ 134.52388, 7.3227139 ], [ 134.523986799999989, 7.3229637 ], [ 134.5240784, 7.3231611 ], [ 134.5241699, 7.3234305 ], [ 134.5241852, 7.323647 ], [ 134.524108899999987, 7.3239694 ], [ 134.52397160000001, 7.3241305 ], [ 134.5237885, 7.3242192 ], [ 134.523620599999987, 7.3242192 ], [ 134.5234222, 7.3241668 ], [ 134.5231934, 7.3239331 ], [ 134.523132299999986, 7.3237891 ], [ 134.5229492, 7.3237362 ], [ 134.5228119, 7.3237581 ], [ 134.5228119, 7.3239026 ], [ 134.5227509, 7.3240891 ], [ 134.522659299999987, 7.3242054 ], [ 134.5225678, 7.3242722 ], [ 134.522399900000011, 7.3243251 ], [ 134.522308399999986, 7.3243361 ], [ 134.5221558, 7.3243361 ], [ 134.5219727, 7.3243141 ], [ 134.521951587963713, 7.324312910199789 ], [ 134.5211715, 7.32546387 ], [ 134.52124725041881, 7.32725536293975 ], [ 134.5213013, 7.3273692 ], [ 134.5213928, 7.3275499 ], [ 134.5215302, 7.327764 ], [ 134.521698, 7.3279252 ], [ 134.5217743, 7.3281221 ], [ 134.521804800000012, 7.3283749 ], [ 134.5217743, 7.3286252 ], [ 134.5216675, 7.3288221 ], [ 134.5215302, 7.3289113 ], [ 134.521321610389833, 7.329013971871996 ], [ 134.521651205785389, 7.336808883549981 ], [ 134.522142800000012, 7.3364278 ] ], [ [ 134.5232849, 7.3262582 ], [ 134.5234375, 7.326364 ], [ 134.5235443, 7.3266001 ], [ 134.5235443, 7.3267946 ], [ 134.5234528, 7.3269749 ], [ 134.5231934, 7.3270474 ], [ 134.5228272, 7.327064 ], [ 134.522583, 7.3269749 ], [ 134.5224762, 7.3267613 ], [ 134.5224762, 7.3264556 ], [ 134.522644, 7.3262944 ], [ 134.5228424, 7.3262391 ], [ 134.5230866, 7.3262224 ], [ 134.5232849, 7.3262582 ] ], [ [ 134.524108899999987, 7.3263526 ], [ 134.524215700000013, 7.326364 ], [ 134.524292, 7.326436 ], [ 134.524353, 7.3265195 ], [ 134.5243683, 7.3265915 ], [ 134.5243835, 7.326664 ], [ 134.5243835, 7.3267889 ], [ 134.524292, 7.3269196 ], [ 134.5241852, 7.3270278 ], [ 134.5240326, 7.327075 ], [ 134.5239105, 7.3270669 ], [ 134.5238037, 7.3270974 ], [ 134.523742700000014, 7.3270888 ], [ 134.5236816, 7.3270474 ], [ 134.5236511, 7.3270083 ], [ 134.523620599999987, 7.3269081 ], [ 134.523635899999988, 7.3268166 ], [ 134.523635899999988, 7.3267694 ], [ 134.5236664, 7.3266835 ], [ 134.523727400000013, 7.3265138 ], [ 134.5238037, 7.3264418 ], [ 134.52397160000001, 7.3263974 ], [ 134.524108899999987, 7.3263526 ] ], [ [ 134.5224915, 7.3306084 ], [ 134.522415200000012, 7.3306027 ], [ 134.5223389, 7.3305693 ], [ 134.522277800000012, 7.330514 ], [ 134.522277800000012, 7.3304973 ], [ 134.5222473, 7.3304582 ], [ 134.5222321, 7.3303304 ], [ 134.5222168, 7.330225 ], [ 134.5222321, 7.3300972 ], [ 134.5223389, 7.3298974 ], [ 134.5224304, 7.3298307 ], [ 134.5225678, 7.329803 ], [ 134.522674599999988, 7.329803 ], [ 134.522781400000014, 7.3298526 ], [ 134.522888200000011, 7.329936 ], [ 134.5229034, 7.3300362 ], [ 134.5229034, 7.3301582 ], [ 134.5228424, 7.3302641 ], [ 134.5228424, 7.3303304 ], [ 134.5228119, 7.3304081 ], [ 134.5227509, 7.3304863 ], [ 134.522674599999988, 7.3305416 ], [ 134.5225983, 7.3305807 ], [ 134.5224915, 7.3306084 ] ] ] } },
{ "type": "Feature", "properties": { "RCID": 2666, "PRIM": 3, "GRUP": 1, "OBJL": 42, "RVER": 1, "AGEN": 550, "FIDN": 778748971, "FIDS": 9, "LNAM": "02262E6AC42B0009", "LNAM_REFS": null, "FFPT_RIND": null, "DRVAL1": 5.0, "DRVAL2": 10.0, "QUASOU": null, "SOUACC": null, "VERDAT": null, "INFORM": null, "NINFOM": null, "NTXTDS": null, "SCAMAX": null, "SCAMIN": null, "TXTDSC": null, "RECDAT": null, "RECIND": null, "SORDAT": null, "SORIND": null, "_enc_cell": "US4TB3P0" }, "geometry": { "type": "Polygon", "coordinates": [ [ [ 134.5286408, 7.3330975 ], [ 134.5286255, 7.3332696 ], [ 134.5286408, 7.3333111 ], [ 134.5287018, 7.333436 ], [ 134.5288086, 7.3335419 ], [ 134.528915399999988, 7.3336363 ], [ 134.529068, 7.3336887 ], [ 134.52925110000001, 7.3337002 ], [ 134.5294342, 7.3337002 ], [ 134.529617300000012, 7.3336778 ], [ 134.52986150000001, 7.3336139 ], [ 134.5300293, 7.3335528 ], [ 134.5301819, 7.3334999 ], [ 134.5305023, 7.3334141 ], [ 134.53068540000001, 7.3334251 ], [ 134.5308075, 7.3334475 ], [ 134.530960099999987, 7.3334804 ], [ 134.5310211, 7.3334665 ], [ 134.5312805, 7.3334665 ], [ 134.531433099999987, 7.3334751 ], [ 134.531601, 7.3335419 ], [ 134.53178410000001, 7.3336916 ], [ 134.5318146, 7.3335891 ], [ 134.5316925, 7.3333669 ], [ 134.5314789, 7.3333306 ], [ 134.5312042, 7.3331223 ], [ 134.5310211, 7.3328891 ], [ 134.5309906, 7.332614 ], [ 134.5308075, 7.3325305 ], [ 134.5305634, 7.3325086 ], [ 134.5303803, 7.3325248 ], [ 134.5303192, 7.3326335 ], [ 134.5303192, 7.3328943 ], [ 134.530212400000011, 7.3329697 ], [ 134.530120899999986, 7.3331113 ], [ 134.52986150000001, 7.3331528 ], [ 134.5296936, 7.3331752 ], [ 134.529525799999988, 7.3330336 ], [ 134.5293274, 7.3329501 ], [ 134.529037499999987, 7.3330388 ], [ 134.5287476, 7.3329554 ], [ 134.5287018, 7.3330083 ], [ 134.5286408, 7.3330975 ] ] ] } },
{ "type": "Feature", "properties": { "RCID": 2669, "PRIM": 3, "GRUP": 1, "OBJL": 42, "RVER": 1, "AGEN": 550, "FIDN": 31825299, "FIDS": 9, "LNAM": "022601E59D930009", "LNAM_REFS": null, "FFPT_RIND": null, "DRVAL1": null, "DRVAL2": 0.0, "QUASOU": null, "SOUACC": null, "VERDAT": null, "INFORM": null, "NINFOM": null, "NTXTDS": null, "SCAMAX": null, "SCAMIN": null, "TXTDSC": null, "RECDAT": null, "RECIND": null, "SORDAT": null, "SORIND": null, "_enc_cell": "US4TB3P0" }, "geometry": { "type": "Polygon", "coordinates": [ [ [ 134.5249634, 7.3340612 ], [ 134.5248871, 7.3344002 ], [ 134.5250092, 7.3345919 ], [ 134.525299100000012, 7.3349333 ], [ 134.525589, 7.3350945 ], [ 134.5258484, 7.3349333 ], [ 134.525909399999989, 7.3348918 ], [ 134.5259399, 7.3346558 ], [ 134.5259552, 7.3345194 ], [ 134.526031499999988, 7.3343 ], [ 134.5258789, 7.3340359 ], [ 134.52540590000001, 7.3339109 ], [ 134.5252533, 7.3339109 ], [ 134.525161700000012, 7.333961 ], [ 134.5249634, 7.3340612 ] ] ] } },
{ "type": "Feature", "properties": { "RCID": 3165, "PRIM": 3, "GRUP": 1, "OBJL": 42, "RVER": 1, "AGEN": 550, "FIDN": 642426655, "FIDS": 9, "LNAM": "0226264AA71F0009", "LNAM_REFS": null, "FFPT_RIND": null, "DRVAL1": 0.0, "DRVAL2": 2.0, "QUASOU": null, "SOUACC": null, "VERDAT": null, "INFORM": null, "NINFOM": null, "NTXTDS": null, "SCAMAX": null, "SCAMIN": null, "TXTDSC": null, "RECDAT": null, "RECIND": null, "SORDAT": null, "SORIND": null, "_enc_cell": "US4TB3P0" }, "geometry": { "type": "Polygon", "coordinates": [ [ [ 134.5319824, 7.3365808 ], [ 134.5321655, 7.3365445 ], [ 134.5323486, 7.3365502 ], [ 134.5326538, 7.3364196 ], [ 134.53321840000001, 7.3364196 ], [ 134.533371, 7.3363586 ], [ 134.5335541, 7.3361278 ], [ 134.533599900000013, 7.335947 ], [ 134.5335388, 7.3358388 ], [ 134.5333405, 7.3357387 ], [ 134.5331574, 7.3355527 ], [ 134.5330658, 7.3353195 ], [ 134.53302, 7.3347836 ], [ 134.532974200000012, 7.3342638 ], [ 134.532882699999988, 7.3339777 ], [ 134.5327148, 7.3338165 ], [ 134.5325623, 7.3337665 ], [ 134.532501200000013, 7.3338637 ], [ 134.5324707, 7.3341613 ], [ 134.5324249, 7.334197 ], [ 134.5322113, 7.3343196 ], [ 134.5322266, 7.3343639 ], [ 134.5323181, 7.3345304 ], [ 134.5323486, 7.3348141 ], [ 134.5323486, 7.3350029 ], [ 134.5323029, 7.3352776 ], [ 134.5321808, 7.3355084 ], [ 134.5320587, 7.3357611 ], [ 134.532028200000013, 7.3359723 ], [ 134.5319672, 7.3361917 ], [ 134.5318604, 7.336411 ], [ 134.531799299999989, 7.3365502 ], [ 134.53178410000001, 7.3366222 ], [ 134.5317535, 7.3366971 ], [ 134.5319824, 7.3365808 ] ] ] } },
{ "type": "Feature", "properties": { "RCID": 2665, "PRIM": 3, "GRUP": 1, "OBJL": 42, "RVER": 1, "AGEN": 550, "FIDN": 162885800, "FIDS": 9, "LNAM": "022609B570A80009", "LNAM_REFS": null, "FFPT_RIND": null, "DRVAL1": 10.0, "DRVAL2": 20.0, "QUASOU": null, "SOUACC": null, "VERDAT": null, "INFORM": null, "NINFOM": null, "NTXTDS": null, "SCAMAX": null, "SCAMIN": null, "TXTDSC": null, "RECDAT": null, "RECIND": null, "SORDAT": null, "SORIND": null, "_enc_cell": "US4TB3P0" }, "geometry": { "type": "Polygon", "coordinates": [ [ [ 134.5302582, 7.3389053 ], [ 134.5300751, 7.338789 ], [ 134.529983499999986, 7.338675 ], [ 134.5299225, 7.3383999 ], [ 134.5299225, 7.3382525 ], [ 134.5299683, 7.3380942 ], [ 134.530105600000013, 7.3380113 ], [ 134.530365, 7.3379998 ], [ 134.530578600000013, 7.3380637 ], [ 134.5308075, 7.3381472 ], [ 134.5309906, 7.3382001 ], [ 134.531173700000011, 7.3382416 ], [ 134.5312042, 7.3382502 ], [ 134.5312958, 7.338275 ], [ 134.5314179, 7.338336 ], [ 134.531677300000013, 7.3383665 ], [ 134.5318756, 7.338397 ], [ 134.5319672, 7.3384557 ], [ 134.532012900000012, 7.3384419 ], [ 134.532074, 7.3383279 ], [ 134.532074, 7.3382416 ], [ 134.5319824, 7.3381639 ], [ 134.531936699999989, 7.3381276 ], [ 134.53178410000001, 7.3381391 ], [ 134.5314941, 7.3380666 ], [ 134.5312653, 7.3377695 ], [ 134.5312195, 7.3375111 ], [ 134.5313721, 7.3370276 ], [ 134.5314941, 7.3368807 ], [ 134.5316315, 7.3367362 ], [ 134.5317535, 7.3366971 ], [ 134.53178410000001, 7.3366222 ], [ 134.531799299999989, 7.3365502 ], [ 134.5318604, 7.336411 ], [ 134.5319672, 7.3361917 ], [ 134.532028200000013, 7.3359723 ], [ 134.5320587, 7.3357611 ], [ 134.5321808, 7.3355084 ], [ 134.5323029, 7.3352776 ], [ 134.5323486, 7.3350029 ], [ 134.5323486, 7.3348141 ], [ 134.5323181, 7.3345304 ], [ 134.5322266, 7.3343639 ], [ 134.5322113, 7.3343196 ], [ 134.5321045, 7.3343058 ], [ 134.531921399999987, 7.3341389 ], [ 134.5318298, 7.3340669 ], [ 134.5317688, 7.3337975 ], [ 134.53178410000001, 7.3336916 ], [ 134.531601, 7.3335419 ], [ 134.531433099999987, 7.3334751 ], [ 134.5312805, 7.3334665 ], [ 134.5310211, 7.3334665 ], [ 134.530960099999987, 7.3334804 ], [ 134.5308075, 7.3334475 ], [ 134.53068540000001, 7.3334251 ], [ 134.5305023, 7.3334141 ], [ 134.5301819, 7.3334999 ], [ 134.5300293, 7.3335528 ], [ 134.52986150000001, 7.3336139 ], [ 134.529617300000012, 7.3336778 ], [ 134.5294342, 7.3337002 ], [ 134.52925110000001, 7.3337002 ], [ 134.529068, 7.3336887 ], [ 134.528915399999988, 7.3336363 ], [ 134.5288086, 7.3335419 ], [ 134.5287018, 7.333436 ], [ 134.5286408, 7.3333111 ], [ 134.5286255, 7.3332696 ], [ 134.5286408, 7.3330975 ], [ 134.5287018, 7.3330083 ], [ 134.5287476, 7.3329554 ], [ 134.52876280000001, 7.3327527 ], [ 134.528564499999987, 7.3326387 ], [ 134.528427099999988, 7.3327222 ], [ 134.52828980000001, 7.3329139 ], [ 134.528122, 7.3330026 ], [ 134.5279083, 7.3329501 ], [ 134.5277863, 7.3327999 ], [ 134.527587899999986, 7.3326445 ], [ 134.5274353, 7.3326278 ], [ 134.5271454, 7.3327751 ], [ 134.5270392, 7.3328637 ], [ 134.526886, 7.3329916 ], [ 134.526611300000013, 7.3334026 ], [ 134.5264282, 7.3337975 ], [ 134.5262299, 7.3338447 ], [ 134.5259857, 7.3338637 ], [ 134.5254822, 7.3336306 ], [ 134.525299100000012, 7.3334694 ], [ 134.525177, 7.3330975 ], [ 134.525238, 7.3328419 ], [ 134.5254822, 7.3327112 ], [ 134.5257111, 7.3326387 ], [ 134.5257263, 7.3325362 ], [ 134.5257111, 7.3323751 ], [ 134.5257111, 7.3323445 ], [ 134.5256805, 7.3322721 ], [ 134.5257416, 7.3322363 ], [ 134.5256958, 7.3321362 ], [ 134.525787400000013, 7.332047 ], [ 134.5258637, 7.3320723 ], [ 134.526001, 7.33215 ], [ 134.5261688, 7.3321362 ], [ 134.52636720000001, 7.331964 ], [ 134.526733400000012, 7.3311696 ], [ 134.526825, 7.3309722 ], [ 134.5267944, 7.3307943 ], [ 134.5266876, 7.3307276 ], [ 134.526413, 7.3308168 ], [ 134.5263062, 7.330914 ], [ 134.526260400000012, 7.3311582 ], [ 134.5260773, 7.33145 ], [ 134.5258484, 7.331553 ], [ 134.5256805, 7.3315945 ], [ 134.5256805, 7.3318029 ], [ 134.5255737, 7.3319335 ], [ 134.525283800000011, 7.332078 ], [ 134.5249786, 7.3323584 ], [ 134.524475099999989, 7.332561 ], [ 134.524093599999986, 7.3326278 ], [ 134.5239258, 7.3326197 ], [ 134.5236816, 7.3324943 ], [ 134.5234528, 7.3322973 ], [ 134.5233307, 7.332047 ], [ 134.523468, 7.3318391 ], [ 134.523742700000014, 7.3314915 ], [ 134.5239105, 7.3312416 ], [ 134.5238953, 7.3310084 ], [ 134.523742700000014, 7.3306308 ], [ 134.523727400000013, 7.3307805 ], [ 134.5237122, 7.3309641 ], [ 134.523727400000013, 7.3310695 ], [ 134.5236664, 7.3312473 ], [ 134.5235443, 7.3313751 ], [ 134.5234222, 7.3314362 ], [ 134.5232086, 7.3314638 ], [ 134.5229711, 7.3314694 ], [ 134.5229645, 7.3314695 ], [ 134.5227356, 7.3314805 ], [ 134.522399900000011, 7.3314805 ], [ 134.522277800000012, 7.3314943 ], [ 134.522171, 7.3315501 ], [ 134.5220947, 7.3316445 ], [ 134.522049, 7.3317585 ], [ 134.522064199999988, 7.3318749 ], [ 134.5221252, 7.3319807 ], [ 134.5222015, 7.3320527 ], [ 134.5223389, 7.3321085 ], [ 134.5224762, 7.3321137 ], [ 134.5227869, 7.3322414 ], [ 134.5231934, 7.3324084 ], [ 134.5234833, 7.3325086 ], [ 134.5236511, 7.3325362 ], [ 134.5236969, 7.3325558 ], [ 134.5237885, 7.3326888 ], [ 134.5239105, 7.3327584 ], [ 134.5240173, 7.3327751 ], [ 134.5241394, 7.3327498 ], [ 134.5241699, 7.3327637 ], [ 134.524581899999987, 7.3327832 ], [ 134.524826100000013, 7.332911 ], [ 134.5249939, 7.3330665 ], [ 134.5252075, 7.3333197 ], [ 134.525238, 7.3334999 ], [ 134.525238, 7.3336363 ], [ 134.5251465, 7.3337832 ], [ 134.525054899999986, 7.3338137 ], [ 134.52493290000001, 7.3339086 ], [ 134.525161700000012, 7.333961 ], [ 134.5252533, 7.3339109 ], [ 134.52540590000001, 7.3339109 ], [ 134.5258789, 7.3340359 ], [ 134.526031499999988, 7.3343 ], [ 134.5259552, 7.3345194 ], [ 134.5259399, 7.3346558 ], [ 134.526001, 7.3345833 ], [ 134.5261841, 7.3343835 ], [ 134.5264282, 7.3342056 ], [ 134.5266876, 7.3340249 ], [ 134.526787899999988, 7.3339631 ], [ 134.527114899999987, 7.3337612 ], [ 134.5273743, 7.3337612 ], [ 134.5279236, 7.3337526 ], [ 134.5285797, 7.3338194 ], [ 134.528671300000013, 7.3338361 ], [ 134.5288239, 7.333889 ], [ 134.5289764, 7.3339305 ], [ 134.529144300000013, 7.334003 ], [ 134.52925110000001, 7.3340554 ], [ 134.5293732, 7.3341084 ], [ 134.5294495, 7.3342471 ], [ 134.52948, 7.3343945 ], [ 134.529495200000014, 7.3345304 ], [ 134.5294647, 7.3346558 ], [ 134.529388399999988, 7.334836 ], [ 134.529266400000012, 7.3349609 ], [ 134.5291748, 7.3350248 ], [ 134.5289764, 7.3350444 ], [ 134.528244, 7.3350864 ], [ 134.5279846, 7.3351307 ], [ 134.5277405, 7.3351388 ], [ 134.527465799999987, 7.3351388 ], [ 134.5272522, 7.3351612 ], [ 134.527343800000011, 7.3352556 ], [ 134.527572600000013, 7.335578 ], [ 134.527572600000013, 7.3357916 ], [ 134.527587899999986, 7.3358584 ], [ 134.5276489, 7.3359361 ], [ 134.5279236, 7.3361139 ], [ 134.528305100000011, 7.3364306 ], [ 134.5287018, 7.3367195 ], [ 134.5290985, 7.3367944 ], [ 134.529739400000011, 7.337153 ], [ 134.5299377, 7.3373804 ], [ 134.5299072, 7.3377085 ], [ 134.5298309, 7.3379555 ], [ 134.5296783, 7.3380389 ], [ 134.5294342, 7.3379612 ], [ 134.5290833, 7.3376803 ], [ 134.52876280000001, 7.3375611 ], [ 134.5285034, 7.3373694 ], [ 134.528183, 7.3372555 ], [ 134.528183, 7.3374391 ], [ 134.528244, 7.3377776 ], [ 134.5284119, 7.3380637 ], [ 134.5286255, 7.3383331 ], [ 134.5288696, 7.3385668 ], [ 134.5296478, 7.3391419 ], [ 134.5299683, 7.3394113 ], [ 134.5302429, 7.3396416 ], [ 134.5305328, 7.339911 ], [ 134.53068540000001, 7.3401084 ], [ 134.5307312, 7.3403611 ], [ 134.5307465, 7.3405585 ], [ 134.5307617, 7.3406553 ], [ 134.53082280000001, 7.3405695 ], [ 134.5309753, 7.3404946 ], [ 134.5310211, 7.3402834 ], [ 134.5310211, 7.3400946 ], [ 134.5309906, 7.3398609 ], [ 134.5309296, 7.3396945 ], [ 134.5308075, 7.3395166 ], [ 134.53068540000001, 7.3393889 ], [ 134.530578600000013, 7.339325 ], [ 134.5305023, 7.3390417 ], [ 134.5302582, 7.3389053 ] ] ] } },
{ "type": "Feature", "properties": { "RCID": 3168, "PRIM": 3, "GRUP": 1, "OBJL": 42, "RVER": 1, "AGEN": 550, "FIDN": 35516473, "FIDS": 9, "LNAM": "0226021DF0390009", "LNAM_REFS": null, "FFPT_RIND": null, "DRVAL1": 10.0, "DRVAL2": 20.0, "QUASOU": null, "SOUACC": null, "VERDAT": null, "INFORM": null, "NINFOM": null, "NTXTDS": null, "SCAMAX": null, "SCAMIN": null, "TXTDSC": null, "RECDAT": null, "RECIND": null, "SORDAT": null, "SORIND": null, "_enc_cell": "US4TB3P0" }, "geometry": { "type": "Polygon", "coordinates": [ [ [ 134.5271759, 7.3362474 ], [ 134.527221700000013, 7.336164 ], [ 134.5274048, 7.3360443 ], [ 134.5274506, 7.3359776 ], [ 134.5272369, 7.3359585 ], [ 134.527114899999987, 7.3359084 ], [ 134.5271301, 7.3359585 ], [ 134.5271454, 7.3360028 ], [ 134.5271301, 7.3360972 ], [ 134.5270844, 7.3362308 ], [ 134.5270691, 7.336297 ], [ 134.5271759, 7.3362474 ] ] ] } },
{ "type": "Feature", "properties": { "RCID": 2195, "PRIM": 3, "GRUP": 1, "OBJL": 42, "RVER": 1, "AGEN": 550, "FIDN": 487920801, "FIDS": 9, "LNAM": "02261D1514A10009", "LNAM_REFS": null, "FFPT_RIND": null, "DRVAL1": null, "DRVAL2": 0.0, "QUASOU": null, "SOUACC": null, "VERDAT": null, "INFORM": null, "NINFOM": null, "NTXTDS": null, "SCAMAX": null, "SCAMIN": null, "TXTDSC": null, "RECDAT": null, "RECIND": null, "SORDAT": null, "SORIND": null, "_enc_cell": "US4TB3P0" }, "geometry": { "type": "Polygon", "coordinates": [ [ [ 134.5258484, 7.3367305 ], [ 134.525909399999989, 7.3369026 ], [ 134.5261189, 7.3368889 ], [ 134.526245100000011, 7.3368807 ], [ 134.526504499999987, 7.3367777 ], [ 134.526626599999986, 7.3367 ], [ 134.5266724, 7.3365083 ], [ 134.526718100000011, 7.3364668 ], [ 134.5266724, 7.33635 ], [ 134.5265503, 7.3361692 ], [ 134.526474, 7.3360915 ], [ 134.5263086, 7.336059 ], [ 134.5261078, 7.3360195 ], [ 134.5258789, 7.3360972 ], [ 134.525756800000011, 7.3362584 ], [ 134.5258179, 7.3365278 ], [ 134.5258484, 7.3367305 ] ] ] } },
{ "type": "Feature", "properties": { "RCID": 1959, "PRIM": 3, "GRUP": 1, "OBJL": 42, "RVER": 1, "AGEN": 550, "FIDN": 386474862, "FIDS": 9, "LNAM": "02261709236E0009", "LNAM_REFS": null, "FFPT_RIND": null, "DRVAL1": null, "DRVAL2": 0.0, "QUASOU": null, "SOUACC": null, "VERDAT": null, "INFORM": null, "NINFOM": null, "NTXTDS": null, "SCAMAX": null, "SCAMIN": null, "TXTDSC": null, "RECDAT": null, "RECIND": null, "SORDAT": null, "SORIND": null, "_enc_cell": "US4TB3P0" }, "geometry": { "type": "Polygon", "coordinates": [ [ [ 134.5272369, 7.3359585 ], [ 134.5274506, 7.3359776 ], [ 134.5274048, 7.3360443 ], [ 134.527221700000013, 7.336164 ], [ 134.5271759, 7.3362474 ], [ 134.5270691, 7.336297 ], [ 134.526992799999988, 7.3364363 ], [ 134.526947, 7.3365054 ], [ 134.5269013, 7.3366585 ], [ 134.5269623, 7.3371058 ], [ 134.527206400000011, 7.3372889 ], [ 134.5272522, 7.3373332 ], [ 134.5277557, 7.3371835 ], [ 134.5280151, 7.3371973 ], [ 134.528183, 7.3372555 ], [ 134.5285034, 7.3373694 ], [ 134.52876280000001, 7.3375611 ], [ 134.5290833, 7.3376803 ], [ 134.5294342, 7.3379612 ], [ 134.5296783, 7.3380389 ], [ 134.5298309, 7.3379555 ], [ 134.5299072, 7.3377085 ], [ 134.5299377, 7.3373804 ], [ 134.529739400000011, 7.337153 ], [ 134.5290985, 7.3367944 ], [ 134.5287018, 7.3367195 ], [ 134.528305100000011, 7.3364306 ], [ 134.5279236, 7.3361139 ], [ 134.5276489, 7.3359361 ], [ 134.527587899999986, 7.3358584 ], [ 134.527572600000013, 7.3357916 ], [ 134.527572600000013, 7.335578 ], [ 134.527343800000011, 7.3352556 ], [ 134.5272522, 7.3351612 ], [ 134.5271759, 7.3350639 ], [ 134.526977499999987, 7.3350945 ], [ 134.5267944, 7.335422 ], [ 134.5269165, 7.3355999 ], [ 134.527114899999987, 7.3359084 ], [ 134.5272369, 7.3359585 ] ] ] } },
{ "type": "Feature", "properties": { "RCID": 1699, "PRIM": 3, "GRUP": 1, "OBJL": 42, "RVER": 1, "AGEN": 550, "FIDN": 349804242, "FIDS": 9, "LNAM": "022614D996D20009", "LNAM_REFS": null, "FFPT_RIND": null, "DRVAL1": 0.0, "DRVAL2": 2.0, "QUASOU": null, "SOUACC": null, "VERDAT": null, "INFORM": null, "NINFOM": null, "NTXTDS": null, "SCAMAX": null, "SCAMIN": null, "TXTDSC": null, "RECDAT": null, "RECIND": null, "SORDAT": null, "SORIND": null, "_enc_cell": "US4TB3P0" }, "geometry": { "type": "Polygon", "coordinates": [ [ [ 134.5269013, 7.3365054 ], [ 134.526870699999989, 7.3365054 ], [ 134.526733400000012, 7.3364334 ], [ 134.526718100000011, 7.3364081 ], [ 134.5266724, 7.33635 ], [ 134.526718100000011, 7.3364668 ], [ 134.5266724, 7.3365083 ], [ 134.526626599999986, 7.3367 ], [ 134.526504499999987, 7.3367777 ], [ 134.526245100000011, 7.3368807 ], [ 134.5261189, 7.3368889 ], [ 134.525909399999989, 7.3369026 ], [ 134.5258484, 7.3367305 ], [ 134.5258179, 7.3365278 ], [ 134.525787400000013, 7.3365831 ], [ 134.5257416, 7.3366637 ], [ 134.5257111, 7.3368335 ], [ 134.5257263, 7.3370113 ], [ 134.5258026, 7.3371167 ], [ 134.526016199999987, 7.3371697 ], [ 134.526056399999987, 7.3371622 ], [ 134.5261841, 7.3371387 ], [ 134.52636720000001, 7.3371277 ], [ 134.5266571, 7.3371277 ], [ 134.526870699999989, 7.3371697 ], [ 134.5270691, 7.3373585 ], [ 134.527206400000011, 7.3372889 ], [ 134.5269623, 7.3371058 ], [ 134.5269013, 7.3366585 ], [ 134.526947, 7.3365054 ], [ 134.5269013, 7.3365054 ] ] ] } },
{ "type": "Feature", "properties": { "RCID": 1476, "PRIM": 3, "GRUP": 1, "OBJL": 42, "RVER": 1, "AGEN": 550, "FIDN": 631119549, "FIDS": 9, "LNAM": "0226259E1EBD0009", "LNAM_REFS": null, "FFPT_RIND": null, "DRVAL1": 0.0, "DRVAL2": 2.0, "QUASOU": null, "SOUACC": null, "VERDAT": null, "INFORM": null, "NINFOM": null, "NTXTDS": null, "SCAMAX": null, "SCAMIN": null, "TXTDSC": null, "RECDAT": null, "RECIND": null, "SORDAT": null, "SORIND": null, "_enc_cell": "US4TB3P0" }, "geometry": { "type": "Polygon", "coordinates": [ [ [ 134.5312958, 7.338275 ], [ 134.5312042, 7.3382502 ], [ 134.531173700000011, 7.3382416 ], [ 134.5309906, 7.3382001 ], [ 134.5308075, 7.3381472 ], [ 134.530578600000013, 7.3380637 ], [ 134.530365, 7.3379998 ], [ 134.530105600000013, 7.3380113 ], [ 134.5299683, 7.3380942 ], [ 134.5299225, 7.3382525 ], [ 134.5299225, 7.3383999 ], [ 134.529983499999986, 7.338675 ], [ 134.5300751, 7.338789 ], [ 134.5302582, 7.3389053 ], [ 134.5305023, 7.3390417 ], [ 134.5309906, 7.3392835 ], [ 134.5310974, 7.3393693 ], [ 134.5316162, 7.3393583 ], [ 134.531448399999988, 7.3392139 ], [ 134.531082199999986, 7.3389583 ], [ 134.5307465, 7.3385224 ], [ 134.5308685, 7.3383555 ], [ 134.531051600000012, 7.3382945 ], [ 134.5314179, 7.338336 ], [ 134.5312958, 7.338275 ] ] ] } },
{ "type": "Feature", "properties": { "RCID": 1702, "PRIM": 3, "GRUP": 1, "OBJL": 42, "RVER": 1, "AGEN": 550, "FIDN": 911438801, "FIDS": 9, "LNAM": "0226365373D10009", "LNAM_REFS": null, "FFPT_RIND": null, "DRVAL1": 10.0, "DRVAL2": 20.0, "QUASOU": null, "SOUACC": null, "VERDAT": null, "INFORM": null, "NINFOM": null, "NTXTDS": null, "SCAMAX": null, "SCAMIN": null, "TXTDSC": null, "RECDAT": null, "RECIND": null, "SORDAT": null, "SORIND": null, "_enc_cell": "US4TB3P0" }, "geometry": { "type": "Polygon", "coordinates": [ [ [ 134.5228119, 7.3232307 ], [ 134.5228424, 7.3232665 ], [ 134.523147599999987, 7.3233194 ], [ 134.5232849, 7.3232665 ], [ 134.5235443, 7.3229251 ], [ 134.5235901, 7.3227444 ], [ 134.5236511, 7.3224583 ], [ 134.5236511, 7.3221722 ], [ 134.523672433098028, 7.321773935540262 ], [ 134.522727889733233, 7.323167536637879 ], [ 134.522766100000013, 7.3232193 ], [ 134.522781400000014, 7.323225 ], [ 134.5228119, 7.3232307 ] ] ] } },
{ "type": "Feature", "properties": { "RCID": 1483, "PRIM": 3, "GRUP": 1, "OBJL": 42, "RVER": 1, "AGEN": 550, "FIDN": 503746996, "FIDS": 9, "LNAM": "02261E0691B40009", "LNAM_REFS": null, "FFPT_RIND": null, "DRVAL1": 20.0, "DRVAL2": 30.0, "QUASOU": null, "SOUACC": null, "VERDAT": null, "INFORM": null, "NINFOM": null, "NTXTDS": null, "SCAMAX": null, "SCAMIN": null, "TXTDSC": null, "RECDAT": null, "RECIND": null, "SORDAT": null, "SORIND": null, "_enc_cell": "US4TB3P0" }, "geometry": { "type": "Polygon", "coordinates": [ [ [ 134.523132299999986, 7.3237891 ], [ 134.5231934, 7.3239331 ], [ 134.5234222, 7.3241668 ], [ 134.523620599999987, 7.3242192 ], [ 134.5237885, 7.3242192 ], [ 134.52397160000001, 7.3241305 ], [ 134.524108899999987, 7.3239694 ], [ 134.5241852, 7.323647 ], [ 134.5241699, 7.3234305 ], [ 134.5240784, 7.3231611 ], [ 134.523986799999989, 7.3229637 ], [ 134.52388, 7.3227139 ], [ 134.523819, 7.3224807 ], [ 134.523819, 7.3222113 ], [ 134.5236511, 7.3221722 ], [ 134.5236511, 7.3224583 ], [ 134.5235901, 7.3227444 ], [ 134.5235443, 7.3229251 ], [ 134.5232849, 7.3232665 ], [ 134.523147599999987, 7.3233194 ], [ 134.5228424, 7.3232665 ], [ 134.5228119, 7.3232307 ], [ 134.522781400000014, 7.323225 ], [ 134.522766100000013, 7.3232193 ], [ 134.522727889733233, 7.323167536637879 ], [ 134.522536474202923, 7.323449955532647 ], [ 134.522537199999988, 7.3234501 ], [ 134.522674599999988, 7.3234944 ], [ 134.5227051, 7.3235192 ], [ 134.5227966, 7.3235998 ], [ 134.5228119, 7.3237581 ], [ 134.5229492, 7.3237362 ], [ 134.523132299999986, 7.3237891 ] ] ] } },
{ "type": "Feature", "properties": { "RCID": 2442, "PRIM": 3, "GRUP": 1, "OBJL": 42, "RVER": 1, "AGEN": 550, "FIDN": 708498537, "FIDS": 9, "LNAM": "02262A3AD4690009", "LNAM_REFS": null, "FFPT_RIND": null, "DRVAL1": 5.0, "DRVAL2": 10.0, "QUASOU": null, "SOUACC": null, "VERDAT": null, "INFORM": null, "NINFOM": null, "NTXTDS": null, "SCAMAX": null, "SCAMIN": null, "TXTDSC": null, "RECDAT": null, "RECIND": null, "SORDAT": null, "SORIND": null, "_enc_cell": "US4TB3P0" }, "geometry": { "type": "Polygon", "coordinates": [ [ [ 134.5254249, 7.3227671 ], [ 134.5253601, 7.3228278 ], [ 134.525238, 7.3228722 ], [ 134.5251312, 7.3229055 ], [ 134.5249786, 7.3229775 ], [ 134.524826100000013, 7.3230667 ], [ 134.524765, 7.3231387 ], [ 134.5247192, 7.3232999 ], [ 134.5247192, 7.3234553 ], [ 134.524826100000013, 7.3235998 ], [ 134.52493290000001, 7.3237195 ], [ 134.5250244, 7.3238306 ], [ 134.525085499999989, 7.3239584 ], [ 134.525085499999989, 7.3240333 ], [ 134.5251007, 7.3240776 ], [ 134.525116, 7.3241582 ], [ 134.5252075, 7.3238888 ], [ 134.5252686, 7.3236613 ], [ 134.5254822, 7.3234472 ], [ 134.5254822, 7.3234033 ], [ 134.5254822, 7.3229084 ], [ 134.5254669, 7.3227277 ], [ 134.5254249, 7.3227671 ] ] ] } },
{ "type": "Feature", "properties": { "RCID": 2204, "PRIM": 3, "GRUP": 1, "OBJL": 42, "RVER": 1, "AGEN": 550, "FIDN": 308000932, "FIDS": 9, "LNAM": "0226125BB8A40009", "LNAM_REFS": null, "FFPT_RIND": null, "DRVAL1": 5.0, "DRVAL2": 10.0, "QUASOU": null, "SOUACC": null, "VERDAT": null, "INFORM": null, "NINFOM": null, "NTXTDS": null, "SCAMAX": null, "SCAMIN": null, "TXTDSC": null, "RECDAT": null, "RECIND": null, "SORDAT": null, "SORIND": null, "_enc_cell": "US4TB3P0" }, "geometry": { "type": "Polygon", "coordinates": [ [ [ 134.5225678, 7.3242722 ], [ 134.522659299999987, 7.3242054 ], [ 134.5227509, 7.3240891 ], [ 134.5228119, 7.3239026 ], [ 134.5228119, 7.3237581 ], [ 134.5227966, 7.3235998 ], [ 134.5227051, 7.3235192 ], [ 134.522674599999988, 7.3234944 ], [ 134.522537199999988, 7.3234501 ], [ 134.522536474202923, 7.323449955532647 ], [ 134.521951587963713, 7.324312910199789 ], [ 134.5219727, 7.3243141 ], [ 134.5221558, 7.3243361 ], [ 134.522308399999986, 7.3243361 ], [ 134.522399900000011, 7.3243251 ], [ 134.5225678, 7.3242722 ] ] ] } },
{ "type": "Feature", "properties": { "RCID": 2443, "PRIM": 3, "GRUP": 1, "OBJL": 42, "RVER": 1, "AGEN": 550, "FIDN": 946762722, "FIDS": 9, "LNAM": "0226386E73E20009", "LNAM_REFS": null, "FFPT_RIND": null, "DRVAL1": 5.0, "DRVAL2": 10.0, "QUASOU": null, "SOUACC": null, "VERDAT": null, "INFORM": null, "NINFOM": null, "NTXTDS": null, "SCAMAX": null, "SCAMIN": null, "TXTDSC": null, "RECDAT": null, "RECIND": null, "SORDAT": null, "SORIND": null, "_enc_cell": "US4TB3P0" }, "geometry": { "type": "Polygon", "coordinates": [ [ [ 134.5251007, 7.3252807 ], [ 134.525065, 7.3252807 ], [ 134.5250244, 7.3252807 ], [ 134.524765, 7.3253584 ], [ 134.5246277, 7.3254137 ], [ 134.5245056, 7.3254833 ], [ 134.52444460000001, 7.3255696 ], [ 134.5244141, 7.3256807 ], [ 134.5244141, 7.3258252 ], [ 134.524459799999988, 7.3259583 ], [ 134.5245514, 7.3260474 ], [ 134.5246735, 7.3261085 ], [ 134.5247752, 7.3261371 ], [ 134.524810800000012, 7.3261471 ], [ 134.524948099999989, 7.3261418 ], [ 134.5250244, 7.3261194 ], [ 134.5251007, 7.3260803 ], [ 134.525177, 7.3261471 ], [ 134.525238, 7.3261862 ], [ 134.5252686, 7.3260751 ], [ 134.5252075, 7.3258834 ], [ 134.525116, 7.3256502 ], [ 134.525116, 7.3253803 ], [ 134.525161700000012, 7.3251891 ], [ 134.5251007, 7.3252807 ] ] ] } },
{ "type": "Feature", "properties": { "RCID": 2203, "PRIM": 3, "GRUP": 1, "OBJL": 42, "RVER": 1, "AGEN": 550, "FIDN": 282650451, "FIDS": 9, "LNAM": "022610D8E7530009", "LNAM_REFS": null, "FFPT_RIND": null, "DRVAL1": 20.0, "DRVAL2": 30.0, "QUASOU": null, "SOUACC": null, "VERDAT": null, "INFORM": null, "NINFOM": null, "NTXTDS": null, "SCAMAX": null, "SCAMIN": null, "TXTDSC": null, "RECDAT": null, "RECIND": null, "SORDAT": null, "SORIND": null, "_enc_cell": "US4TB3P0" }, "geometry": { "type": "Polygon", "coordinates": [ [ [ 134.5228424, 7.3262391 ], [ 134.522644, 7.3262944 ], [ 134.5224762, 7.3264556 ], [ 134.5224762, 7.3267613 ], [ 134.522583, 7.3269749 ], [ 134.5228272, 7.327064 ], [ 134.5231934, 7.3270474 ], [ 134.5234528, 7.3269749 ], [ 134.5235443, 7.3267946 ], [ 134.5235443, 7.3266001 ], [ 134.5234375, 7.326364 ], [ 134.5232849, 7.3262582 ], [ 134.5230866, 7.3262224 ], [ 134.5228424, 7.3262391 ] ] ] } },
{ "type": "Feature", "properties": { "RCID": 2202, "PRIM": 3, "GRUP": 1, "OBJL": 42, "RVER": 1, "AGEN": 550, "FIDN": 55721339, "FIDS": 9, "LNAM": "022603523D7B0009", "LNAM_REFS": null, "FFPT_RIND": null, "DRVAL1": 2.0, "DRVAL2": 5.0, "QUASOU": null, "SOUACC": null, "VERDAT": null, "INFORM": null, "NINFOM": null, "NTXTDS": null, "SCAMAX": null, "SCAMIN": null, "TXTDSC": null, "RECDAT": null, "RECIND": null, "SORDAT": null, "SORIND": null, "_enc_cell": "US4TB3P0" }, "geometry": { "type": "Polygon", "coordinates": [ [ [ 134.5238037, 7.3264418 ], [ 134.523727400000013, 7.3265138 ], [ 134.5236664, 7.3266835 ], [ 134.523635899999988, 7.3267694 ], [ 134.523635899999988, 7.3268166 ], [ 134.523620599999987, 7.3269081 ], [ 134.5236511, 7.3270083 ], [ 134.5236816, 7.3270474 ], [ 134.523742700000014, 7.3270888 ], [ 134.5238037, 7.3270974 ], [ 134.5239105, 7.3270669 ], [ 134.5240326, 7.327075 ], [ 134.5241852, 7.3270278 ], [ 134.524292, 7.3269196 ], [ 134.5243835, 7.3267889 ], [ 134.5243835, 7.326664 ], [ 134.5243683, 7.3265915 ], [ 134.524353, 7.3265195 ], [ 134.524292, 7.326436 ], [ 134.524215700000013, 7.326364 ], [ 134.524108899999987, 7.3263526 ], [ 134.52397160000001, 7.3263974 ], [ 134.5238037, 7.3264418 ] ] ] } },
{ "type": "Feature", "properties": { "RCID": 2928, "PRIM": 3, "GRUP": 1, "OBJL": 42, "RVER": 1, "AGEN": 550, "FIDN": 858162554, "FIDS": 9, "LNAM": "02263326857A0009", "LNAM_REFS": null, "FFPT_RIND": null, "DRVAL1": 20.0, "DRVAL2": 30.0, "QUASOU": null, "SOUACC": null, "VERDAT": null, "INFORM": null, "NINFOM": null, "NTXTDS": null, "SCAMAX": null, "SCAMIN": null, "TXTDSC": null, "RECDAT": null, "RECIND": null, "SORDAT": null, "SORIND": null, "_enc_cell": "US4TB3P0" }, "geometry": { "type": "Polygon", "coordinates": [ [ [ 134.5215302, 7.3289113 ], [ 134.5216675, 7.3288221 ], [ 134.5217743, 7.3286252 ], [ 134.521804800000012, 7.3283749 ], [ 134.5217743, 7.3281221 ], [ 134.521698, 7.3279252 ], [ 134.5215302, 7.327764 ], [ 134.5213928, 7.3275499 ], [ 134.5213013, 7.3273692 ], [ 134.52124725041881, 7.32725536293975 ], [ 134.521321610389833, 7.329013971871996 ], [ 134.5215302, 7.3289113 ] ] ] } },
{ "type": "Feature", "properties": { "RCID": 1963, "PRIM": 3, "GRUP": 1, "OBJL": 42, "RVER": 1, "AGEN": 550, "FIDN": 975513641, "FIDS": 9, "LNAM": "02263A2528290009", "LNAM_REFS": null, "FFPT_RIND": null, "DRVAL1": 10.0, "DRVAL2": 20.0, "QUASOU": null, "SOUACC": null, "VERDAT": null, "INFORM": null, "NINFOM": null, "NTXTDS": null, "SCAMAX": null, "SCAMIN": null, "TXTDSC": null, "RECDAT": null, "RECIND": null, "SORDAT": null, "SORIND": null, "_enc_cell": "US4TB3P0" }, "geometry": { "type": "Polygon", "coordinates": [ [ [ 134.52397160000001, 7.3289361 ], [ 134.523941, 7.3288055 ], [ 134.5241547, 7.3285942 ], [ 134.524215700000013, 7.3284278 ], [ 134.5242462, 7.3282585 ], [ 134.524200400000012, 7.3282805 ], [ 134.5240326, 7.3283916 ], [ 134.5240104, 7.3283976 ], [ 134.523849500000011, 7.3284416 ], [ 134.5235443, 7.3284807 ], [ 134.5233307, 7.3284917 ], [ 134.5231934, 7.328547 ], [ 134.5231171, 7.3286419 ], [ 134.5230408, 7.328753 ], [ 134.5229645, 7.3288918 ], [ 134.5229645, 7.3290196 ], [ 134.523025499999989, 7.3291416 ], [ 134.523147599999987, 7.3292584 ], [ 134.523269699999986, 7.3293748 ], [ 134.523361200000011, 7.3294859 ], [ 134.523468, 7.3296137 ], [ 134.5235291, 7.3297081 ], [ 134.523498499999988, 7.3294668 ], [ 134.523498499999988, 7.3292527 ], [ 134.5236511, 7.3291888 ], [ 134.523776, 7.3290903 ], [ 134.52397160000001, 7.3289361 ] ] ] } },
{ "type": "Feature", "properties": { "RCID": 1704, "PRIM": 3, "GRUP": 1, "OBJL": 42, "RVER": 1, "AGEN": 550, "FIDN": 571770793, "FIDS": 9, "LNAM": "0226221487A90009", "LNAM_REFS": null, "FFPT_RIND": null, "DRVAL1": 2.0, "DRVAL2": 5.0, "QUASOU": null, "SOUACC": null, "VERDAT": null, "INFORM": null, "NINFOM": null, "NTXTDS": null, "SCAMAX": null, "SCAMIN": null, "TXTDSC": null, "RECDAT": null, "RECIND": null, "SORDAT": null, "SORIND": null, "_enc_cell": "US4TB3P0" }, "geometry": { "type": "Polygon", "coordinates": [ [ [ 134.522674599999988, 7.3305416 ], [ 134.5227509, 7.3304863 ], [ 134.5228119, 7.3304081 ], [ 134.5228424, 7.3303304 ], [ 134.5228424, 7.3302641 ], [ 134.5229034, 7.3301582 ], [ 134.5229034, 7.3300362 ], [ 134.522888200000011, 7.329936 ], [ 134.522781400000014, 7.3298526 ], [ 134.522674599999988, 7.329803 ], [ 134.5225678, 7.329803 ], [ 134.5224304, 7.3298307 ], [ 134.5223389, 7.3298974 ], [ 134.5222321, 7.3300972 ], [ 134.5222168, 7.330225 ], [ 134.5222321, 7.3303304 ], [ 134.5222473, 7.3304582 ], [ 134.522277800000012, 7.3304973 ], [ 134.522277800000012, 7.330514 ], [ 134.5223389, 7.3305693 ], [ 134.522415200000012, 7.3306027 ], [ 134.5224915, 7.3306084 ], [ 134.5225983, 7.3305807 ], [ 134.522674599999988, 7.3305416 ] ] ] } },
{ "type": "Feature", "properties": { "RCID": 2924, "PRIM": 3, "GRUP": 1, "OBJL": 42, "RVER": 1, "AGEN": 550, "FIDN": 28322192, "FIDS": 9, "LNAM": "022601B029900009", "LNAM_REFS": null, "FFPT_RIND": null, "DRVAL1": 20.0, "DRVAL2": 30.0, "QUASOU": null, "SOUACC": null, "VERDAT": null, "INFORM": null, "NINFOM": null, "NTXTDS": null, "SCAMAX": null, "SCAMIN": null, "TXTDSC": null, "RECDAT": null, "RECIND": null, "SORDAT": null, "SORIND": null, "_enc_cell": "US4TB3P0" }, "geometry": { "type": "Polygon", "coordinates": [ [ [ 134.5234504, 7.3300527 ], [ 134.523407, 7.3300748 ], [ 134.523254400000013, 7.3301697 ], [ 134.5230866, 7.3303251 ], [ 134.5229797, 7.3304696 ], [ 134.52287290000001, 7.3306527 ], [ 134.5228119, 7.3308363 ], [ 134.522781400000014, 7.3310137 ], [ 134.522781400000014, 7.3312974 ], [ 134.5227356, 7.3314805 ], [ 134.5229645, 7.3314695 ], [ 134.5229711, 7.3314694 ], [ 134.5232086, 7.3314638 ], [ 134.5234222, 7.3314362 ], [ 134.5235443, 7.3313751 ], [ 134.5236664, 7.3312473 ], [ 134.523727400000013, 7.3310695 ], [ 134.5237122, 7.3309641 ], [ 134.523727400000013, 7.3307805 ], [ 134.523742700000014, 7.3306308 ], [ 134.5235596, 7.3299971 ], [ 134.5234504, 7.3300527 ] ] ] } },
{ "type": "Feature", "properties": { "RCID": 3172, "PRIM": 3, "GRUP": 1, "OBJL": 42, "RVER": 1, "AGEN": 550, "FIDN": 643678003, "FIDS": 9, "LNAM": "0226265DBF330009", "LNAM_REFS": null, "FFPT_RIND": null, "DRVAL1": 2.0, "DRVAL2": 5.0, "QUASOU": null, "SOUACC": null, "VERDAT": null, "INFORM": null, "NINFOM": null, "NTXTDS": null, "SCAMAX": null, "SCAMIN": null, "TXTDSC": null, "RECDAT": null, "RECIND": null, "SORDAT": null, "SORIND": null, "_enc_cell": "US4TB3P0" }, "geometry": { "type": "Polygon", "coordinates": [ [ [ 134.5236969, 7.3340139 ], [ 134.5237122, 7.3341832 ], [ 134.52383420000001, 7.3343306 ], [ 134.523941, 7.3343945 ], [ 134.5240479, 7.334414 ], [ 134.524215700000013, 7.3344359 ], [ 134.5243835, 7.3344474 ], [ 134.5246277, 7.3344665 ], [ 134.5248413, 7.3344975 ], [ 134.5250092, 7.3345919 ], [ 134.5248871, 7.3344002 ], [ 134.5249634, 7.3340612 ], [ 134.525161700000012, 7.333961 ], [ 134.52493290000001, 7.3339086 ], [ 134.524765, 7.3338585 ], [ 134.524581899999987, 7.3337526 ], [ 134.5244904, 7.3336778 ], [ 134.5242462, 7.3335943 ], [ 134.5240173, 7.3336058 ], [ 134.52383420000001, 7.3336473 ], [ 134.5236969, 7.3338585 ], [ 134.5236969, 7.3340139 ] ] ] } },
{ "type": "Feature", "properties": { "RCID": 2445, "PRIM": 3, "GRUP": 1, "OBJL": 42, "RVER": 1, "AGEN": 550, "FIDN": 822973283, "FIDS": 9, "LNAM": "0226310D93630009", "LNAM_REFS": null, "FFPT_RIND": null, "DRVAL1": 10.0, "DRVAL2": 20.0, "QUASOU": null, "SOUACC": null, "VERDAT": null, "INFORM": null, "NINFOM": null, "NTXTDS": null, "SCAMAX": null, "SCAMIN": null, "TXTDSC": null, "RECDAT": null, "RECIND": null, "SORDAT": null, "SORIND": null, "_enc_cell": "US4TB3P0" }, "geometry": { "type": "Polygon", "coordinates": [ [ [ 134.523864800000013, 7.3346334 ], [ 134.5240784, 7.3345614 ], [ 134.5243835, 7.3344474 ], [ 134.524215700000013, 7.3344359 ], [ 134.5240479, 7.334414 ], [ 134.523941, 7.3343945 ], [ 134.52383420000001, 7.3343306 ], [ 134.5237122, 7.3341832 ], [ 134.5236969, 7.3340139 ], [ 134.5236969, 7.3338585 ], [ 134.5235748, 7.3338447 ], [ 134.5233917, 7.3339334 ], [ 134.5231934, 7.33395 ], [ 134.5229797, 7.3340221 ], [ 134.522781400000014, 7.3342557 ], [ 134.5227509, 7.3344889 ], [ 134.5228119, 7.33465 ], [ 134.522934, 7.3348475 ], [ 134.5231934, 7.3348999 ], [ 134.5234375, 7.3348475 ], [ 134.523864800000013, 7.3346334 ] ] ] } },
{ "type": "Feature", "properties": { "RCID": 2444, "PRIM": 3, "GRUP": 1, "OBJL": 42, "RVER": 1, "AGEN": 550, "FIDN": 533576871, "FIDS": 9, "LNAM": "02261FCDBCA70009", "LNAM_REFS": null, "FFPT_RIND": null, "DRVAL1": null, "DRVAL2": 0.0, "QUASOU": null, "SOUACC": null, "VERDAT": null, "INFORM": null, "NINFOM": null, "NTXTDS": null, "SCAMAX": null, "SCAMIN": null, "TXTDSC": null, "RECDAT": null, "RECIND": null, "SORDAT": null, "SORIND": null, "_enc_cell": "US4TB3P0" }, "geometry": { "type": "Polygon", "coordinates": [ [ [ 134.5222168, 7.3407278 ], [ 134.5222321, 7.3406277 ], [ 134.5222473, 7.3406196 ], [ 134.5224304, 7.3404083 ], [ 134.5224915, 7.3402472 ], [ 134.5225983, 7.3401861 ], [ 134.5228119, 7.340178 ], [ 134.523407, 7.3402805 ], [ 134.523742700000014, 7.3403974 ], [ 134.52388, 7.3403277 ], [ 134.52397160000001, 7.3403387 ], [ 134.524215700000013, 7.3402805 ], [ 134.524322500000011, 7.3403668 ], [ 134.5244141, 7.3404164 ], [ 134.5245667, 7.3402863 ], [ 134.524765, 7.3402362 ], [ 134.5247345, 7.3394833 ], [ 134.5247345, 7.3393278 ], [ 134.5247345, 7.3390918 ], [ 134.5244293, 7.3389611 ], [ 134.5243073, 7.3390331 ], [ 134.5242462, 7.3389387 ], [ 134.5244141, 7.3386998 ], [ 134.5245209, 7.3384056 ], [ 134.524337800000012, 7.3378334 ], [ 134.5243988, 7.3374581 ], [ 134.5243835, 7.3372026 ], [ 134.524093599999986, 7.3363333 ], [ 134.5241547, 7.3357973 ], [ 134.5238953, 7.3354859 ], [ 134.5236969, 7.3355446 ], [ 134.523498499999988, 7.3355947 ], [ 134.5234375, 7.3358474 ], [ 134.5233307, 7.3362026 ], [ 134.523132299999986, 7.3363195 ], [ 134.5228119, 7.3362527 ], [ 134.5226135, 7.3361807 ], [ 134.522293100000013, 7.3363113 ], [ 134.522142800000012, 7.3364278 ], [ 134.521651205785389, 7.336808883549981 ], [ 134.52181622, 7.34071146 ], [ 134.522022895726877, 7.340780702236157 ], [ 134.5222168, 7.3407278 ] ] ] } },
{ "type": "Feature", "properties": { "RCID": 2671, "PRIM": 3, "GRUP": 1, "OBJL": 42, "RVER": 1, "AGEN": 550, "FIDN": 751542274, "FIDS": 9, "LNAM": "02262CCBA0020009", "LNAM_REFS": null, "FFPT_RIND": null, "DRVAL1": 2.0, "DRVAL2": 5.0, "QUASOU": null, "SOUACC": null, "VERDAT": null, "INFORM": null, "NINFOM": null, "NTXTDS": null, "SCAMAX": null, "SCAMIN": null, "TXTDSC": null, "RECDAT": null, "RECIND": null, "SORDAT": null, "SORIND": null, "_enc_cell": "US4TB3P0" }, "geometry": { "type": "Polygon", "coordinates": [ [ [ 134.5243988, 7.3374581 ], [ 134.524337800000012, 7.3378334 ], [ 134.5245209, 7.3384056 ], [ 134.5244141, 7.3386998 ], [ 134.5242462, 7.3389387 ], [ 134.5243073, 7.3390331 ], [ 134.5244293, 7.3389611 ], [ 134.5247345, 7.3390918 ], [ 134.5247345, 7.3393278 ], [ 134.5247498, 7.3393111 ], [ 134.524826100000013, 7.3392305 ], [ 134.5249634, 7.3390307 ], [ 134.5251312, 7.3388639 ], [ 134.5252533, 7.338747 ], [ 134.5253754, 7.3386641 ], [ 134.5254974, 7.3385472 ], [ 134.525528, 7.3382945 ], [ 134.5254517, 7.3381581 ], [ 134.525299100000012, 7.3380446 ], [ 134.5251312, 7.3379693 ], [ 134.5249786, 7.3378973 ], [ 134.524597199999988, 7.3377276 ], [ 134.524475099999989, 7.3376112 ], [ 134.5243988, 7.3374581 ] ] ] } },
{ "type": "Feature", "properties": { "RCID": 2920, "PRIM": 3, "GRUP": 1, "OBJL": 42, "RVER": 1, "AGEN": 550, "FIDN": 930992826, "FIDS": 9, "LNAM": "0226377DD2BA0009", "LNAM_REFS": null, "FFPT_RIND": null, "DRVAL1": 20.0, "DRVAL2": 30.0, "QUASOU": null, "SOUACC": null, "VERDAT": null, "INFORM": null, "NINFOM": null, "NTXTDS": null, "SCAMAX": null, "SCAMIN": null, "TXTDSC": null, "RECDAT": null, "RECIND": null, "SORDAT": null, "SORIND": null, "_enc_cell": "US4TB3P0" }, "geometry": { "type": "Polygon", "coordinates": [ [ [ 134.5271606, 7.3420944 ], [ 134.527343800000011, 7.3418055 ], [ 134.5275574, 7.3416863 ], [ 134.5277252, 7.3415332 ], [ 134.5278473, 7.3413529 ], [ 134.5282288, 7.3412695 ], [ 134.5283203, 7.3412943 ], [ 134.528533900000014, 7.3414722 ], [ 134.5285797, 7.3415194 ], [ 134.5286255, 7.3415804 ], [ 134.5287933, 7.3417416 ], [ 134.5289612, 7.3418307 ], [ 134.529129, 7.3418832 ], [ 134.5294342, 7.3418665 ], [ 134.5297089, 7.3417778 ], [ 134.5299072, 7.3416696 ], [ 134.530105600000013, 7.3415251 ], [ 134.5302429, 7.3413277 ], [ 134.5303345, 7.3412361 ], [ 134.530471799999987, 7.3412027 ], [ 134.530456500000014, 7.3410363 ], [ 134.5306244, 7.3408332 ], [ 134.5307617, 7.3406553 ], [ 134.5307465, 7.3405585 ], [ 134.5307312, 7.3403611 ], [ 134.53068540000001, 7.3401084 ], [ 134.5305328, 7.339911 ], [ 134.5302429, 7.3396416 ], [ 134.5299683, 7.3394113 ], [ 134.5296478, 7.3391419 ], [ 134.5288696, 7.3385668 ], [ 134.5286255, 7.3383331 ], [ 134.5284119, 7.3380637 ], [ 134.528244, 7.3377776 ], [ 134.528183, 7.3374391 ], [ 134.528183, 7.3372555 ], [ 134.5280151, 7.3371973 ], [ 134.5277557, 7.3371835 ], [ 134.5272522, 7.3373332 ], [ 134.527206400000011, 7.3372889 ], [ 134.5270691, 7.3373585 ], [ 134.526870699999989, 7.3371697 ], [ 134.5266571, 7.3371277 ], [ 134.52636720000001, 7.3371277 ], [ 134.5261841, 7.3371387 ], [ 134.526056399999987, 7.3371622 ], [ 134.526016199999987, 7.3371697 ], [ 134.5258026, 7.3371167 ], [ 134.5257263, 7.3370113 ], [ 134.5257111, 7.3368335 ], [ 134.5257416, 7.3366637 ], [ 134.525787400000013, 7.3365831 ], [ 134.5258179, 7.3365278 ], [ 134.525756800000011, 7.3362584 ], [ 134.5258789, 7.3360972 ], [ 134.5261078, 7.3360195 ], [ 134.5263086, 7.336059 ], [ 134.526474, 7.3360915 ], [ 134.5265503, 7.3361692 ], [ 134.5266724, 7.33635 ], [ 134.526718100000011, 7.3364081 ], [ 134.526733400000012, 7.3364334 ], [ 134.526870699999989, 7.3365054 ], [ 134.5269013, 7.3365054 ], [ 134.526947, 7.3365054 ], [ 134.526992799999988, 7.3364363 ], [ 134.5270691, 7.336297 ], [ 134.5270844, 7.3362308 ], [ 134.5271301, 7.3360972 ], [ 134.5271454, 7.3360028 ], [ 134.5271301, 7.3359585 ], [ 134.527114899999987, 7.3359084 ], [ 134.5269165, 7.3355999 ], [ 134.5267944, 7.335422 ], [ 134.526977499999987, 7.3350945 ], [ 134.5271759, 7.3350639 ], [ 134.5272522, 7.3351612 ], [ 134.527465799999987, 7.3351388 ], [ 134.5277405, 7.3351388 ], [ 134.5279846, 7.3351307 ], [ 134.528244, 7.3350864 ], [ 134.5289764, 7.3350444 ], [ 134.5291748, 7.3350248 ], [ 134.529266400000012, 7.3349609 ], [ 134.529388399999988, 7.334836 ], [ 134.5294647, 7.3346558 ], [ 134.529495200000014, 7.3345304 ], [ 134.52948, 7.3343945 ], [ 134.5294495, 7.3342471 ], [ 134.5293732, 7.3341084 ], [ 134.52925110000001, 7.3340554 ], [ 134.529144300000013, 7.334003 ], [ 134.5289764, 7.3339305 ], [ 134.5288239, 7.333889 ], [ 134.528671300000013, 7.3338361 ], [ 134.5285797, 7.3338194 ], [ 134.5279236, 7.3337526 ], [ 134.5273743, 7.3337612 ], [ 134.527114899999987, 7.3337612 ], [ 134.526787899999988, 7.3339631 ], [ 134.5266876, 7.3340249 ], [ 134.5264282, 7.3342056 ], [ 134.5261841, 7.3343835 ], [ 134.526001, 7.3345833 ], [ 134.5259399, 7.3346558 ], [ 134.525909399999989, 7.3348918 ], [ 134.5258484, 7.3349333 ], [ 134.525589, 7.3350945 ], [ 134.525299100000012, 7.3349333 ], [ 134.5250092, 7.3345919 ], [ 134.5248413, 7.3344975 ], [ 134.5246277, 7.3344665 ], [ 134.5243835, 7.3344474 ], [ 134.5240784, 7.3345614 ], [ 134.523864800000013, 7.3346334 ], [ 134.5234375, 7.3348475 ], [ 134.5235291, 7.3349862 ], [ 134.523635899999988, 7.3352222 ], [ 134.5236816, 7.3354807 ], [ 134.5236969, 7.3355446 ], [ 134.5238953, 7.3354859 ], [ 134.5241547, 7.3357973 ], [ 134.524093599999986, 7.3363333 ], [ 134.5243835, 7.3372026 ], [ 134.5243988, 7.3374581 ], [ 134.524475099999989, 7.3376112 ], [ 134.524597199999988, 7.3377276 ], [ 134.5249786, 7.3378973 ], [ 134.5251312, 7.3379693 ], [ 134.525299100000012, 7.3380446 ], [ 134.5254517, 7.3381581 ], [ 134.525528, 7.3382945 ], [ 134.5254974, 7.3385472 ], [ 134.5253754, 7.3386641 ], [ 134.5252533, 7.338747 ], [ 134.5251312, 7.3388639 ], [ 134.5249634, 7.3390307 ], [ 134.524826100000013, 7.3392305 ], [ 134.5247498, 7.3393111 ], [ 134.5247345, 7.3393278 ], [ 134.5247345, 7.3394833 ], [ 134.524765, 7.3402362 ], [ 134.5245667, 7.3402863 ], [ 134.5244141, 7.3404164 ], [ 134.524322500000011, 7.3403668 ], [ 134.524215700000013, 7.3402805 ], [ 134.52397160000001, 7.3403387 ], [ 134.52388, 7.3403277 ], [ 134.523742700000014, 7.3403974 ], [ 134.523407, 7.3402805 ], [ 134.5228119, 7.340178 ], [ 134.5225983, 7.3401861 ], [ 134.5224915, 7.3402472 ], [ 134.5224304, 7.3404083 ], [ 134.5222473, 7.3406196 ], [ 134.5222321, 7.3406277 ], [ 134.5222168, 7.3407278 ], [ 134.522022895726877, 7.340780702236157 ], [ 134.527240196922321, 7.342528646259087 ], [ 134.5271606, 7.3420944 ] ], [ [ 134.5258484, 7.340961 ], [ 134.5258179, 7.3408804 ], [ 134.5256958, 7.3408222 ], [ 134.5255737, 7.3407831 ], [ 134.525238, 7.3407307 ], [ 134.525116, 7.3406582 ], [ 134.5251024, 7.3406286 ], [ 134.5250397, 7.3404918 ], [ 134.5250397, 7.3403277 ], [ 134.5251007, 7.3401752 ], [ 134.5252533, 7.3400779 ], [ 134.5254064, 7.340005 ], [ 134.5254517, 7.3399835 ], [ 134.5257111, 7.3399553 ], [ 134.526001, 7.3399415 ], [ 134.526260400000012, 7.3399415 ], [ 134.5265808, 7.3400192 ], [ 134.5267792, 7.3401585 ], [ 134.5268402, 7.3403111 ], [ 134.526855500000011, 7.3404779 ], [ 134.526855500000011, 7.3408113 ], [ 134.526870699999989, 7.3409748 ], [ 134.5268402, 7.3411307 ], [ 134.526870699999989, 7.3413277 ], [ 134.5268402, 7.3415084 ], [ 134.5267639, 7.3417583 ], [ 134.5265808, 7.3418307 ], [ 134.5263214, 7.341814 ], [ 134.5261688, 7.3417053 ], [ 134.526062, 7.3415251 ], [ 134.526031499999988, 7.3413277 ], [ 134.5259552, 7.3411446 ], [ 134.5258484, 7.340961 ] ] ] } },
{ "type": "Feature", "properties": { "RCID": 3163, "PRIM": 3, "GRUP": 1, "OBJL": 42, "RVER": 1, "AGEN": 550, "FIDN": 337097138, "FIDS": 9, "LNAM": "02261417B1B20009", "LNAM_REFS": null, "FFPT_RIND": null, "DRVAL1": 2.0, "DRVAL2": 5.0, "QUASOU": null, "SOUACC": null, "VERDAT": null, "INFORM": null, "NINFOM": null, "NTXTDS": null, "SCAMAX": null, "SCAMIN": null, "TXTDSC": null, "RECDAT": null, "RECIND": null, "SORDAT": null, "SORIND": null, "_enc_cell": "US4TB3P0" }, "geometry": { "type": "Polygon", "coordinates": [ [ [ 134.5319824, 7.3381639 ], [ 134.532074, 7.3382416 ], [ 134.532074, 7.3383279 ], [ 134.532012900000012, 7.3384419 ], [ 134.5319672, 7.3384557 ], [ 134.5322418, 7.3386111 ], [ 134.5333405, 7.3391914 ], [ 134.5337524, 7.3393474 ], [ 134.534072900000012, 7.3392696 ], [ 134.5343018, 7.3390055 ], [ 134.5342255, 7.3387303 ], [ 134.5339356, 7.3384972 ], [ 134.5333099, 7.3382168 ], [ 134.532501200000013, 7.3381443 ], [ 134.531936699999989, 7.3381276 ], [ 134.5319824, 7.3381639 ] ] ] } },
{ "type": "Feature", "properties": { "RCID": 2192, "PRIM": 3, "GRUP": 1, "OBJL": 42, "RVER": 1, "AGEN": 550, "FIDN": 538267403, "FIDS": 9, "LNAM": "022620154F0B0009", "LNAM_REFS": null, "FFPT_RIND": null, "DRVAL1": 5.0, "DRVAL2": 10.0, "QUASOU": null, "SOUACC": null, "VERDAT": null, "INFORM": null, "NINFOM": null, "NTXTDS": null, "SCAMAX": null, "SCAMIN": null, "TXTDSC": null, "RECDAT": null, "RECIND": null, "SORDAT": null, "SORIND": null, "_enc_cell": "US4TB3P0" }, "geometry": { "type": "Polygon", "coordinates": [ [ [ 134.5311585, 7.3403668 ], [ 134.531326299999989, 7.3404222 ], [ 134.531601, 7.3402777 ], [ 134.531921399999987, 7.3399863 ], [ 134.5323181, 7.3398304 ], [ 134.5323181, 7.3397584 ], [ 134.5318298, 7.3395443 ], [ 134.5316162, 7.3393583 ], [ 134.5310974, 7.3393693 ], [ 134.5309906, 7.3392835 ], [ 134.5305023, 7.3390417 ], [ 134.530578600000013, 7.339325 ], [ 134.53068540000001, 7.3393889 ], [ 134.5308075, 7.3395166 ], [ 134.5309296, 7.3396945 ], [ 134.5309906, 7.3398609 ], [ 134.5310211, 7.3400946 ], [ 134.5310211, 7.3402834 ], [ 134.5309753, 7.3404946 ], [ 134.5311585, 7.3403668 ] ] ] } },
{ "type": "Feature", "properties": { "RCID": 2668, "PRIM": 3, "GRUP": 1, "OBJL": 42, "RVER": 1, "AGEN": 550, "FIDN": 554944637, "FIDS": 9, "LNAM": "02262113C87D0009", "LNAM_REFS": null, "FFPT_RIND": null, "DRVAL1": 10.0, "DRVAL2": 20.0, "QUASOU": null, "SOUACC": null, "VERDAT": null, "INFORM": null, "NINFOM": null, "NTXTDS": null, "SCAMAX": null, "SCAMIN": null, "TXTDSC": null, "RECDAT": null, "RECIND": null, "SORDAT": null, "SORIND": null, "_enc_cell": "US4TB3P0" }, "geometry": { "type": "Polygon", "coordinates": [ [ [ 134.5260773, 7.3411498 ], [ 134.5261841, 7.3410249 ], [ 134.52636720000001, 7.3409529 ], [ 134.5265656, 7.3409529 ], [ 134.5267792, 7.3410053 ], [ 134.5268402, 7.3411307 ], [ 134.526870699999989, 7.3409748 ], [ 134.526855500000011, 7.3408113 ], [ 134.526855500000011, 7.3404779 ], [ 134.5268402, 7.3403111 ], [ 134.5267792, 7.3401585 ], [ 134.5265808, 7.3400192 ], [ 134.526260400000012, 7.3399415 ], [ 134.526001, 7.3399415 ], [ 134.5257111, 7.3399553 ], [ 134.5254517, 7.3399835 ], [ 134.5254064, 7.340005 ], [ 134.5252533, 7.3400779 ], [ 134.5251007, 7.3401752 ], [ 134.5250397, 7.3403277 ], [ 134.5250397, 7.3404918 ], [ 134.5251024, 7.3406286 ], [ 134.525116, 7.3406582 ], [ 134.525238, 7.3407307 ], [ 134.5255737, 7.3407831 ], [ 134.5256958, 7.3408222 ], [ 134.5258179, 7.3408804 ], [ 134.5258484, 7.340961 ], [ 134.5259552, 7.3411446 ], [ 134.526031499999988, 7.3413277 ], [ 134.5260773, 7.3411498 ] ] ] } },
{ "type": "Feature", "properties": { "RCID": 1962, "PRIM": 3, "GRUP": 1, "OBJL": 42, "RVER": 1, "AGEN": 550, "FIDN": 933956843, "FIDS": 9, "LNAM": "022637AB0CEB0009", "LNAM_REFS": null, "FFPT_RIND": null, "DRVAL1": 5.0, "DRVAL2": 10.0, "QUASOU": null, "SOUACC": null, "VERDAT": null, "INFORM": null, "NINFOM": null, "NTXTDS": null, "SCAMAX": null, "SCAMIN": null, "TXTDSC": null, "RECDAT": null, "RECIND": null, "SORDAT": null, "SORIND": null, "_enc_cell": "US4TB3P0" }, "geometry": { "type": "Polygon", "coordinates": [ [ [ 134.526062, 7.3415251 ], [ 134.5261688, 7.3417053 ], [ 134.5263214, 7.341814 ], [ 134.5265808, 7.3418307 ], [ 134.5267639, 7.3417583 ], [ 134.5268402, 7.3415084 ], [ 134.526870699999989, 7.3413277 ], [ 134.5268402, 7.3411307 ], [ 134.5267792, 7.3410053 ], [ 134.5265656, 7.3409529 ], [ 134.52636720000001, 7.3409529 ], [ 134.5261841, 7.3410249 ], [ 134.5260773, 7.3411498 ], [ 134.526031499999988, 7.3413277 ], [ 134.526062, 7.3415251 ] ] ] } },
{ "type": "Feature", "properties": { "RCID": 1958, "PRIM": 3, "GRUP": 1, "OBJL": 42, "RVER": 1, "AGEN": 550, "FIDN": 455611010, "FIDS": 9, "LNAM": "02261B2812820009", "LNAM_REFS": null, "FFPT_RIND": null, "DRVAL1": 5.0, "DRVAL2": 10.0, "QUASOU": null, "SOUACC": null, "VERDAT": null, "INFORM": null, "NINFOM": null, "NTXTDS": null, "SCAMAX": null, "SCAMIN": null, "TXTDSC": null, "RECDAT": null, "RECIND": null, "SORDAT": null, "SORIND": null, "_enc_cell": "US4TB3P0" }, "geometry": { "type": "Polygon", "coordinates": [ [ [ 134.5286102, 7.3417473 ], [ 134.5285797, 7.3418832 ], [ 134.528717, 7.3420806 ], [ 134.5290527, 7.3422084 ], [ 134.529266400000012, 7.3423138 ], [ 134.5292816, 7.3425999 ], [ 134.5291748, 7.3431387 ], [ 134.529162403979484, 7.343172640195905 ], [ 134.529989551688885, 7.343449758161801 ], [ 134.529983499999986, 7.3433418 ], [ 134.530014, 7.3424277 ], [ 134.5300751, 7.3418555 ], [ 134.5301819, 7.3414779 ], [ 134.5302887, 7.3413529 ], [ 134.530471799999987, 7.3412027 ], [ 134.5303345, 7.3412361 ], [ 134.5302429, 7.3413277 ], [ 134.530105600000013, 7.3415251 ], [ 134.5299072, 7.3416696 ], [ 134.5297089, 7.3417778 ], [ 134.5294342, 7.3418665 ], [ 134.529129, 7.3418832 ], [ 134.5289612, 7.3418307 ], [ 134.5287933, 7.3417416 ], [ 134.5286255, 7.3415804 ], [ 134.5285797, 7.3415194 ], [ 134.528533900000014, 7.3414722 ], [ 134.5286102, 7.3417473 ] ] ] } },
{ "type": "Feature", "properties": { "RCID": 2901, "PRIM": 3, "GRUP": 1, "OBJL": 42, "RVER": 1, "AGEN": 550, "FIDN": 110734987, "FIDS": 9, "LNAM": "02260699AE8B0009", "LNAM_REFS": null, "FFPT_RIND": null, "DRVAL1": null, "DRVAL2": 0.0, "QUASOU": null, "SOUACC": null, "VERDAT": null, "INFORM": null, "NINFOM": null, "NTXTDS": null, "SCAMAX": null, "SCAMIN": null, "TXTDSC": null, "RECDAT": null, "RECIND": null, "SORDAT": null, "SORIND": null, "_enc_cell": "US4TB3P0" }, "geometry": { "type": "MultiPolygon", "coordinates": [ [ [ [ 134.5249176, 7.3207359 ], [ 134.5250397, 7.3211474 ], [ 134.525085499999989, 7.3216 ], [ 134.5251465, 7.3220501 ], [ 134.5252686, 7.3225279 ], [ 134.525416799999988, 7.3226772 ], [ 134.5254669, 7.3227277 ], [ 134.5254822, 7.3229084 ], [ 134.5254822, 7.3234033 ], [ 134.5254822, 7.3234472 ], [ 134.5252686, 7.3236613 ], [ 134.5252075, 7.3238888 ], [ 134.525116, 7.3241582 ], [ 134.5251007, 7.3242998 ], [ 134.525192299999986, 7.3245029 ], [ 134.525227, 7.3248019 ], [ 134.525238, 7.3248973 ], [ 134.525161700000012, 7.3251891 ], [ 134.525116, 7.3253803 ], [ 134.525116, 7.3256502 ], [ 134.5252075, 7.3258834 ], [ 134.5252686, 7.3260751 ], [ 134.525238, 7.3261862 ], [ 134.5251465, 7.3264389 ], [ 134.5248871, 7.3265834 ], [ 134.5246277, 7.3268027 ], [ 134.5245514, 7.3271194 ], [ 134.5243845, 7.327292 ], [ 134.524215700000013, 7.3274665 ], [ 134.5240479, 7.3277831 ], [ 134.524155900000011, 7.3279674 ], [ 134.5242615, 7.3281474 ], [ 134.5242462, 7.3282585 ], [ 134.524215700000013, 7.3284278 ], [ 134.5241547, 7.3285942 ], [ 134.523941, 7.3288055 ], [ 134.52397160000001, 7.3289361 ], [ 134.523776, 7.3290903 ], [ 134.5236511, 7.3291888 ], [ 134.523498499999988, 7.3292527 ], [ 134.523498499999988, 7.3294668 ], [ 134.5235291, 7.3297081 ], [ 134.5235291, 7.3298202 ], [ 134.5235291, 7.3298445 ], [ 134.5235596, 7.3299971 ], [ 134.523742700000014, 7.3306308 ], [ 134.5238953, 7.3310084 ], [ 134.5239105, 7.3312416 ], [ 134.523742700000014, 7.3314915 ], [ 134.523468, 7.3318391 ], [ 134.5233307, 7.332047 ], [ 134.5234528, 7.3322973 ], [ 134.5236816, 7.3324943 ], [ 134.5239258, 7.3326197 ], [ 134.524093599999986, 7.3326278 ], [ 134.524475099999989, 7.332561 ], [ 134.5249786, 7.3323584 ], [ 134.525283800000011, 7.332078 ], [ 134.5255737, 7.3319335 ], [ 134.5256805, 7.3318029 ], [ 134.5256805, 7.3315945 ], [ 134.5258484, 7.331553 ], [ 134.5260773, 7.33145 ], [ 134.526260400000012, 7.3311582 ], [ 134.5263062, 7.330914 ], [ 134.526413, 7.3308168 ], [ 134.5266876, 7.3307276 ], [ 134.5267944, 7.3307943 ], [ 134.526825, 7.3309722 ], [ 134.526733400000012, 7.3311696 ], [ 134.52636720000001, 7.331964 ], [ 134.5261688, 7.3321362 ], [ 134.526001, 7.33215 ], [ 134.5258637, 7.3320723 ], [ 134.525787400000013, 7.332047 ], [ 134.5256958, 7.3321362 ], [ 134.5257416, 7.3322363 ], [ 134.5256805, 7.3322721 ], [ 134.5257111, 7.3323445 ], [ 134.5257111, 7.3323751 ], [ 134.5257263, 7.3325362 ], [ 134.5257111, 7.3326387 ], [ 134.5254822, 7.3327112 ], [ 134.525238, 7.3328419 ], [ 134.525177, 7.3330975 ], [ 134.525299100000012, 7.3334694 ], [ 134.5254822, 7.3336306 ], [ 134.5259857, 7.3338637 ], [ 134.5262299, 7.3338447 ], [ 134.5264282, 7.3337975 ], [ 134.526611300000013, 7.3334026 ], [ 134.526886, 7.3329916 ], [ 134.5270392, 7.3328637 ], [ 134.5271454, 7.3327751 ], [ 134.5274353, 7.3326278 ], [ 134.527587899999986, 7.3326445 ], [ 134.5277863, 7.3327999 ], [ 134.5279083, 7.3329501 ], [ 134.528122, 7.3330026 ], [ 134.52828980000001, 7.3329139 ], [ 134.528427099999988, 7.3327222 ], [ 134.528564499999987, 7.3326387 ], [ 134.52876280000001, 7.3327527 ], [ 134.5287476, 7.3329554 ], [ 134.529037499999987, 7.3330388 ], [ 134.5293274, 7.3329501 ], [ 134.529525799999988, 7.3330336 ], [ 134.5296936, 7.3331752 ], [ 134.52986150000001, 7.3331528 ], [ 134.530120899999986, 7.3331113 ], [ 134.530212400000011, 7.3329697 ], [ 134.5303192, 7.3328943 ], [ 134.5303192, 7.3326335 ], [ 134.5303803, 7.3325248 ], [ 134.5305634, 7.3325086 ], [ 134.5308075, 7.3325305 ], [ 134.5309906, 7.332614 ], [ 134.5310211, 7.3328891 ], [ 134.5312042, 7.3331223 ], [ 134.5314789, 7.3333306 ], [ 134.5316925, 7.3333669 ], [ 134.5318146, 7.3335891 ], [ 134.53178410000001, 7.3336916 ], [ 134.5317688, 7.3337975 ], [ 134.5318298, 7.3340669 ], [ 134.531921399999987, 7.3341389 ], [ 134.5321045, 7.3343058 ], [ 134.5322113, 7.3343196 ], [ 134.5324249, 7.334197 ], [ 134.5324707, 7.3341613 ], [ 134.532501200000013, 7.3338637 ], [ 134.5325623, 7.3337665 ], [ 134.5327148, 7.3338165 ], [ 134.532882699999988, 7.3339777 ], [ 134.532974200000012, 7.3342638 ], [ 134.53302, 7.3347836 ], [ 134.5330658, 7.3353195 ], [ 134.5331574, 7.3355527 ], [ 134.5333405, 7.3357387 ], [ 134.5335388, 7.3358388 ], [ 134.533599900000013, 7.335947 ], [ 134.5335541, 7.3361278 ], [ 134.533371, 7.3363586 ], [ 134.53321840000001, 7.3364196 ], [ 134.5326538, 7.3364196 ], [ 134.5323486, 7.3365502 ], [ 134.5321655, 7.3365445 ], [ 134.5319824, 7.3365808 ], [ 134.5317535, 7.3366971 ], [ 134.5316315, 7.3367362 ], [ 134.5314941, 7.3368807 ], [ 134.5313721, 7.3370276 ], [ 134.5312195, 7.3375111 ], [ 134.5312653, 7.3377695 ], [ 134.5314941, 7.3380666 ], [ 134.53178410000001, 7.3381391 ], [ 134.531936699999989, 7.3381276 ], [ 134.532501200000013, 7.3381443 ], [ 134.5333099, 7.3382168 ], [ 134.5339356, 7.3384972 ], [ 134.5342255, 7.3387303 ], [ 134.5343018, 7.3390055 ], [ 134.534072900000012, 7.3392696 ], [ 134.5337524, 7.3393474 ], [ 134.5333405, 7.3391914 ], [ 134.5322418, 7.3386111 ], [ 134.5319672, 7.3384557 ], [ 134.5318756, 7.338397 ], [ 134.531677300000013, 7.3383665 ], [ 134.5314179, 7.338336 ], [ 134.531051600000012, 7.3382945 ], [ 134.5308685, 7.3383555 ], [ 134.5307465, 7.3385224 ], [ 134.531082199999986, 7.3389583 ], [ 134.531448399999988, 7.3392139 ], [ 134.5316162, 7.3393583 ], [ 134.5318298, 7.3395443 ], [ 134.5323181, 7.3397584 ], [ 134.5323181, 7.3398304 ], [ 134.531921399999987, 7.3399863 ], [ 134.531601, 7.3402777 ], [ 134.531326299999989, 7.3404222 ], [ 134.5311585, 7.3403668 ], [ 134.5309753, 7.3404946 ], [ 134.53082280000001, 7.3405695 ], [ 134.5307617, 7.3406553 ], [ 134.5306244, 7.3408332 ], [ 134.530456500000014, 7.3410363 ], [ 134.530471799999987, 7.3412027 ], [ 134.5302887, 7.3413529 ], [ 134.5301819, 7.3414779 ], [ 134.5300751, 7.3418555 ], [ 134.530014, 7.3424277 ], [ 134.529983499999986, 7.3433418 ], [ 134.529989551688885, 7.343449758161801 ], [ 134.53024858, 7.34353654 ], [ 134.530760726563841, 7.343280655736242 ], [ 134.5307465, 7.3432832 ], [ 134.53068540000001, 7.3432055 ], [ 134.5306244, 7.3430529 ], [ 134.5306091, 7.3429751 ], [ 134.5304108, 7.3427639 ], [ 134.5303803, 7.342628 ], [ 134.5304108, 7.342514 ], [ 134.5306549, 7.3419418 ], [ 134.5307312, 7.3416333 ], [ 134.5307159, 7.3415499 ], [ 134.5307159, 7.3414307 ], [ 134.5307617, 7.3413167 ], [ 134.53082280000001, 7.3412194 ], [ 134.5307922, 7.3411112 ], [ 134.5307922, 7.3410306 ], [ 134.5310364, 7.3408637 ], [ 134.5311585, 7.3408222 ], [ 134.5318756, 7.3409305 ], [ 134.5319519, 7.3409944 ], [ 134.532028200000013, 7.3410668 ], [ 134.532150300000012, 7.3411164 ], [ 134.532196, 7.3411555 ], [ 134.5322266, 7.3412666 ], [ 134.5321655, 7.3413391 ], [ 134.5322113, 7.3413863 ], [ 134.5323181, 7.3413973 ], [ 134.5323181, 7.3414693 ], [ 134.532394399999987, 7.3415251 ], [ 134.5324707, 7.3415556 ], [ 134.532547, 7.3415556 ], [ 134.5325775, 7.3416224 ], [ 134.5325317, 7.341661 ], [ 134.532608, 7.3418779 ], [ 134.5326691, 7.3419943 ], [ 134.5326691, 7.3421278 ], [ 134.5327148, 7.3421888 ], [ 134.532882699999988, 7.3422055 ], [ 134.532887827589434, 7.342217890273536 ], [ 134.533883591049403, 7.341720376050412 ], [ 134.533859299999989, 7.3416972 ], [ 134.5339356, 7.3412333 ], [ 134.5340118, 7.3411279 ], [ 134.534072900000012, 7.3410554 ], [ 134.5341339, 7.3410335 ], [ 134.53417970000001, 7.3408527 ], [ 134.533905, 7.3406334 ], [ 134.533859299999989, 7.3404918 ], [ 134.5337677, 7.3403387 ], [ 134.5336151, 7.3401694 ], [ 134.5336456, 7.3400445 ], [ 134.533721899999989, 7.3399806 ], [ 134.533950800000014, 7.3398471 ], [ 134.5341339, 7.3397832 ], [ 134.5341339, 7.339675 ], [ 134.53417970000001, 7.3395724 ], [ 134.534256, 7.3395472 ], [ 134.5343475, 7.339489 ], [ 134.5344086, 7.3395138 ], [ 134.534439099999986, 7.3395443 ], [ 134.5345001, 7.3395166 ], [ 134.5346069, 7.3393502 ], [ 134.53479, 7.3392501 ], [ 134.5348663, 7.3391972 ], [ 134.5349426, 7.3391724 ], [ 134.5349884, 7.3391166 ], [ 134.5349426, 7.3390584 ], [ 134.534912100000014, 7.3387446 ], [ 134.5348511, 7.3387389 ], [ 134.534668, 7.3386474 ], [ 134.5346069, 7.3385887 ], [ 134.5345917, 7.3383889 ], [ 134.5346069, 7.3382917 ], [ 134.534668, 7.3381972 ], [ 134.5346985, 7.3381224 ], [ 134.5346222, 7.3380971 ], [ 134.534317, 7.3375807 ], [ 134.5342712, 7.3374391 ], [ 134.5342712, 7.3373361 ], [ 134.534195, 7.3371973 ], [ 134.5341339, 7.3370724 ], [ 134.5342102, 7.3368835 ], [ 134.5342865, 7.3368692 ], [ 134.534530600000011, 7.3368945 ], [ 134.5346527, 7.3368554 ], [ 134.534805299999988, 7.3368001 ], [ 134.5348969, 7.3367224 ], [ 134.535018900000011, 7.3365054 ], [ 134.53508, 7.3364363 ], [ 134.5353088, 7.3364582 ], [ 134.535293599999989, 7.3363752 ], [ 134.5353241, 7.3360724 ], [ 134.5354462, 7.3359833 ], [ 134.5354767, 7.335928 ], [ 134.5354462, 7.3358526 ], [ 134.5353699, 7.335814 ], [ 134.5353546, 7.3356972 ], [ 134.5353699, 7.3355861 ], [ 134.5353241, 7.3354583 ], [ 134.5353394, 7.3353529 ], [ 134.535400399999986, 7.3352056 ], [ 134.5353699, 7.335125 ], [ 134.5352631, 7.3350639 ], [ 134.5351257, 7.3348446 ], [ 134.5350647, 7.3347917 ], [ 134.535034200000013, 7.3347082 ], [ 134.535034200000013, 7.3346276 ], [ 134.5350647, 7.3345251 ], [ 134.5353088, 7.334311 ], [ 134.535293599999989, 7.3342114 ], [ 134.5352173, 7.3340836 ], [ 134.5351257, 7.3339887 ], [ 134.5350494, 7.3339415 ], [ 134.5348969, 7.3337526 ], [ 134.534927399999987, 7.3335834 ], [ 134.5348816, 7.3334889 ], [ 134.534668, 7.3332696 ], [ 134.5345917, 7.3331361 ], [ 134.534561200000013, 7.3329196 ], [ 134.5345917, 7.3327665 ], [ 134.5345917, 7.3326778 ], [ 134.534530600000011, 7.3325725 ], [ 134.5345154, 7.3323751 ], [ 134.534454399999987, 7.3322973 ], [ 134.5344086, 7.3323779 ], [ 134.5343018, 7.3324113 ], [ 134.533950800000014, 7.3323751 ], [ 134.5338745, 7.3323054 ], [ 134.5338135, 7.3320947 ], [ 134.5337524, 7.3319612 ], [ 134.533828699999987, 7.3317695 ], [ 134.5338898, 7.331686 ], [ 134.533966099999986, 7.3316193 ], [ 134.5341187, 7.3315582 ], [ 134.5341339, 7.3314943 ], [ 134.5341034, 7.3314529 ], [ 134.5340118, 7.3314529 ], [ 134.5339356, 7.3313055 ], [ 134.534057600000011, 7.3311138 ], [ 134.534057600000011, 7.3310165 ], [ 134.5340881, 7.3309445 ], [ 134.53417970000001, 7.3309193 ], [ 134.5343781, 7.3310447 ], [ 134.5343781, 7.3312197 ], [ 134.5343475, 7.3313417 ], [ 134.5342712, 7.3314276 ], [ 134.5342712, 7.331522 ], [ 134.534332299999988, 7.3315697 ], [ 134.5343933, 7.3315582 ], [ 134.534439099999986, 7.3316026 ], [ 134.5343781, 7.3319359 ], [ 134.534439099999986, 7.3320417 ], [ 134.5345001, 7.3320446 ], [ 134.5344696, 7.3318472 ], [ 134.5345764, 7.3315582 ], [ 134.534423800000013, 7.3309779 ], [ 134.5343781, 7.330914 ], [ 134.5341644, 7.3308029 ], [ 134.5341339, 7.3307276 ], [ 134.53417970000001, 7.3306141 ], [ 134.534317, 7.3304777 ], [ 134.5342865, 7.3303695 ], [ 134.5343018, 7.3302693 ], [ 134.5342865, 7.3302331 ], [ 134.5342865, 7.3301835 ], [ 134.534317, 7.3300943 ], [ 134.5343018, 7.3298945 ], [ 134.53417970000001, 7.3296723 ], [ 134.5341644, 7.3295889 ], [ 134.5342102, 7.3295584 ], [ 134.534195, 7.3294416 ], [ 134.5341034, 7.3292947 ], [ 134.5339966, 7.328928 ], [ 134.5339356, 7.3288446 ], [ 134.533844, 7.328536 ], [ 134.533844, 7.3282418 ], [ 134.5338745, 7.3281388 ], [ 134.533950800000014, 7.3280335 ], [ 134.534072900000012, 7.3279362 ], [ 134.53417970000001, 7.3278861 ], [ 134.5342407, 7.327836 ], [ 134.5342865, 7.3277555 ], [ 134.534256, 7.3276334 ], [ 134.53417970000001, 7.3274808 ], [ 134.5341339, 7.3274026 ], [ 134.5341034, 7.3272834 ], [ 134.5340424, 7.3271694 ], [ 134.533859299999989, 7.3270359 ], [ 134.5338135, 7.3269391 ], [ 134.533721899999989, 7.3268304 ], [ 134.5336609, 7.3267918 ], [ 134.5336456, 7.3267279 ], [ 134.5336609, 7.3266611 ], [ 134.5336609, 7.326447 ], [ 134.5336914, 7.3263946 ], [ 134.533721899999989, 7.3262639 ], [ 134.533783, 7.3262277 ], [ 134.533905, 7.3262081 ], [ 134.5339356, 7.3261666 ], [ 134.5339966, 7.3261585 ], [ 134.5340424, 7.3262081 ], [ 134.534057600000011, 7.3262777 ], [ 134.5342407, 7.3263474 ], [ 134.5342712, 7.3264251 ], [ 134.5342712, 7.3265085 ], [ 134.5343475, 7.326561 ], [ 134.534454399999987, 7.326611 ], [ 134.534561200000013, 7.3266277 ], [ 134.5347138, 7.3266277 ], [ 134.5348663, 7.3266029 ], [ 134.535034200000013, 7.326622 ], [ 134.535522500000013, 7.3265557 ], [ 134.535614, 7.3265834 ], [ 134.5356751, 7.3266335 ], [ 134.5356598, 7.3267279 ], [ 134.5355835, 7.326797 ], [ 134.5354767, 7.3269529 ], [ 134.535400399999986, 7.3271279 ], [ 134.5353699, 7.3272748 ], [ 134.535385100000013, 7.3274889 ], [ 134.5354614, 7.3277583 ], [ 134.535553, 7.3280387 ], [ 134.5357056, 7.3283 ], [ 134.5356903, 7.3283863 ], [ 134.535614, 7.3284693 ], [ 134.535491900000011, 7.3285418 ], [ 134.535400399999986, 7.3286252 ], [ 134.5353546, 7.3287082 ], [ 134.5353088, 7.3288417 ], [ 134.5352325, 7.3289776 ], [ 134.5352478, 7.3290696 ], [ 134.5353088, 7.3291502 ], [ 134.5353088, 7.3293085 ], [ 134.535293599999989, 7.329411 ], [ 134.5353241, 7.3295999 ], [ 134.5353699, 7.3297248 ], [ 134.5354462, 7.3298307 ], [ 134.5354462, 7.3300443 ], [ 134.535491900000011, 7.3301473 ], [ 134.535522500000013, 7.3302307 ], [ 134.5355835, 7.3301973 ], [ 134.5357056, 7.3301945 ], [ 134.535751299999987, 7.3301249 ], [ 134.5358124, 7.330122 ], [ 134.5361786, 7.330225 ], [ 134.536254899999989, 7.3302779 ], [ 134.536346400000014, 7.3302417 ], [ 134.536468500000012, 7.3302751 ], [ 134.5365448, 7.3301611 ], [ 134.5366516, 7.3301306 ], [ 134.536743199999989, 7.3301668 ], [ 134.53685, 7.3300581 ], [ 134.536911, 7.3299112 ], [ 134.536972100000014, 7.3298359 ], [ 134.5371246, 7.3296971 ], [ 134.537200899999988, 7.3296084 ], [ 134.536972100000014, 7.3293276 ], [ 134.536956800000013, 7.3291583 ], [ 134.537078900000012, 7.3290863 ], [ 134.537307700000014, 7.3291998 ], [ 134.5374146, 7.3291388 ], [ 134.53753660000001, 7.3291054 ], [ 134.5376434, 7.3290944 ], [ 134.537689199999988, 7.3291249 ], [ 134.537902800000012, 7.3291946 ], [ 134.5380096, 7.3292804 ], [ 134.5380554, 7.3293724 ], [ 134.538024900000011, 7.3294611 ], [ 134.537933399999986, 7.329525 ], [ 134.5378723, 7.3296332 ], [ 134.537735, 7.3299141 ], [ 134.5376587, 7.3302002 ], [ 134.537674, 7.3303776 ], [ 134.5378571, 7.3307777 ], [ 134.5379944, 7.3307724 ], [ 134.5381165, 7.3308249 ], [ 134.538208, 7.3307943 ], [ 134.538284299999987, 7.3307586 ], [ 134.538284299999987, 7.3306832 ], [ 134.5383301, 7.3305917 ], [ 134.538391100000013, 7.3305111 ], [ 134.5384674, 7.3304973 ], [ 134.538513200000011, 7.3305359 ], [ 134.5385895, 7.3305583 ], [ 134.538650499999989, 7.3306332 ], [ 134.5387421, 7.3306141 ], [ 134.5388184, 7.3306332 ], [ 134.538894699999986, 7.3307109 ], [ 134.5389099, 7.3307276 ], [ 134.5392151, 7.3307915 ], [ 134.5395508, 7.3308334 ], [ 134.539840700000013, 7.3308196 ], [ 134.5402527, 7.330864 ], [ 134.5404663, 7.3308196 ], [ 134.5406189, 7.3309054 ], [ 134.5407562, 7.3307834 ], [ 134.5410004, 7.33075 ], [ 134.5410156, 7.3307166 ], [ 134.5410767, 7.3307056 ], [ 134.541168199999987, 7.3307557 ], [ 134.541290299999986, 7.3307138 ], [ 134.5417023, 7.330411 ], [ 134.5420685, 7.3303418 ], [ 134.54199220000001, 7.3302498 ], [ 134.54199220000001, 7.3301249 ], [ 134.5419617, 7.3300695 ], [ 134.542007500000011, 7.3300057 ], [ 134.542236300000013, 7.3298583 ], [ 134.5424652, 7.3298416 ], [ 134.5425415, 7.3298974 ], [ 134.542617799999988, 7.3298998 ], [ 134.542739899999987, 7.3298807 ], [ 134.5429993, 7.3297834 ], [ 134.5430756, 7.3297248 ], [ 134.5432739, 7.3294416 ], [ 134.543441800000011, 7.3291526 ], [ 134.5435028, 7.3290224 ], [ 134.5436707, 7.328814 ], [ 134.5437775, 7.3287582 ], [ 134.5438995, 7.3287721 ], [ 134.544067399999989, 7.3288388 ], [ 134.544281, 7.3289971 ], [ 134.544281, 7.329072 ], [ 134.5443115, 7.3291416 ], [ 134.54438780000001, 7.3291831 ], [ 134.544784600000014, 7.3291721 ], [ 134.545242300000012, 7.3293028 ], [ 134.5453186, 7.3293834 ], [ 134.5453949, 7.3294945 ], [ 134.5454102, 7.329639 ], [ 134.5454407, 7.3296666 ], [ 134.5458069, 7.3298054 ], [ 134.5458832, 7.3297582 ], [ 134.5459442, 7.3297558 ], [ 134.546096799999987, 7.3299165 ], [ 134.5461731, 7.3299499 ], [ 134.546200576921109, 7.329950739905885 ], [ 134.54811869, 7.32598903 ], [ 134.54760958, 7.32304809 ], [ 134.539264870000011, 7.31836031 ], [ 134.52688235, 7.31703795 ], [ 134.524801186792246, 7.320108546267719 ], [ 134.5249176, 7.3207359 ] ], [ [ 134.531066900000013, 7.3254695 ], [ 134.531173700000011, 7.3256388 ], [ 134.5312805, 7.3259778 ], [ 134.5313873, 7.3264666 ], [ 134.5314636, 7.3266692 ], [ 134.531539900000013, 7.3267779 ], [ 134.531555200000014, 7.3269196 ], [ 134.531601, 7.327003 ], [ 134.5316315, 7.3271751 ], [ 134.531539900000013, 7.3273721 ], [ 134.531539900000013, 7.3274665 ], [ 134.531601, 7.3275609 ], [ 134.5316925, 7.3276248 ], [ 134.5317078, 7.3277001 ], [ 134.5315247, 7.3279195 ], [ 134.5315704, 7.3283248 ], [ 134.5316315, 7.3284998 ], [ 134.5316315, 7.3286109 ], [ 134.5315857, 7.3288751 ], [ 134.5315247, 7.3290806 ], [ 134.5313721, 7.3292308 ], [ 134.5312805, 7.3292527 ], [ 134.5312195, 7.3292308 ], [ 134.5311585, 7.3291111 ], [ 134.531051600000012, 7.3290443 ], [ 134.530838, 7.3287859 ], [ 134.530777, 7.3287416 ], [ 134.53068540000001, 7.3286252 ], [ 134.5306702, 7.3282776 ], [ 134.5307312, 7.3282027 ], [ 134.5307465, 7.3280835 ], [ 134.5307312, 7.3278279 ], [ 134.5307465, 7.3276081 ], [ 134.530593900000014, 7.3273888 ], [ 134.5305328, 7.3272748 ], [ 134.530365, 7.3267307 ], [ 134.530365, 7.3265944 ], [ 134.530456500000014, 7.3264084 ], [ 134.5304413, 7.3262863 ], [ 134.5305023, 7.3258085 ], [ 134.530471799999987, 7.3256974 ], [ 134.5304108, 7.325675 ], [ 134.5303803, 7.3256278 ], [ 134.5303803, 7.3255553 ], [ 134.530471799999987, 7.3254805 ], [ 134.530487099999988, 7.3253861 ], [ 134.5306549, 7.3252363 ], [ 134.5307312, 7.3252082 ], [ 134.5308533, 7.3252749 ], [ 134.531066900000013, 7.3254695 ] ], [ [ 134.538879400000013, 7.3296194 ], [ 134.5387421, 7.3295221 ], [ 134.5386658, 7.3294334 ], [ 134.538650499999989, 7.3293276 ], [ 134.5387116, 7.3292222 ], [ 134.5388489, 7.329114 ], [ 134.5389099, 7.3290501 ], [ 134.5389404, 7.3289557 ], [ 134.538894699999986, 7.3288918 ], [ 134.538772599999987, 7.3288779 ], [ 134.538650499999989, 7.3288999 ], [ 134.5385437, 7.3288221 ], [ 134.5384369, 7.3287029 ], [ 134.538406400000014, 7.3285613 ], [ 134.5384522, 7.3284917 ], [ 134.5384827, 7.3283501 ], [ 134.5385437, 7.328239 ], [ 134.5387878, 7.3281946 ], [ 134.5389099, 7.3282304 ], [ 134.5390167, 7.3283334 ], [ 134.539138799999989, 7.328414 ], [ 134.5392914, 7.3284416 ], [ 134.53945920000001, 7.3284416 ], [ 134.5396423, 7.3284249 ], [ 134.5398102, 7.328372 ], [ 134.540084799999988, 7.3282223 ], [ 134.5402527, 7.3281584 ], [ 134.54042050000001, 7.3281474 ], [ 134.540573099999989, 7.3282027 ], [ 134.5407257, 7.3283167 ], [ 134.540817299999986, 7.3284359 ], [ 134.540817299999986, 7.3285165 ], [ 134.540863, 7.3285723 ], [ 134.541046099999988, 7.3285165 ], [ 134.5411224, 7.3285279 ], [ 134.541183499999988, 7.3286138 ], [ 134.541183499999988, 7.3286667 ], [ 134.5409851, 7.3289471 ], [ 134.540817299999986, 7.329114 ], [ 134.5406494, 7.3292332 ], [ 134.54055790000001, 7.3293471 ], [ 134.5404663, 7.3293915 ], [ 134.54039, 7.3294058 ], [ 134.5401764, 7.3293915 ], [ 134.5399933, 7.3293109 ], [ 134.5398102, 7.3292613 ], [ 134.5397034, 7.3292861 ], [ 134.5396271, 7.3293362 ], [ 134.539566, 7.3294611 ], [ 134.539489800000013, 7.3295693 ], [ 134.5393219, 7.3296332 ], [ 134.5391846, 7.3296332 ], [ 134.5390625, 7.3296695 ], [ 134.538879400000013, 7.3296194 ] ], [ [ 134.531936699999989, 7.3289943 ], [ 134.5319824, 7.3290248 ], [ 134.532074, 7.3289805 ], [ 134.5321655, 7.3289638 ], [ 134.532394399999987, 7.3290863 ], [ 134.532486, 7.3292084 ], [ 134.532486, 7.32935 ], [ 134.5324249, 7.3294807 ], [ 134.5323792, 7.3295169 ], [ 134.532287599999989, 7.329525 ], [ 134.5322266, 7.3296027 ], [ 134.5322113, 7.3296833 ], [ 134.532272299999988, 7.3300748 ], [ 134.5323334, 7.3301668 ], [ 134.5322418, 7.330389 ], [ 134.5322418, 7.3306193 ], [ 134.5321045, 7.3308334 ], [ 134.532012900000012, 7.3309083 ], [ 134.5318756, 7.3310943 ], [ 134.531799299999989, 7.3312779 ], [ 134.531723, 7.3313141 ], [ 134.53164670000001, 7.3314276 ], [ 134.5317078, 7.3315249 ], [ 134.531723, 7.3316722 ], [ 134.531723, 7.3317919 ], [ 134.5316162, 7.3318973 ], [ 134.5314941, 7.3319197 ], [ 134.531311, 7.3318138 ], [ 134.531173700000011, 7.331686 ], [ 134.5311127, 7.3315501 ], [ 134.5311585, 7.3312473 ], [ 134.5312042, 7.3307695 ], [ 134.53125, 7.3306193 ], [ 134.531326299999989, 7.3305306 ], [ 134.5313721, 7.3304029 ], [ 134.5313873, 7.3302722 ], [ 134.5314179, 7.330153 ], [ 134.531539900000013, 7.3300276 ], [ 134.5318146, 7.329814 ], [ 134.5318298, 7.3297138 ], [ 134.53178410000001, 7.3296084 ], [ 134.531723, 7.3295331 ], [ 134.531677300000013, 7.3294334 ], [ 134.5316162, 7.3293667 ], [ 134.5315857, 7.3292251 ], [ 134.531601, 7.3291473 ], [ 134.531936699999989, 7.3289943 ] ], [ [ 134.5379944, 7.3282166 ], [ 134.5379944, 7.3282194 ], [ 134.5379791, 7.3283668 ], [ 134.5379791, 7.328536 ], [ 134.537933399999986, 7.328639 ], [ 134.537933399999986, 7.3286419 ], [ 134.5378265, 7.3287916 ], [ 134.5378265, 7.3287945 ], [ 134.537735, 7.3289251 ], [ 134.537735, 7.328928 ], [ 134.5376587, 7.3289919 ], [ 134.5375671, 7.3290196 ], [ 134.5375214, 7.3290362 ], [ 134.5375061, 7.3290391 ], [ 134.537445100000014, 7.3290415 ], [ 134.537338299999988, 7.3290501 ], [ 134.5372772, 7.3290415 ], [ 134.537216199999989, 7.3290362 ], [ 134.5371857, 7.3290334 ], [ 134.537078900000012, 7.3289805 ], [ 134.5370483, 7.3289084 ], [ 134.53706360000001, 7.3289056 ], [ 134.5371246, 7.3287888 ], [ 134.5371246, 7.3287859 ], [ 134.537216199999989, 7.3286333 ], [ 134.537216199999989, 7.3286305 ], [ 134.5372925, 7.3284888 ], [ 134.537307700000014, 7.3283944 ], [ 134.5373993, 7.3281918 ], [ 134.5373993, 7.328186 ], [ 134.5375061, 7.3280001 ], [ 134.5375061, 7.3279972 ], [ 134.53753660000001, 7.3279471 ], [ 134.53753660000001, 7.3279443 ], [ 134.5375671, 7.3279362 ], [ 134.5375977, 7.3279223 ], [ 134.5375671, 7.3278418 ], [ 134.537551900000011, 7.3278332 ], [ 134.5375061, 7.3277388 ], [ 134.5374908, 7.3276277 ], [ 134.5374908, 7.3276248 ], [ 134.53753660000001, 7.3275137 ], [ 134.53753660000001, 7.3275113 ], [ 134.5375671, 7.3273974 ], [ 134.5375824, 7.3273945 ], [ 134.5376587, 7.3273139 ], [ 134.537902800000012, 7.327261 ], [ 134.5380096, 7.3272224 ], [ 134.538040200000012, 7.3272138 ], [ 134.538147, 7.3271804 ], [ 134.538162199999988, 7.3271833 ], [ 134.538299599999988, 7.3271999 ], [ 134.5383301, 7.3272057 ], [ 134.5384369, 7.3272862 ], [ 134.5384522, 7.3273554 ], [ 134.538406400000014, 7.3274417 ], [ 134.538406400000014, 7.3274446 ], [ 134.5383453, 7.3275833 ], [ 134.5383148, 7.3276668 ], [ 134.5383453, 7.3277583 ], [ 134.5383453, 7.3278637 ], [ 134.538269, 7.3279166 ], [ 134.538162199999988, 7.3279862 ], [ 134.5380707, 7.3280859 ], [ 134.5380707, 7.3280888 ], [ 134.5379944, 7.3282166 ] ], [ [ 134.5335541, 7.334239 ], [ 134.5337677, 7.3342586 ], [ 134.5340118, 7.3343058 ], [ 134.5341034, 7.3344779 ], [ 134.5341339, 7.3346248 ], [ 134.5341339, 7.3349137 ], [ 134.5343475, 7.3351026 ], [ 134.5344696, 7.3353109 ], [ 134.534545900000012, 7.3353224 ], [ 134.534561200000013, 7.3353443 ], [ 134.534530600000011, 7.3354583 ], [ 134.5345001, 7.3355308 ], [ 134.534439099999986, 7.3355055 ], [ 134.5343933, 7.3355222 ], [ 134.534332299999988, 7.3357363 ], [ 134.534256, 7.3357749 ], [ 134.5342255, 7.3358054 ], [ 134.5341644, 7.3358054 ], [ 134.5340881, 7.3357806 ], [ 134.5340118, 7.3356695 ], [ 134.533966099999986, 7.3355694 ], [ 134.533950800000014, 7.3354859 ], [ 134.5339813, 7.335422 ], [ 134.5339966, 7.3353443 ], [ 134.533966099999986, 7.3352528 ], [ 134.5338898, 7.335175 ], [ 134.533783, 7.3351169 ], [ 134.5336304, 7.3349915 ], [ 134.5335541, 7.3349805 ], [ 134.533493, 7.3349223 ], [ 134.533462500000013, 7.3348446 ], [ 134.533477799999986, 7.334764 ], [ 134.5334168, 7.3346276 ], [ 134.533371, 7.3344779 ], [ 134.5334015, 7.3344083 ], [ 134.533493, 7.3342638 ], [ 134.5335541, 7.334239 ] ], [ [ 134.5330658, 7.3334475 ], [ 134.533004799999986, 7.3333945 ], [ 134.533004799999986, 7.3332915 ], [ 134.532959, 7.3330998 ], [ 134.532989500000014, 7.3329444 ], [ 134.532974200000012, 7.3328834 ], [ 134.532882699999988, 7.332736 ], [ 134.5327759, 7.3326111 ], [ 134.5327759, 7.3325391 ], [ 134.5328217, 7.3324723 ], [ 134.532882699999988, 7.3322973 ], [ 134.5329285, 7.3322387 ], [ 134.532989500000014, 7.3322082 ], [ 134.533111600000012, 7.3322611 ], [ 134.5331726, 7.3322582 ], [ 134.5332031, 7.332222 ], [ 134.5332794, 7.3319998 ], [ 134.533233599999988, 7.331975 ], [ 134.53321840000001, 7.3319359 ], [ 134.5332489, 7.331903 ], [ 134.5332947, 7.3318863 ], [ 134.5333405, 7.3319082 ], [ 134.533355699999987, 7.3319445 ], [ 134.5334168, 7.3319473 ], [ 134.533355699999987, 7.3321028 ], [ 134.5334168, 7.3321137 ], [ 134.533432, 7.3321667 ], [ 134.5334015, 7.3322139 ], [ 134.533355699999987, 7.3322501 ], [ 134.5333252, 7.3322945 ], [ 134.5333252, 7.3323278 ], [ 134.5334473, 7.3323665 ], [ 134.5335236, 7.3324194 ], [ 134.533569300000011, 7.3325167 ], [ 134.533584600000012, 7.3326111 ], [ 134.5335541, 7.332736 ], [ 134.5335541, 7.3328362 ], [ 134.533599900000013, 7.3329167 ], [ 134.533584600000012, 7.3330278 ], [ 134.533493, 7.3332501 ], [ 134.5335083, 7.3333998 ], [ 134.533462500000013, 7.3334584 ], [ 134.5333099, 7.3335137 ], [ 134.5331879, 7.3334918 ], [ 134.5330658, 7.3334475 ] ], [ [ 134.5336151, 7.3416944 ], [ 134.533584600000012, 7.3416362 ], [ 134.5335388, 7.3415833 ], [ 134.533477799999986, 7.3415361 ], [ 134.5334015, 7.3415446 ], [ 134.5333252, 7.3414998 ], [ 134.5332947, 7.341403 ], [ 134.5333099, 7.3413057 ], [ 134.5333405, 7.3412085 ], [ 134.5334015, 7.3411751 ], [ 134.5335388, 7.3411388 ], [ 134.533599900000013, 7.3411527 ], [ 134.5336151, 7.3412695 ], [ 134.5336914, 7.3412833 ], [ 134.53370670000001, 7.3413944 ], [ 134.5337524, 7.3414445 ], [ 134.533783, 7.3414998 ], [ 134.5337524, 7.3415585 ], [ 134.53370670000001, 7.3415833 ], [ 134.5336762, 7.3416472 ], [ 134.5336609, 7.3416834 ], [ 134.5336151, 7.3416944 ] ], [ [ 134.534668, 7.3339415 ], [ 134.5347138, 7.3338833 ], [ 134.53479, 7.3338637 ], [ 134.534912100000014, 7.3339667 ], [ 134.5350037, 7.3340054 ], [ 134.535034200000013, 7.3340387 ], [ 134.5350037, 7.334178 ], [ 134.5349731, 7.3342166 ], [ 134.5348969, 7.3342195 ], [ 134.534805299999988, 7.3341861 ], [ 134.5347443, 7.3341279 ], [ 134.534683199999989, 7.3340306 ], [ 134.534668, 7.3339415 ] ], [ [ 134.5334015, 7.3369165 ], [ 134.5334473, 7.3369222 ], [ 134.5335541, 7.337153 ], [ 134.5335541, 7.337225 ], [ 134.533477799999986, 7.337275 ], [ 134.5333862, 7.3372889 ], [ 134.5333405, 7.3372722 ], [ 134.5332947, 7.337225 ], [ 134.5332642, 7.3371749 ], [ 134.5332642, 7.3371029 ], [ 134.5333099, 7.3370113 ], [ 134.5333405, 7.3369527 ], [ 134.5334015, 7.3369165 ] ], [ [ 134.5318451, 7.332264 ], [ 134.5318909, 7.3323083 ], [ 134.531921399999987, 7.3323665 ], [ 134.5318756, 7.3324971 ], [ 134.5318298, 7.3325529 ], [ 134.53178410000001, 7.3325748 ], [ 134.5317078, 7.3325806 ], [ 134.531662, 7.3325415 ], [ 134.531601, 7.3324804 ], [ 134.53164670000001, 7.3323641 ], [ 134.531723, 7.3322501 ], [ 134.53178410000001, 7.332264 ], [ 134.5318451, 7.332264 ] ], [ [ 134.532501200000013, 7.34055 ], [ 134.532516500000014, 7.3406444 ], [ 134.532516500000014, 7.340714 ], [ 134.5324554, 7.3407388 ], [ 134.5323486, 7.340725 ], [ 134.53225710000001, 7.340672 ], [ 134.5322113, 7.3406029 ], [ 134.5322266, 7.340539 ], [ 134.532272299999988, 7.3404803 ], [ 134.5323639, 7.3404999 ], [ 134.532501200000013, 7.34055 ] ], [ [ 134.5342255, 7.3376803 ], [ 134.5341492, 7.3377419 ], [ 134.534072900000012, 7.3377333 ], [ 134.5340271, 7.3376861 ], [ 134.5340118, 7.3376164 ], [ 134.534057600000011, 7.3375554 ], [ 134.5341187, 7.3375249 ], [ 134.5341644, 7.3375416 ], [ 134.5342255, 7.3376803 ] ] ], [ [ [ 134.5291748, 7.3431387 ], [ 134.5292816, 7.3425999 ], [ 134.529266400000012, 7.3423138 ], [ 134.5290527, 7.3422084 ], [ 134.528717, 7.3420806 ], [ 134.5285797, 7.3418832 ], [ 134.5286102, 7.3417473 ], [ 134.528533900000014, 7.3414722 ], [ 134.5283203, 7.3412943 ], [ 134.5282288, 7.3412695 ], [ 134.5278473, 7.3413529 ], [ 134.5277252, 7.3415332 ], [ 134.5275574, 7.3416863 ], [ 134.527343800000011, 7.3418055 ], [ 134.5271606, 7.3420944 ], [ 134.527240196922321, 7.342528646259087 ], [ 134.529162403979484, 7.343172640195905 ], [ 134.5291748, 7.3431387 ] ] ], [ [ [ 134.5420685, 7.3352165 ], [ 134.5419617, 7.3352776 ], [ 134.5414429, 7.33535 ], [ 134.5413361, 7.3353725 ], [ 134.5412598, 7.3354306 ], [ 134.5409851, 7.3354778 ], [ 134.5408478, 7.3354836 ], [ 134.540741, 7.3355389 ], [ 134.5406342, 7.3354859 ], [ 134.5405121, 7.3354807 ], [ 134.5405273, 7.3355751 ], [ 134.54039, 7.3355694 ], [ 134.5402679, 7.3356252 ], [ 134.5401306, 7.3356609 ], [ 134.5397797, 7.3356972 ], [ 134.539489800000013, 7.3357973 ], [ 134.5393982, 7.3360724 ], [ 134.5393066, 7.3360748 ], [ 134.5392914, 7.3362417 ], [ 134.5391998, 7.3363195 ], [ 134.539123499999988, 7.3364248 ], [ 134.538879400000013, 7.3365998 ], [ 134.538772599999987, 7.336822 ], [ 134.5386658, 7.3368807 ], [ 134.5385895, 7.3369694 ], [ 134.5385284, 7.3370943 ], [ 134.538284299999987, 7.3374276 ], [ 134.538162199999988, 7.3374944 ], [ 134.5381012, 7.3377695 ], [ 134.5380096, 7.3379502 ], [ 134.5378723, 7.3383389 ], [ 134.5378723, 7.3385363 ], [ 134.537674, 7.338747 ], [ 134.5375977, 7.3388195 ], [ 134.5375061, 7.338975 ], [ 134.5373993, 7.3391333 ], [ 134.537200899999988, 7.3394585 ], [ 134.5371246, 7.339561 ], [ 134.53706360000001, 7.3395777 ], [ 134.5370331, 7.3396778 ], [ 134.5370483, 7.3397307 ], [ 134.5369873, 7.3398113 ], [ 134.5370026, 7.3400278 ], [ 134.536991794555405, 7.340167421443426 ], [ 134.53776747, 7.33977987 ], [ 134.542285901801961, 7.335204934291183 ], [ 134.5420685, 7.3352165 ] ] ], [ [ [ 134.532272299999988, 7.342453 ], [ 134.5322418, 7.3423915 ], [ 134.5321655, 7.342361 ], [ 134.5321045, 7.3423777 ], [ 134.532028200000013, 7.3425388 ], [ 134.5319672, 7.3426056 ], [ 134.5318756, 7.3426194 ], [ 134.5317535, 7.3426862 ], [ 134.531743537603404, 7.342789612942947 ], [ 134.532289129560041, 7.342517018326492 ], [ 134.532272299999988, 7.342453 ] ] ] ] } }
]
}
