{
"type": "FeatureCollection",
"name": "DEPCNT",
"crs": { "type": "name", "properties": { "name": "urn:ogc:def:crs:OGC:1.3:CRS84" } },
"features": [
{ "type": "Feature", "properties": { "RCID": 4456, "PRIM": 2, "GRUP": 2, "OBJL": 43, "RVER": 1, "AGEN": 550, "FIDN": 506630232, "FIDS": 9, "LNAM": "02261E3290580009", "LNAM_REFS": null, "FFPT_RIND": null, "VALDCO": 20.0, "VERDAT": null, "INFORM": null, "NINFOM": null, "NTXTDS": null, "SCAMAX": null, "SCAMIN": 44999, "TXTDSC": null, "RECDAT": null, "RECIND": null, "SORDAT": null, "SORIND": null, "hypcat": null, "_enc_cell": "US4TB3P0" }, "geometry": { "type": "LineString", "coordinates": [ [ 134.523672433098028, 7.321773935540262 ], [ 134.5236511, 7.3221722 ], [ 134.5236511, 7.3224583 ], [ 134.5235901, 7.3227444 ], [ 134.5235443, 7.3229251 ], [ 134.5232849, 7.3232665 ], [ 134.523147599999987, 7.3233194 ], [ 134.5228424, 7.3232665 ], [ 134.5228119, 7.3232307 ], [ 134.522781400000014, 7.323225 ], [ 134.522766100000013, 7.3232193 ], [ 134.522727889733233, 7.323167536637879 ] ] } },
{ "type": "Feature", "properties": { "RCID": 4457, "PRIM": 2, "GRUP": 2, "OBJL": 43, "RVER": 1, "AGEN": 550, "FIDN": 569334610, "FIDS": 9, "LNAM": "022621EF5B520009", "LNAM_REFS": null, "FFPT_RIND": null, "VALDCO": 30.0, "VERDAT": null, "INFORM": null, "NINFOM": null, "NTXTDS": null, "SCAMAX": null, "SCAMIN": 89999, "TXTDSC": null, "RECDAT": null, "RECIND": null, "SORDAT": null, "SORIND": null, "hypcat": null, "_enc_cell": "US4TB3P0" }, "geometry": { "type": "LineString", "coordinates": [ [ 134.523819, 7.3222113 ], [ 134.523819, 7.3224807 ], [ 134.52388, 7.3227139 ], [ 134.523986799999989, 7.3229637 ], [ 134.5240784, 7.3231611 ], [ 134.5241699, 7.3234305 ], [ 134.5241852, 7.323647 ], [ 134.524108899999987, 7.3239694 ], [ 134.52397160000001, 7.3241305 ], [ 134.5237885, 7.3242192 ], [ 134.523620599999987, 7.3242192 ], [ 134.5234222, 7.3241668 ], [ 134.5231934, 7.3239331 ], [ 134.523132299999986, 7.3237891 ], [ 134.5229492, 7.3237362 ] ] } },
{ "type": "Feature", "properties": { "RCID": 4674, "PRIM": 2, "GRUP": 2, "OBJL": 43, "RVER": 1, "AGEN": 550, "FIDN": 156066853, "FIDS": 9, "LNAM": "0226094D64250009", "LNAM_REFS": null, "FFPT_RIND": null, "VALDCO": 10.0, "VERDAT": null, "INFORM": null, "NINFOM": null, "NTXTDS": null, "SCAMAX": null, "SCAMIN": 44999, "TXTDSC": null, "RECDAT": null, "RECIND": null, "SORDAT": null, "SORIND": null, "hypcat": null, "_enc_cell": "US4TB3P0" }, "geometry": { "type": "LineString", "coordinates": [ [ 134.521951587963713, 7.324312910199789 ], [ 134.5219727, 7.3243141 ], [ 134.5221558, 7.3243361 ], [ 134.522308399999986, 7.3243361 ], [ 134.522399900000011, 7.3243251 ], [ 134.5225678, 7.3242722 ], [ 134.522659299999987, 7.3242054 ], [ 134.5227509, 7.3240891 ], [ 134.5228119, 7.3239026 ], [ 134.5228119, 7.3237581 ], [ 134.5227966, 7.3235998 ], [ 134.5227051, 7.3235192 ], [ 134.522674599999988, 7.3234944 ], [ 134.522537199999988, 7.3234501 ], [ 134.522536474202923, 7.323449955532647 ] ] } },
{ "type": "Feature", "properties": { "RCID": 5174, "PRIM": 2, "GRUP": 2, "OBJL": 43, "RVER": 1, "AGEN": 550, "FIDN": 534938087, "FIDS": 9, "LNAM": "02261FE281E70009", "LNAM_REFS": null, "FFPT_RIND": null, "VALDCO": 10.0, "VERDAT": null, "INFORM": null, "NINFOM": null, "NTXTDS": null, "SCAMAX": null, "SCAMIN": 44999, "TXTDSC": null, "RECDAT": null, "RECIND": null, "SORDAT": null, "SORIND": null, "hypcat": null, "_enc_cell": "US4TB3P0" }, "geometry": { "type": "LineString", "coordinates": [ [ 134.525161700000012, 7.3251891 ], [ 134.5251007, 7.3252807 ], [ 134.525065, 7.3252807 ], [ 134.5250244, 7.3252807 ], [ 134.524765, 7.3253584 ], [ 134.5246277, 7.3254137 ], [ 134.5245056, 7.3254833 ], [ 134.52444460000001, 7.3255696 ], [ 134.5244141, 7.3256807 ], [ 134.5244141, 7.3258252 ], [ 134.524459799999988, 7.3259583 ], [ 134.5245514, 7.3260474 ], [ 134.5246735, 7.3261085 ], [ 134.5247752, 7.3261371 ], [ 134.524810800000012, 7.3261471 ], [ 134.524948099999989, 7.3261418 ], [ 134.5250244, 7.3261194 ], [ 134.5251007, 7.3260803 ], [ 134.525177, 7.3261471 ] ] } },
{ "type": "Feature", "properties": { "RCID": 5420, "PRIM": 2, "GRUP": 2, "OBJL": 43, "RVER": 1, "AGEN": 550, "FIDN": 960968531, "FIDS": 9, "LNAM": "0226394737530009", "LNAM_REFS": null, "FFPT_RIND": null, "VALDCO": 30.0, "VERDAT": null, "INFORM": null, "NINFOM": null, "NTXTDS": null, "SCAMAX": null, "SCAMIN": 89999, "TXTDSC": null, "RECDAT": null, "RECIND": null, "SORDAT": null, "SORIND": null, "hypcat": null, "_enc_cell": "US4TB3P0" }, "geometry": { "type": "LineString", "coordinates": [ [ 134.5230866, 7.3262224 ], [ 134.5232849, 7.3262582 ], [ 134.5234375, 7.326364 ], [ 134.5235443, 7.3266001 ], [ 134.5235443, 7.3267946 ], [ 134.5234528, 7.3269749 ], [ 134.5231934, 7.3270474 ], [ 134.5228272, 7.327064 ], [ 134.522583, 7.3269749 ], [ 134.5224762, 7.3267613 ], [ 134.5224762, 7.3264556 ], [ 134.522644, 7.3262944 ], [ 134.5228424, 7.3262391 ], [ 134.5230866, 7.3262224 ] ] } },
{ "type": "Feature", "properties": { "RCID": 4923, "PRIM": 2, "GRUP": 2, "OBJL": 43, "RVER": 1, "AGEN": 550, "FIDN": 965133819, "FIDS": 9, "LNAM": "02263986C5FB0009", "LNAM_REFS": null, "FFPT_RIND": null, "VALDCO": 5.0, "VERDAT": null, "INFORM": null, "NINFOM": null, "NTXTDS": null, "SCAMAX": null, "SCAMIN": 44999, "TXTDSC": null, "RECDAT": null, "RECIND": null, "SORDAT": null, "SORIND": null, "hypcat": null, "_enc_cell": "US4TB3P0" }, "geometry": { "type": "LineString", "coordinates": [ [ 134.52397160000001, 7.3263974 ], [ 134.524108899999987, 7.3263526 ], [ 134.524215700000013, 7.326364 ], [ 134.524292, 7.326436 ], [ 134.524353, 7.3265195 ], [ 134.5243683, 7.3265915 ], [ 134.5243835, 7.326664 ], [ 134.5243835, 7.3267889 ], [ 134.524292, 7.3269196 ], [ 134.5241852, 7.3270278 ], [ 134.5240326, 7.327075 ], [ 134.5239105, 7.3270669 ], [ 134.5238037, 7.3270974 ], [ 134.523742700000014, 7.3270888 ], [ 134.5236816, 7.3270474 ], [ 134.5236511, 7.3270083 ], [ 134.523620599999987, 7.3269081 ], [ 134.523635899999988, 7.3268166 ], [ 134.523635899999988, 7.3267694 ], [ 134.5236664, 7.3266835 ], [ 134.523727400000013, 7.3265138 ], [ 134.5238037, 7.3264418 ], [ 134.52397160000001, 7.3263974 ] ] } },
{ "type": "Feature", "properties": { "RCID": 4920, "PRIM": 2, "GRUP": 2, "OBJL": 43, "RVER": 1, "AGEN": 550, "FIDN": 418041073, "FIDS": 9, "LNAM": "022618EACCF10009", "LNAM_REFS": null, "FFPT_RIND": null, "VALDCO": 30.0, "VERDAT": null, "INFORM": null, "NINFOM": null, "NTXTDS": null, "SCAMAX": null, "SCAMIN": 89999, "TXTDSC": null, "RECDAT": null, "RECIND": null, "SORDAT": null, "SORIND": null, "hypcat": null, "_enc_cell": "US4TB3P0" }, "geometry": { "type": "LineString", "coordinates": [ [ 134.521321610389833, 7.329013971871996 ], [ 134.5215302, 7.3289113 ], [ 134.5216675, 7.3288221 ], [ 134.5217743, 7.3286252 ], [ 134.521804800000012, 7.3283749 ], [ 134.5217743, 7.3281221 ], [ 134.521698, 7.3279252 ], [ 134.5215302, 7.327764 ], [ 134.5213928, 7.3275499 ], [ 134.5213013, 7.3273692 ], [ 134.52124725041881, 7.32725536293975 ] ] } },
{ "type": "Feature", "properties": { "RCID": 4237, "PRIM": 2, "GRUP": 2, "OBJL": 43, "RVER": 1, "AGEN": 550, "FIDN": 721765310, "FIDS": 9, "LNAM": "02262B0543BE0009", "LNAM_REFS": null, "FFPT_RIND": null, "VALDCO": 20.0, "VERDAT": null, "INFORM": null, "NINFOM": null, "NTXTDS": null, "SCAMAX": null, "SCAMIN": 44999, "TXTDSC": null, "RECDAT": null, "RECIND": null, "SORDAT": null, "SORIND": null, "hypcat": null, "_enc_cell": "US4TB3P0" }, "geometry": { "type": "LineString", "coordinates": [ [ 134.524200400000012, 7.3282805 ], [ 134.5240326, 7.3283916 ], [ 134.5240104, 7.3283976 ], [ 134.523849500000011, 7.3284416 ], [ 134.5235443, 7.3284807 ], [ 134.5233307, 7.3284917 ], [ 134.5231934, 7.328547 ], [ 134.5231171, 7.3286419 ], [ 134.5230408, 7.328753 ], [ 134.5229645, 7.3288918 ], [ 134.5229645, 7.3290196 ], [ 134.523025499999989, 7.3291416 ], [ 134.523147599999987, 7.3292584 ], [ 134.523269699999986, 7.3293748 ], [ 134.523361200000011, 7.3294859 ], [ 134.523468, 7.3296137 ], [ 134.5235291, 7.3297081 ] ] } },
{ "type": "Feature", "properties": { "RCID": 5419, "PRIM": 2, "GRUP": 2, "OBJL": 43, "RVER": 1, "AGEN": 550, "FIDN": 233106765, "FIDS": 9, "LNAM": "02260DE4ED4D0009", "LNAM_REFS": null, "FFPT_RIND": null, "VALDCO": 5.0, "VERDAT": null, "INFORM": null, "NINFOM": null, "NTXTDS": null, "SCAMAX": null, "SCAMIN": 44999, "TXTDSC": null, "RECDAT": null, "RECIND": null, "SORDAT": null, "SORIND": null, "hypcat": null, "_enc_cell": "US4TB3P0" }, "geometry": { "type": "LineString", "coordinates": [ [ 134.5225983, 7.3305807 ], [ 134.5224915, 7.3306084 ], [ 134.522415200000012, 7.3306027 ], [ 134.5223389, 7.3305693 ], [ 134.522277800000012, 7.330514 ], [ 134.522277800000012, 7.3304973 ], [ 134.5222473, 7.3304582 ], [ 134.5222321, 7.3303304 ], [ 134.5222168, 7.330225 ], [ 134.5222321, 7.3300972 ], [ 134.5223389, 7.3298974 ], [ 134.5224304, 7.3298307 ], [ 134.5225678, 7.329803 ], [ 134.522674599999988, 7.329803 ], [ 134.522781400000014, 7.3298526 ], [ 134.522888200000011, 7.329936 ], [ 134.5229034, 7.3300362 ], [ 134.5229034, 7.3301582 ], [ 134.5228424, 7.3302641 ], [ 134.5228424, 7.3303304 ], [ 134.5228119, 7.3304081 ], [ 134.5227509, 7.3304863 ], [ 134.522674599999988, 7.3305416 ], [ 134.5225983, 7.3305807 ] ] } },
{ "type": "Feature", "properties": { "RCID": 5171, "PRIM": 2, "GRUP": 2, "OBJL": 43, "RVER": 1, "AGEN": 550, "FIDN": 56630322, "FIDS": 9, "LNAM": "022603601C320009", "LNAM_REFS": null, "FFPT_RIND": null, "VALDCO": 30.0, "VERDAT": null, "INFORM": null, "NINFOM": null, "NTXTDS": null, "SCAMAX": null, "SCAMIN": 89999, "TXTDSC": null, "RECDAT": null, "RECIND": null, "SORDAT": null, "SORIND": null, "hypcat": null, "_enc_cell": "US4TB3P0" }, "geometry": { "type": "LineString", "coordinates": [ [ 134.5235596, 7.3299971 ], [ 134.5234504, 7.3300527 ], [ 134.523407, 7.3300748 ], [ 134.523254400000013, 7.3301697 ], [ 134.5230866, 7.3303251 ], [ 134.5229797, 7.3304696 ], [ 134.52287290000001, 7.3306527 ], [ 134.5228119, 7.3308363 ], [ 134.522781400000014, 7.3310137 ], [ 134.522781400000014, 7.3312974 ] ] } },
{ "type": "Feature", "properties": { "RCID": 5424, "PRIM": 2, "GRUP": 2, "OBJL": 43, "RVER": 1, "AGEN": 550, "FIDN": 525105973, "FIDS": 9, "LNAM": "02261F4C7B350009", "LNAM_REFS": null, "FFPT_RIND": null, "VALDCO": 10.0, "VERDAT": null, "INFORM": null, "NINFOM": null, "NTXTDS": null, "SCAMAX": null, "SCAMIN": 44999, "TXTDSC": null, "RECDAT": null, "RECIND": null, "SORDAT": null, "SORIND": null, "hypcat": null, "_enc_cell": "US4TB3P0" }, "geometry": { "type": "LineString", "coordinates": [ [ 134.5254669, 7.3227277 ], [ 134.5254249, 7.3227671 ], [ 134.5253601, 7.3228278 ], [ 134.525238, 7.3228722 ], [ 134.5251312, 7.3229055 ], [ 134.5249786, 7.3229775 ], [ 134.524826100000013, 7.3230667 ], [ 134.524765, 7.3231387 ], [ 134.5247192, 7.3232999 ], [ 134.5247192, 7.3234553 ], [ 134.524826100000013, 7.3235998 ], [ 134.52493290000001, 7.3237195 ], [ 134.5250244, 7.3238306 ], [ 134.525085499999989, 7.3239584 ], [ 134.525085499999989, 7.3240333 ], [ 134.5251007, 7.3240776 ], [ 134.525116, 7.3241582 ] ] } },
{ "type": "Feature", "properties": { "RCID": 4684, "PRIM": 2, "GRUP": 2, "OBJL": 43, "RVER": 1, "AGEN": 550, "FIDN": 837591862, "FIDS": 9, "LNAM": "022631ECA3360009", "LNAM_REFS": null, "FFPT_RIND": null, "VALDCO": 10.0, "VERDAT": null, "INFORM": null, "NINFOM": null, "NTXTDS": null, "SCAMAX": null, "SCAMIN": 44999, "TXTDSC": null, "RECDAT": null, "RECIND": null, "SORDAT": null, "SORIND": null, "hypcat": null, "_enc_cell": "US4TB3P0" }, "geometry": { "type": "LineString", "coordinates": [ [ 134.5287018, 7.3330083 ], [ 134.5286408, 7.3330975 ], [ 134.5286255, 7.3332696 ], [ 134.5286408, 7.3333111 ], [ 134.5287018, 7.333436 ], [ 134.5288086, 7.3335419 ], [ 134.528915399999988, 7.3336363 ], [ 134.529068, 7.3336887 ], [ 134.52925110000001, 7.3337002 ], [ 134.5294342, 7.3337002 ], [ 134.529617300000012, 7.3336778 ], [ 134.52986150000001, 7.3336139 ], [ 134.5300293, 7.3335528 ], [ 134.5301819, 7.3334999 ], [ 134.5305023, 7.3334141 ], [ 134.53068540000001, 7.3334251 ], [ 134.5308075, 7.3334475 ], [ 134.530960099999987, 7.3334804 ], [ 134.5310211, 7.3334665 ], [ 134.5312805, 7.3334665 ], [ 134.531433099999987, 7.3334751 ], [ 134.531601, 7.3335419 ] ] } },
{ "type": "Feature", "properties": { "RCID": 3748, "PRIM": 2, "GRUP": 2, "OBJL": 43, "RVER": 1, "AGEN": 550, "FIDN": 141760679, "FIDS": 9, "LNAM": "0226087318A70009", "LNAM_REFS": null, "FFPT_RIND": null, "VALDCO": 20.0, "VERDAT": null, "INFORM": null, "NINFOM": null, "NTXTDS": null, "SCAMAX": null, "SCAMIN": 44999, "TXTDSC": null, "RECDAT": null, "RECIND": null, "SORDAT": null, "SORIND": null, "hypcat": null, "_enc_cell": "US4TB3P0" }, "geometry": { "type": "LineString", "coordinates": [ [ 134.526001, 7.3345833 ], [ 134.5261841, 7.3343835 ], [ 134.5264282, 7.3342056 ], [ 134.5266876, 7.3340249 ], [ 134.526787899999988, 7.3339631 ], [ 134.527114899999987, 7.3337612 ], [ 134.5273743, 7.3337612 ], [ 134.5279236, 7.3337526 ], [ 134.5285797, 7.3338194 ], [ 134.528671300000013, 7.3338361 ], [ 134.5288239, 7.333889 ], [ 134.5289764, 7.3339305 ], [ 134.529144300000013, 7.334003 ], [ 134.52925110000001, 7.3340554 ], [ 134.5293732, 7.3341084 ], [ 134.5294495, 7.3342471 ], [ 134.52948, 7.3343945 ], [ 134.529495200000014, 7.3345304 ], [ 134.5294647, 7.3346558 ], [ 134.529388399999988, 7.334836 ], [ 134.529266400000012, 7.3349609 ], [ 134.5291748, 7.3350248 ], [ 134.5289764, 7.3350444 ], [ 134.528244, 7.3350864 ], [ 134.5279846, 7.3351307 ], [ 134.5277405, 7.3351388 ], [ 134.527465799999987, 7.3351388 ], [ 134.5272522, 7.3351612 ] ] } },
{ "type": "Feature", "properties": { "RCID": 4929, "PRIM": 2, "GRUP": 2, "OBJL": 43, "RVER": 1, "AGEN": 550, "FIDN": 283873483, "FIDS": 9, "LNAM": "022610EB90CB0009", "LNAM_REFS": null, "FFPT_RIND": null, "VALDCO": 2.0, "VERDAT": null, "INFORM": null, "NINFOM": null, "NTXTDS": null, "SCAMAX": null, "SCAMIN": 44999, "TXTDSC": null, "RECDAT": null, "RECIND": null, "SORDAT": null, "SORIND": null, "hypcat": null, "_enc_cell": "US4TB3P0" }, "geometry": { "type": "LineString", "coordinates": [ [ 134.5322266, 7.3343639 ], [ 134.5323181, 7.3345304 ], [ 134.5323486, 7.3348141 ], [ 134.5323486, 7.3350029 ], [ 134.5323029, 7.3352776 ], [ 134.5321808, 7.3355084 ], [ 134.5320587, 7.3357611 ], [ 134.532028200000013, 7.3359723 ], [ 134.5319672, 7.3361917 ], [ 134.5318604, 7.336411 ], [ 134.531799299999989, 7.3365502 ], [ 134.53178410000001, 7.3366222 ] ] } },
{ "type": "Feature", "properties": { "RCID": 4241, "PRIM": 2, "GRUP": 2, "OBJL": 43, "RVER": 1, "AGEN": 550, "FIDN": 534641452, "FIDS": 9, "LNAM": "02261FDDFB2C0009", "LNAM_REFS": null, "FFPT_RIND": null, "VALDCO": 20.0, "VERDAT": null, "INFORM": null, "NINFOM": null, "NTXTDS": null, "SCAMAX": null, "SCAMIN": 44999, "TXTDSC": null, "RECDAT": null, "RECIND": null, "SORDAT": null, "SORIND": null, "hypcat": null, "_enc_cell": "US4TB3P0" }, "geometry": { "type": "LineString", "coordinates": [ [ 134.5270844, 7.3362308 ], [ 134.5271301, 7.3360972 ], [ 134.5271454, 7.3360028 ], [ 134.5271301, 7.3359585 ] ] } },
{ "type": "Feature", "properties": { "RCID": 4239, "PRIM": 2, "GRUP": 2, "OBJL": 43, "RVER": 1, "AGEN": 550, "FIDN": 478696464, "FIDS": 9, "LNAM": "02261C8854100009", "LNAM_REFS": null, "FFPT_RIND": null, "VALDCO": 2.0, "VERDAT": null, "INFORM": null, "NINFOM": null, "NTXTDS": null, "SCAMAX": null, "SCAMIN": 44999, "TXTDSC": null, "RECDAT": null, "RECIND": null, "SORDAT": null, "SORIND": null, "hypcat": null, "_enc_cell": "US4TB3P0" }, "geometry": { "type": "LineString", "coordinates": [ [ 134.526718100000011, 7.3364081 ], [ 134.526733400000012, 7.3364334 ], [ 134.526870699999989, 7.3365054 ], [ 134.5269013, 7.3365054 ] ] } },
{ "type": "Feature", "properties": { "RCID": 4240, "PRIM": 2, "GRUP": 2, "OBJL": 43, "RVER": 1, "AGEN": 550, "FIDN": 702260503, "FIDS": 9, "LNAM": "022629DBA5170009", "LNAM_REFS": null, "FFPT_RIND": null, "VALDCO": 2.0, "VERDAT": null, "INFORM": null, "NINFOM": null, "NTXTDS": null, "SCAMAX": null, "SCAMIN": 44999, "TXTDSC": null, "RECDAT": null, "RECIND": null, "SORDAT": null, "SORIND": null, "hypcat": null, "_enc_cell": "US4TB3P0" }, "geometry": { "type": "LineString", "coordinates": [ [ 134.5270691, 7.3373585 ], [ 134.526870699999989, 7.3371697 ], [ 134.5266571, 7.3371277 ], [ 134.52636720000001, 7.3371277 ], [ 134.5261841, 7.3371387 ], [ 134.526056399999987, 7.3371622 ], [ 134.526016199999987, 7.3371697 ], [ 134.5258026, 7.3371167 ], [ 134.5257263, 7.3370113 ], [ 134.5257111, 7.3368335 ], [ 134.5257416, 7.3366637 ], [ 134.525787400000013, 7.3365831 ] ] } },
{ "type": "Feature", "properties": { "RCID": 4928, "PRIM": 2, "GRUP": 2, "OBJL": 43, "RVER": 1, "AGEN": 550, "FIDN": 965613056, "FIDS": 9, "LNAM": "0226398E16000009", "LNAM_REFS": null, "FFPT_RIND": null, "VALDCO": 5.0, "VERDAT": null, "INFORM": null, "NINFOM": null, "NTXTDS": null, "SCAMAX": null, "SCAMIN": 44999, "TXTDSC": null, "RECDAT": null, "RECIND": null, "SORDAT": null, "SORIND": null, "hypcat": null, "_enc_cell": "US4TB3P0" }, "geometry": { "type": "LineString", "coordinates": [ [ 134.532012900000012, 7.3384419 ], [ 134.532074, 7.3383279 ], [ 134.532074, 7.3382416 ], [ 134.5319824, 7.3381639 ] ] } },
{ "type": "Feature", "properties": { "RCID": 5175, "PRIM": 2, "GRUP": 2, "OBJL": 43, "RVER": 1, "AGEN": 550, "FIDN": 140469424, "FIDS": 9, "LNAM": "0226085F64B00009", "LNAM_REFS": null, "FFPT_RIND": null, "VALDCO": 5.0, "VERDAT": null, "INFORM": null, "NINFOM": null, "NTXTDS": null, "SCAMAX": null, "SCAMIN": 44999, "TXTDSC": null, "RECDAT": null, "RECIND": null, "SORDAT": null, "SORIND": null, "hypcat": null, "_enc_cell": "US4TB3P0" }, "geometry": { "type": "LineString", "coordinates": [ [ 134.524826100000013, 7.3392305 ], [ 134.5249634, 7.3390307 ], [ 134.5251312, 7.3388639 ], [ 134.5252533, 7.338747 ], [ 134.5253754, 7.3386641 ], [ 134.5254974, 7.3385472 ], [ 134.525528, 7.3382945 ], [ 134.5254517, 7.3381581 ], [ 134.525299100000012, 7.3380446 ], [ 134.5251312, 7.3379693 ], [ 134.5249786, 7.3378973 ], [ 134.524597199999988, 7.3377276 ], [ 134.524475099999989, 7.3376112 ] ] } },
{ "type": "Feature", "properties": { "RCID": 5181, "PRIM": 2, "GRUP": 2, "OBJL": 43, "RVER": 1, "AGEN": 550, "FIDN": 208592050, "FIDS": 9, "LNAM": "02260C6EDCB20009", "LNAM_REFS": null, "FFPT_RIND": null, "VALDCO": 2.0, "VERDAT": null, "INFORM": null, "NINFOM": null, "NTXTDS": null, "SCAMAX": null, "SCAMIN": 44999, "TXTDSC": null, "RECDAT": null, "RECIND": null, "SORDAT": null, "SORIND": null, "hypcat": null, "_enc_cell": "US4TB3P0" }, "geometry": { "type": "LineString", "coordinates": [ [ 134.5310974, 7.3393693 ], [ 134.5309906, 7.3392835 ], [ 134.5305023, 7.3390417 ], [ 134.5302582, 7.3389053 ], [ 134.5300751, 7.338789 ], [ 134.529983499999986, 7.338675 ], [ 134.5299225, 7.3383999 ], [ 134.5299225, 7.3382525 ], [ 134.5299683, 7.3380942 ], [ 134.530105600000013, 7.3380113 ], [ 134.530365, 7.3379998 ], [ 134.530578600000013, 7.3380637 ], [ 134.5308075, 7.3381472 ], [ 134.5309906, 7.3382001 ], [ 134.531173700000011, 7.3382416 ], [ 134.5312042, 7.3382502 ] ] } },
{ "type": "Feature", "properties": { "RCID": 4676, "PRIM": 2, "GRUP": 2, "OBJL": 43, "RVER": 1, "AGEN": 550, "FIDN": 100250009, "FIDS": 9, "LNAM": "022605F9B1990009", "LNAM_REFS": null, "FFPT_RIND": null, "VALDCO": 20.0, "VERDAT": null, "INFORM": null, "NINFOM": null, "NTXTDS": null, "SCAMAX": null, "SCAMIN": 44999, "TXTDSC": null, "RECDAT": null, "RECIND": null, "SORDAT": null, "SORIND": null, "hypcat": null, "_enc_cell": "US4TB3P0" }, "geometry": { "type": "LineString", "coordinates": [ [ 134.523742700000014, 7.3306308 ], [ 134.523727400000013, 7.3307805 ], [ 134.5237122, 7.3309641 ], [ 134.523727400000013, 7.3310695 ], [ 134.5236664, 7.3312473 ], [ 134.5235443, 7.3313751 ], [ 134.5234222, 7.3314362 ], [ 134.5232086, 7.3314638 ], [ 134.5229711, 7.3314694 ], [ 134.5229645, 7.3314695 ], [ 134.5227356, 7.3314805 ], [ 134.522399900000011, 7.3314805 ] ] } },
{ "type": "Feature", "properties": { "RCID": 4459, "PRIM": 2, "GRUP": 2, "OBJL": 43, "RVER": 1, "AGEN": 550, "FIDN": 980441861, "FIDS": 9, "LNAM": "02263A705B050009", "LNAM_REFS": null, "FFPT_RIND": null, "VALDCO": 20.0, "VERDAT": null, "INFORM": null, "NINFOM": null, "NTXTDS": null, "SCAMAX": null, "SCAMIN": 44999, "TXTDSC": null, "RECDAT": null, "RECIND": null, "SORDAT": null, "SORIND": null, "hypcat": null, "_enc_cell": "US4TB3P0" }, "geometry": { "type": "LineString", "coordinates": [ [ 134.5223389, 7.3321085 ], [ 134.5224762, 7.3321137 ], [ 134.5227869, 7.3322414 ], [ 134.5231934, 7.3324084 ], [ 134.5234833, 7.3325086 ], [ 134.5236511, 7.3325362 ], [ 134.5236969, 7.3325558 ], [ 134.5237885, 7.3326888 ], [ 134.5239105, 7.3327584 ], [ 134.5240173, 7.3327751 ], [ 134.5241394, 7.3327498 ], [ 134.5241699, 7.3327637 ], [ 134.524581899999987, 7.3327832 ], [ 134.524826100000013, 7.332911 ], [ 134.5249939, 7.3330665 ], [ 134.5252075, 7.3333197 ], [ 134.525238, 7.3334999 ], [ 134.525238, 7.3336363 ], [ 134.5251465, 7.3337832 ], [ 134.525054899999986, 7.3338137 ] ] } },
{ "type": "Feature", "properties": { "RCID": 5173, "PRIM": 2, "GRUP": 2, "OBJL": 43, "RVER": 1, "AGEN": 550, "FIDN": 218779179, "FIDS": 9, "LNAM": "02260D0A4E2B0009", "LNAM_REFS": null, "FFPT_RIND": null, "VALDCO": 5.0, "VERDAT": null, "INFORM": null, "NINFOM": null, "NTXTDS": null, "SCAMAX": null, "SCAMIN": 44999, "TXTDSC": null, "RECDAT": null, "RECIND": null, "SORDAT": null, "SORIND": null, "hypcat": null, "_enc_cell": "US4TB3P0" }, "geometry": { "type": "LineString", "coordinates": [ [ 134.5250092, 7.3345919 ], [ 134.5248413, 7.3344975 ], [ 134.5246277, 7.3344665 ], [ 134.5243835, 7.3344474 ], [ 134.524215700000013, 7.3344359 ], [ 134.5240479, 7.334414 ], [ 134.523941, 7.3343945 ], [ 134.52383420000001, 7.3343306 ], [ 134.5237122, 7.3341832 ], [ 134.5236969, 7.3340139 ], [ 134.5236969, 7.3338585 ], [ 134.52383420000001, 7.3336473 ], [ 134.5240173, 7.3336058 ], [ 134.5242462, 7.3335943 ], [ 134.5244904, 7.3336778 ], [ 134.524581899999987, 7.3337526 ], [ 134.524765, 7.3338585 ], [ 134.52493290000001, 7.3339086 ], [ 134.525161700000012, 7.333961 ] ] } },
{ "type": "Feature", "properties": { "RCID": 3743, "PRIM": 2, "GRUP": 2, "OBJL": 43, "RVER": 1, "AGEN": 550, "FIDN": 170172109, "FIDS": 9, "LNAM": "02260A249ECD0009", "LNAM_REFS": null, "FFPT_RIND": null, "VALDCO": 20.0, "VERDAT": null, "INFORM": null, "NINFOM": null, "NTXTDS": null, "SCAMAX": null, "SCAMIN": 44999, "TXTDSC": null, "RECDAT": null, "RECIND": null, "SORDAT": null, "SORIND": null, "hypcat": null, "_enc_cell": "US4TB3P0" }, "geometry": { "type": "LineString", "coordinates": [ [ 134.5240784, 7.3345614 ], [ 134.523864800000013, 7.3346334 ], [ 134.5234375, 7.3348475 ], [ 134.5231934, 7.3348999 ], [ 134.522934, 7.3348475 ], [ 134.5228119, 7.33465 ], [ 134.5227509, 7.3344889 ], [ 134.522781400000014, 7.3342557 ], [ 134.5229797, 7.3340221 ], [ 134.5231934, 7.33395 ], [ 134.5233917, 7.3339334 ], [ 134.5235748, 7.3338447 ] ] } },
{ "type": "Feature", "properties": { "RCID": 5421, "PRIM": 2, "GRUP": 2, "OBJL": 43, "RVER": 1, "AGEN": 550, "FIDN": 421381132, "FIDS": 9, "LNAM": "0226191DC40C0009", "LNAM_REFS": null, "FFPT_RIND": null, "VALDCO": 30.0, "VERDAT": null, "INFORM": null, "NINFOM": null, "NTXTDS": null, "SCAMAX": null, "SCAMIN": 89999, "TXTDSC": null, "RECDAT": null, "RECIND": null, "SORDAT": null, "SORIND": null, "hypcat": null, "_enc_cell": "US4TB3P0" }, "geometry": { "type": "LineString", "coordinates": [ [ 134.5235291, 7.3349862 ], [ 134.523635899999988, 7.3352222 ], [ 134.5236816, 7.3354807 ] ] } },
{ "type": "Feature", "properties": { "RCID": 5427, "PRIM": 2, "GRUP": 2, "OBJL": 43, "RVER": 1, "AGEN": 550, "FIDN": 228007719, "FIDS": 9, "LNAM": "02260D971F270009", "LNAM_REFS": null, "FFPT_RIND": null, "VALDCO": 20.0, "VERDAT": null, "INFORM": null, "NINFOM": null, "NTXTDS": null, "SCAMAX": null, "SCAMIN": 44999, "TXTDSC": null, "RECDAT": null, "RECIND": null, "SORDAT": null, "SORIND": null, "hypcat": null, "_enc_cell": "US4TB3P0" }, "geometry": { "type": "LineString", "coordinates": [ [ 134.528183, 7.3374391 ], [ 134.528244, 7.3377776 ], [ 134.5284119, 7.3380637 ], [ 134.5286255, 7.3383331 ], [ 134.5288696, 7.3385668 ], [ 134.5296478, 7.3391419 ], [ 134.5299683, 7.3394113 ], [ 134.5302429, 7.3396416 ], [ 134.5305328, 7.339911 ], [ 134.53068540000001, 7.3401084 ], [ 134.5307312, 7.3403611 ], [ 134.5307465, 7.3405585 ] ] } },
{ "type": "Feature", "properties": { "RCID": 4242, "PRIM": 2, "GRUP": 2, "OBJL": 43, "RVER": 1, "AGEN": 550, "FIDN": 625947797, "FIDS": 9, "LNAM": "0226254F34950009", "LNAM_REFS": null, "FFPT_RIND": null, "VALDCO": 10.0, "VERDAT": null, "INFORM": null, "NINFOM": null, "NTXTDS": null, "SCAMAX": null, "SCAMIN": 44999, "TXTDSC": null, "RECDAT": null, "RECIND": null, "SORDAT": null, "SORIND": null, "hypcat": null, "_enc_cell": "US4TB3P0" }, "geometry": { "type": "LineString", "coordinates": [ [ 134.5309753, 7.3404946 ], [ 134.5310211, 7.3402834 ], [ 134.5310211, 7.3400946 ], [ 134.5309906, 7.3398609 ], [ 134.5309296, 7.3396945 ], [ 134.5308075, 7.3395166 ], [ 134.53068540000001, 7.3393889 ], [ 134.530578600000013, 7.339325 ] ] } },
{ "type": "Feature", "properties": { "RCID": 5425, "PRIM": 2, "GRUP": 2, "OBJL": 43, "RVER": 1, "AGEN": 550, "FIDN": 247331830, "FIDS": 9, "LNAM": "02260EBDFBF60009", "LNAM_REFS": null, "FFPT_RIND": null, "VALDCO": 20.0, "VERDAT": null, "INFORM": null, "NINFOM": null, "NTXTDS": null, "SCAMAX": null, "SCAMIN": 44999, "TXTDSC": null, "RECDAT": null, "RECIND": null, "SORDAT": null, "SORIND": null, "hypcat": null, "_enc_cell": "US4TB3P0" }, "geometry": { "type": "LineString", "coordinates": [ [ 134.5259552, 7.3411446 ], [ 134.5258484, 7.340961 ], [ 134.5258179, 7.3408804 ], [ 134.5256958, 7.3408222 ], [ 134.5255737, 7.3407831 ], [ 134.525238, 7.3407307 ], [ 134.525116, 7.3406582 ], [ 134.5251024, 7.3406286 ], [ 134.5250397, 7.3404918 ], [ 134.5250397, 7.3403277 ], [ 134.5251007, 7.3401752 ], [ 134.5252533, 7.3400779 ], [ 134.5254064, 7.340005 ], [ 134.5254517, 7.3399835 ], [ 134.5257111, 7.3399553 ], [ 134.526001, 7.3399415 ], [ 134.526260400000012, 7.3399415 ], [ 134.5265808, 7.3400192 ], [ 134.5267792, 7.3401585 ], [ 134.5268402, 7.3403111 ], [ 134.526855500000011, 7.3404779 ], [ 134.526855500000011, 7.3408113 ], [ 134.526870699999989, 7.3409748 ] ] } },
{ "type": "Feature", "properties": { "RCID": 4682, "PRIM": 2, "GRUP": 2, "OBJL": 43, "RVER": 1, "AGEN": 550, "FIDN": 290650988, "FIDS": 9, "LNAM": "02261152FB6C0009", "LNAM_REFS": null, "FFPT_RIND": null, "VALDCO": 10.0, "VERDAT": null, "INFORM": null, "NINFOM": null, "NTXTDS": null, "SCAMAX": null, "SCAMIN": 44999, "TXTDSC": null, "RECDAT": null, "RECIND": null, "SORDAT": null, "SORIND": null, "hypcat": null, "_enc_cell": "US4TB3P0" }, "geometry": { "type": "LineString", "coordinates": [ [ 134.5268402, 7.3411307 ], [ 134.5267792, 7.3410053 ], [ 134.5265656, 7.3409529 ], [ 134.52636720000001, 7.3409529 ], [ 134.5261841, 7.3410249 ], [ 134.5260773, 7.3411498 ], [ 134.526031499999988, 7.3413277 ], [ 134.526062, 7.3415251 ], [ 134.5261688, 7.3417053 ], [ 134.5263214, 7.341814 ], [ 134.5265808, 7.3418307 ], [ 134.5267639, 7.3417583 ], [ 134.5268402, 7.3415084 ], [ 134.526870699999989, 7.3413277 ], [ 134.5268402, 7.3411307 ] ] } },
{ "type": "Feature", "properties": { "RCID": 4683, "PRIM": 2, "GRUP": 2, "OBJL": 43, "RVER": 1, "AGEN": 550, "FIDN": 336630696, "FIDS": 9, "LNAM": "0226141093A80009", "LNAM_REFS": null, "FFPT_RIND": null, "VALDCO": 10.0, "VERDAT": null, "INFORM": null, "NINFOM": null, "NTXTDS": null, "SCAMAX": null, "SCAMIN": 44999, "TXTDSC": null, "RECDAT": null, "RECIND": null, "SORDAT": null, "SORIND": null, "hypcat": null, "_enc_cell": "US4TB3P0" }, "geometry": { "type": "LineString", "coordinates": [ [ 134.5285797, 7.3415194 ], [ 134.5286255, 7.3415804 ], [ 134.5287933, 7.3417416 ], [ 134.5289612, 7.3418307 ], [ 134.529129, 7.3418832 ], [ 134.5294342, 7.3418665 ], [ 134.5297089, 7.3417778 ], [ 134.5299072, 7.3416696 ], [ 134.530105600000013, 7.3415251 ], [ 134.5302429, 7.3413277 ], [ 134.5303345, 7.3412361 ] ] } }
]
}
