{
"type": "FeatureCollection",
"name": "OBSTRN",
"crs": { "type": "name", "properties": { "name": "urn:ogc:def:crs:OGC:1.3:CRS84" } },
"features": [
{ "type": "Feature", "properties": { "RCID": 693, "PRIM": 3, "GRUP": 2, "OBJL": 86, "RVER": 1, "AGEN": 550, "FIDN": 175547463, "FIDS": 9, "LNAM": "02260A76A4470009", "LNAM_REFS": null, "FFPT_RIND": null, "CATOBS": 6.0, "CONDTN": null, "EXPSOU": null, "HEIGHT": null, "NATCON": null, "NATQUA": null, "NOBJNM": null, "OBJNAM": null, "PRODCT": null, "QUASOU": [ "2" ], "SOUACC": null, "STATUS": null, "TECSOU": null, "VALSOU": null, "VERACC": null, "VERDAT": null, "VERLEN": null, "WATLEV": 3, "NATSUR": [ "9" ], "INFORM": "Numerous Rocks", "NINFOM": null, "NTXTDS": null, "SCAMAX": null, "SCAMIN": null, "TXTDSC": null, "RECDAT": null, "RECIND": null, "SORDAT": "20150206", "SORIND": "US,US,reprt,L-246-2015", "_enc_cell": "US4TB3P0" }, "geometry": { "type": "Polygon", "coordinates": [ [ [ 134.522308399999986, 7.3351584 ], [ 134.52211, 7.3351641 ], [ 134.52191160000001, 7.3352776 ], [ 134.5217896, 7.3354139 ], [ 134.5217285, 7.3356276 ], [ 134.5217438, 7.3358192 ], [ 134.521804800000012, 7.3359613 ], [ 134.5218964, 7.3360529 ], [ 134.5220184, 7.336103 ], [ 134.522171, 7.3361249 ], [ 134.5221889, 7.3361282 ], [ 134.5222626, 7.3361416 ], [ 134.5223846, 7.3361611 ], [ 134.5224915, 7.336103 ], [ 134.5225678, 7.3360195 ], [ 134.522644, 7.3359222 ], [ 134.5226898, 7.335814 ], [ 134.5227051, 7.3357081 ], [ 134.5227051, 7.3355832 ], [ 134.522674599999988, 7.335475 ], [ 134.5226288, 7.3353725 ], [ 134.522552499999989, 7.3352723 ], [ 134.5224457, 7.3351917 ], [ 134.522337099999987, 7.3351653 ], [ 134.522308399999986, 7.3351584 ] ] ] } }
]
}
