{
"type": "FeatureCollection",
"name": "SOUNDG_DATUM_JOINED_R09",
"crs": { "type": "name", "properties": { "name": "urn:ogc:def:crs:OGC:1.3:CRS84" } },
"features": [
{ "type": "Feature", "properties": { "RCID": 8841, "PRIM": 1, "GRUP": 2, "OBJL": 129, "RVER": 1, "AGEN": 550, "FIDN": -2004046809, "FIDS": 19802, "LNAM": "0226888CAC274D5A", "LNAM_REFS": null, "FFPT_RIND": null, "EXPSOU": null, "NOBJNM": null, "OBJNAM": null, "QUASOU": null, "SOUACC": null, "TECSOU": null, "VERDAT": null, "STATUS": null, "INFORM": null, "NINFOM": null, "NTXTDS": null, "SCAMAX": null, "SCAMIN": 29999, "TXTDSC": null, "RECDAT": null, "RECIND": null, "SORDAT": "20150206", "SORIND": "US,US,reprt,L-246-2015", "DEPTH": 21.3, "_enc_cell": "US4TB3P0", "depth_m": 21.3, "_sound_id": 532, "CATZOC": 5, "QUAL_POSACC": null, "QUAL_SOUACC": null, "QUAL_SUREND": "1938", "QUAL_SURSTA": "1915", "QUAL_TECSOU": null, "QUAL_VERDAT": null, "QUAL_INFORM": "Former Japan Chart 481 (Ed. 1940, Rev. 1944), from Japan surveys, Scale 1:25,000", "QUAL_SORDAT": "20150206", "QUAL_SORIND": "US,US,reprt,L-246-2015", "QUAL_ENC_CELL": "US4TB3P0", "zoc_label": "D", "quality_model_weight": 0.22, "sdat_code": 24, "sdat_name": "local datum", "sdat_source": "DSPM_SDAT" }, "geometry": { "type": "Point", "coordinates": [ 134.5236816, 7.3235807, 21.3 ] } },
{ "type": "Feature", "properties": { "RCID": 8841, "PRIM": 1, "GRUP": 2, "OBJL": 129, "RVER": 1, "AGEN": 550, "FIDN": -2004046809, "FIDS": 19802, "LNAM": "0226888CAC274D5A", "LNAM_REFS": null, "FFPT_RIND": null, "EXPSOU": null, "NOBJNM": null, "OBJNAM": null, "QUASOU": null, "SOUACC": null, "TECSOU": null, "VERDAT": null, "STATUS": null, "INFORM": null, "NINFOM": null, "NTXTDS": null, "SCAMAX": null, "SCAMIN": 29999, "TXTDSC": null, "RECDAT": null, "RECIND": null, "SORDAT": "20150206", "SORIND": "US,US,reprt,L-246-2015", "DEPTH": 9.7, "_enc_cell": "US4TB3P0", "depth_m": 9.7, "_sound_id": 501, "CATZOC": 5, "QUAL_POSACC": null, "QUAL_SOUACC": null, "QUAL_SUREND": "1938", "QUAL_SURSTA": "1915", "QUAL_TECSOU": null, "QUAL_VERDAT": null, "QUAL_INFORM": "Former Japan Chart 481 (Ed. 1940, Rev. 1944), from Japan surveys, Scale 1:25,000", "QUAL_SORDAT": "20150206", "QUAL_SORIND": "US,US,reprt,L-246-2015", "QUAL_ENC_CELL": "US4TB3P0", "zoc_label": "D", "quality_model_weight": 0.22, "sdat_code": 24, "sdat_name": "local datum", "sdat_source": "DSPM_SDAT" }, "geometry": { "type": "Point", "coordinates": [ 134.5223846, 7.3238502, 9.7 ] } },
{ "type": "Feature", "properties": { "RCID": 8841, "PRIM": 1, "GRUP": 2, "OBJL": 129, "RVER": 1, "AGEN": 550, "FIDN": -2004046809, "FIDS": 19802, "LNAM": "0226888CAC274D5A", "LNAM_REFS": null, "FFPT_RIND": null, "EXPSOU": null, "NOBJNM": null, "OBJNAM": null, "QUASOU": null, "SOUACC": null, "TECSOU": null, "VERDAT": null, "STATUS": null, "INFORM": null, "NINFOM": null, "NTXTDS": null, "SCAMAX": null, "SCAMIN": 29999, "TXTDSC": null, "RECDAT": null, "RECIND": null, "SORDAT": "20150206", "SORIND": "US,US,reprt,L-246-2015", "DEPTH": 37.0, "_enc_cell": "US4TB3P0", "depth_m": 37.0, "_sound_id": 505, "CATZOC": 5, "QUAL_POSACC": null, "QUAL_SOUACC": null, "QUAL_SUREND": "1938", "QUAL_SURSTA": "1915", "QUAL_TECSOU": null, "QUAL_VERDAT": null, "QUAL_INFORM": "Former Japan Chart 481 (Ed. 1940, Rev. 1944), from Japan surveys, Scale 1:25,000", "QUAL_SORDAT": "20150206", "QUAL_SORIND": "US,US,reprt,L-246-2015", "QUAL_ENC_CELL": "US4TB3P0", "zoc_label": "D", "quality_model_weight": 0.22, "sdat_code": 24, "sdat_name": "local datum", "sdat_source": "DSPM_SDAT" }, "geometry": { "type": "Point", "coordinates": [ 134.522583, 7.3251305, 37.0 ] } },
{ "type": "Feature", "properties": { "RCID": 8841, "PRIM": 1, "GRUP": 2, "OBJL": 129, "RVER": 1, "AGEN": 550, "FIDN": -2004046809, "FIDS": 19802, "LNAM": "0226888CAC274D5A", "LNAM_REFS": null, "FFPT_RIND": null, "EXPSOU": null, "NOBJNM": null, "OBJNAM": null, "QUASOU": null, "SOUACC": null, "TECSOU": null, "VERDAT": null, "STATUS": null, "INFORM": null, "NINFOM": null, "NTXTDS": null, "SCAMAX": null, "SCAMIN": 29999, "TXTDSC": null, "RECDAT": null, "RECIND": null, "SORDAT": "20150206", "SORIND": "US,US,reprt,L-246-2015", "DEPTH": 29.0, "_enc_cell": "US4TB3P0", "depth_m": 29.0, "_sound_id": 517, "CATZOC": 5, "QUAL_POSACC": null, "QUAL_SOUACC": null, "QUAL_SUREND": "1938", "QUAL_SURSTA": "1915", "QUAL_TECSOU": null, "QUAL_VERDAT": null, "QUAL_INFORM": "Former Japan Chart 481 (Ed. 1940, Rev. 1944), from Japan surveys, Scale 1:25,000", "QUAL_SORDAT": "20150206", "QUAL_SORIND": "US,US,reprt,L-246-2015", "QUAL_ENC_CELL": "US4TB3P0", "zoc_label": "D", "quality_model_weight": 0.22, "sdat_code": 24, "sdat_name": "local datum", "sdat_source": "DSPM_SDAT" }, "geometry": { "type": "Point", "coordinates": [ 134.523147599999987, 7.3265777, 29.0 ] } },
{ "type": "Feature", "properties": { "RCID": 8841, "PRIM": 1, "GRUP": 2, "OBJL": 129, "RVER": 1, "AGEN": 550, "FIDN": -2004046809, "FIDS": 19802, "LNAM": "0226888CAC274D5A", "LNAM_REFS": null, "FFPT_RIND": null, "EXPSOU": null, "NOBJNM": null, "OBJNAM": null, "QUASOU": null, "SOUACC": null, "TECSOU": null, "VERDAT": null, "STATUS": null, "INFORM": null, "NINFOM": null, "NTXTDS": null, "SCAMAX": null, "SCAMIN": 29999, "TXTDSC": null, "RECDAT": null, "RECIND": null, "SORDAT": "20150206", "SORIND": "US,US,reprt,L-246-2015", "DEPTH": 2.4, "_enc_cell": "US4TB3P0", "depth_m": 2.4, "_sound_id": 541, "CATZOC": 5, "QUAL_POSACC": null, "QUAL_SOUACC": null, "QUAL_SUREND": "1938", "QUAL_SURSTA": "1915", "QUAL_TECSOU": null, "QUAL_VERDAT": null, "QUAL_INFORM": "Former Japan Chart 481 (Ed. 1940, Rev. 1944), from Japan surveys, Scale 1:25,000", "QUAL_SORDAT": "20150206", "QUAL_SORIND": "US,US,reprt,L-246-2015", "QUAL_ENC_CELL": "US4TB3P0", "zoc_label": "D", "quality_model_weight": 0.22, "sdat_code": 24, "sdat_name": "local datum", "sdat_source": "DSPM_SDAT" }, "geometry": { "type": "Point", "coordinates": [ 134.5240479, 7.3267446, 2.4 ] } },
{ "type": "Feature", "properties": { "RCID": 8841, "PRIM": 1, "GRUP": 2, "OBJL": 129, "RVER": 1, "AGEN": 550, "FIDN": -2004046809, "FIDS": 19802, "LNAM": "0226888CAC274D5A", "LNAM_REFS": null, "FFPT_RIND": null, "EXPSOU": null, "NOBJNM": null, "OBJNAM": null, "QUASOU": null, "SOUACC": null, "TECSOU": null, "VERDAT": null, "STATUS": null, "INFORM": null, "NINFOM": null, "NTXTDS": null, "SCAMAX": null, "SCAMIN": 29999, "TXTDSC": null, "RECDAT": null, "RECIND": null, "SORDAT": "20150206", "SORIND": "US,US,reprt,L-246-2015", "DEPTH": 47.0, "_enc_cell": "US4TB3P0", "depth_m": 47.0, "_sound_id": 494, "CATZOC": 5, "QUAL_POSACC": null, "QUAL_SOUACC": null, "QUAL_SUREND": "1938", "QUAL_SURSTA": "1915", "QUAL_TECSOU": null, "QUAL_VERDAT": null, "QUAL_INFORM": "Former Japan Chart 481 (Ed. 1940, Rev. 1944), from Japan surveys, Scale 1:25,000", "QUAL_SORDAT": "20150206", "QUAL_SORIND": "US,US,reprt,L-246-2015", "QUAL_ENC_CELL": "US4TB3P0", "zoc_label": "D", "quality_model_weight": 0.22, "sdat_code": 24, "sdat_name": "local datum", "sdat_source": "DSPM_SDAT" }, "geometry": { "type": "Point", "coordinates": [ 134.522171, 7.327239, 47.0 ] } },
{ "type": "Feature", "properties": { "RCID": 8841, "PRIM": 1, "GRUP": 2, "OBJL": 129, "RVER": 1, "AGEN": 550, "FIDN": -2004046809, "FIDS": 19802, "LNAM": "0226888CAC274D5A", "LNAM_REFS": null, "FFPT_RIND": null, "EXPSOU": null, "NOBJNM": null, "OBJNAM": null, "QUASOU": null, "SOUACC": null, "TECSOU": null, "VERDAT": null, "STATUS": null, "INFORM": null, "NINFOM": null, "NTXTDS": null, "SCAMAX": null, "SCAMIN": 29999, "TXTDSC": null, "RECDAT": null, "RECIND": null, "SORDAT": "20150206", "SORIND": "US,US,reprt,L-246-2015", "DEPTH": 25.0, "_enc_cell": "US4TB3P0", "depth_m": 25.0, "_sound_id": 474, "CATZOC": 5, "QUAL_POSACC": null, "QUAL_SOUACC": null, "QUAL_SUREND": "1938", "QUAL_SURSTA": "1915", "QUAL_TECSOU": null, "QUAL_VERDAT": null, "QUAL_INFORM": "Former Japan Chart 481 (Ed. 1940, Rev. 1944), from Japan surveys, Scale 1:25,000", "QUAL_SORDAT": "20150206", "QUAL_SORIND": "US,US,reprt,L-246-2015", "QUAL_ENC_CELL": "US4TB3P0", "zoc_label": "D", "quality_model_weight": 0.22, "sdat_code": 24, "sdat_name": "local datum", "sdat_source": "DSPM_SDAT" }, "geometry": { "type": "Point", "coordinates": [ 134.5213623, 7.3284278, 25.0 ] } },
{ "type": "Feature", "properties": { "RCID": 8841, "PRIM": 1, "GRUP": 2, "OBJL": 129, "RVER": 1, "AGEN": 550, "FIDN": -2004046809, "FIDS": 19802, "LNAM": "0226888CAC274D5A", "LNAM_REFS": null, "FFPT_RIND": null, "EXPSOU": null, "NOBJNM": null, "OBJNAM": null, "QUASOU": null, "SOUACC": null, "TECSOU": null, "VERDAT": null, "STATUS": null, "INFORM": null, "NINFOM": null, "NTXTDS": null, "SCAMAX": null, "SCAMIN": 29999, "TXTDSC": null, "RECDAT": null, "RECIND": null, "SORDAT": "20150206", "SORIND": "US,US,reprt,L-246-2015", "DEPTH": 19.4, "_enc_cell": "US4TB3P0", "depth_m": 19.4, "_sound_id": 527, "CATZOC": 5, "QUAL_POSACC": null, "QUAL_SOUACC": null, "QUAL_SUREND": "1938", "QUAL_SURSTA": "1915", "QUAL_TECSOU": null, "QUAL_VERDAT": null, "QUAL_INFORM": "Former Japan Chart 481 (Ed. 1940, Rev. 1944), from Japan surveys, Scale 1:25,000", "QUAL_SORDAT": "20150206", "QUAL_SORIND": "US,US,reprt,L-246-2015", "QUAL_ENC_CELL": "US4TB3P0", "zoc_label": "D", "quality_model_weight": 0.22, "sdat_code": 24, "sdat_name": "local datum", "sdat_source": "DSPM_SDAT" }, "geometry": { "type": "Point", "coordinates": [ 134.523468, 7.3289499, 19.4 ] } },
{ "type": "Feature", "properties": { "RCID": 8841, "PRIM": 1, "GRUP": 2, "OBJL": 129, "RVER": 1, "AGEN": 550, "FIDN": -2004046809, "FIDS": 19802, "LNAM": "0226888CAC274D5A", "LNAM_REFS": null, "FFPT_RIND": null, "EXPSOU": null, "NOBJNM": null, "OBJNAM": null, "QUASOU": null, "SOUACC": null, "TECSOU": null, "VERDAT": null, "STATUS": null, "INFORM": null, "NINFOM": null, "NTXTDS": null, "SCAMAX": null, "SCAMIN": 29999, "TXTDSC": null, "RECDAT": null, "RECIND": null, "SORDAT": "20150206", "SORIND": "US,US,reprt,L-246-2015", "DEPTH": 4.3, "_enc_cell": "US4TB3P0", "depth_m": 4.3, "_sound_id": 503, "CATZOC": 5, "QUAL_POSACC": null, "QUAL_SOUACC": null, "QUAL_SUREND": "1938", "QUAL_SURSTA": "1915", "QUAL_TECSOU": null, "QUAL_VERDAT": null, "QUAL_INFORM": "Former Japan Chart 481 (Ed. 1940, Rev. 1944), from Japan surveys, Scale 1:25,000", "QUAL_SORDAT": "20150206", "QUAL_SORIND": "US,US,reprt,L-246-2015", "QUAL_ENC_CELL": "US4TB3P0", "zoc_label": "D", "quality_model_weight": 0.22, "sdat_code": 24, "sdat_name": "local datum", "sdat_source": "DSPM_SDAT" }, "geometry": { "type": "Point", "coordinates": [ 134.522537199999988, 7.3303027, 4.3 ] } },
{ "type": "Feature", "properties": { "RCID": 8841, "PRIM": 1, "GRUP": 2, "OBJL": 129, "RVER": 1, "AGEN": 550, "FIDN": -2004046809, "FIDS": 19802, "LNAM": "0226888CAC274D5A", "LNAM_REFS": null, "FFPT_RIND": null, "EXPSOU": null, "NOBJNM": null, "OBJNAM": null, "QUASOU": null, "SOUACC": null, "TECSOU": null, "VERDAT": null, "STATUS": null, "INFORM": null, "NINFOM": null, "NTXTDS": null, "SCAMAX": null, "SCAMIN": 29999, "TXTDSC": null, "RECDAT": null, "RECIND": null, "SORDAT": "20150206", "SORIND": "US,US,reprt,L-246-2015", "DEPTH": 26.0, "_enc_cell": "US4TB3P0", "depth_m": 26.0, "_sound_id": 521, "CATZOC": 3, "QUAL_POSACC": null, "QUAL_SOUACC": null, "QUAL_SUREND": "2004", "QUAL_SURSTA": null, "QUAL_TECSOU": null, "QUAL_VERDAT": null, "QUAL_INFORM": "U.S. Navy LIDAR Survey, Archive No. 04HFM01, Scale 1:5,000-1:10,000", "QUAL_SORDAT": "20150206", "QUAL_SORIND": "US,US,reprt,L-246-2015", "QUAL_ENC_CELL": "US4TB3P0", "zoc_label": "B", "quality_model_weight": 0.72, "sdat_code": 24, "sdat_name": "local datum", "sdat_source": "DSPM_SDAT" }, "geometry": { "type": "Point", "coordinates": [ 134.5233002, 7.3309417, 26.0 ] } },
{ "type": "Feature", "properties": { "RCID": 8841, "PRIM": 1, "GRUP": 2, "OBJL": 129, "RVER": 1, "AGEN": 550, "FIDN": -2004046809, "FIDS": 19802, "LNAM": "0226888CAC274D5A", "LNAM_REFS": null, "FFPT_RIND": null, "EXPSOU": null, "NOBJNM": null, "OBJNAM": null, "QUASOU": null, "SOUACC": null, "TECSOU": null, "VERDAT": null, "STATUS": null, "INFORM": null, "NINFOM": null, "NTXTDS": null, "SCAMAX": null, "SCAMIN": 29999, "TXTDSC": null, "RECDAT": null, "RECIND": null, "SORDAT": "20150206", "SORIND": "US,US,reprt,L-246-2015", "DEPTH": 41.0, "_enc_cell": "US4TB3P0", "depth_m": 41.0, "_sound_id": 556, "CATZOC": 5, "QUAL_POSACC": null, "QUAL_SOUACC": null, "QUAL_SUREND": "1938", "QUAL_SURSTA": "1915", "QUAL_TECSOU": null, "QUAL_VERDAT": null, "QUAL_INFORM": "Former Japan Chart 481 (Ed. 1940, Rev. 1944), from Japan surveys, Scale 1:25,000", "QUAL_SORDAT": "20150206", "QUAL_SORIND": "US,US,reprt,L-246-2015", "QUAL_ENC_CELL": "US4TB3P0", "zoc_label": "D", "quality_model_weight": 0.22, "sdat_code": 24, "sdat_name": "local datum", "sdat_source": "DSPM_SDAT" }, "geometry": { "type": "Point", "coordinates": [ 134.5249176, 7.3222919, 41.0 ] } },
{ "type": "Feature", "properties": { "RCID": 8841, "PRIM": 1, "GRUP": 2, "OBJL": 129, "RVER": 1, "AGEN": 550, "FIDN": -2004046809, "FIDS": 19802, "LNAM": "0226888CAC274D5A", "LNAM_REFS": null, "FFPT_RIND": null, "EXPSOU": null, "NOBJNM": null, "OBJNAM": null, "QUASOU": null, "SOUACC": null, "TECSOU": null, "VERDAT": null, "STATUS": null, "INFORM": null, "NINFOM": null, "NTXTDS": null, "SCAMAX": null, "SCAMIN": 29999, "TXTDSC": null, "RECDAT": null, "RECIND": null, "SORDAT": "20150206", "SORIND": "US,US,reprt,L-246-2015", "DEPTH": 9.7, "_enc_cell": "US4TB3P0", "depth_m": 9.7, "_sound_id": 561, "CATZOC": 5, "QUAL_POSACC": null, "QUAL_SOUACC": null, "QUAL_SUREND": "1938", "QUAL_SURSTA": "1915", "QUAL_TECSOU": null, "QUAL_VERDAT": null, "QUAL_INFORM": "Former Japan Chart 481 (Ed. 1940, Rev. 1944), from Japan surveys, Scale 1:25,000", "QUAL_SORDAT": "20150206", "QUAL_SORIND": "US,US,reprt,L-246-2015", "QUAL_ENC_CELL": "US4TB3P0", "zoc_label": "D", "quality_model_weight": 0.22, "sdat_code": 24, "sdat_name": "local datum", "sdat_source": "DSPM_SDAT" }, "geometry": { "type": "Point", "coordinates": [ 134.525238, 7.3234444, 9.7 ] } },
{ "type": "Feature", "properties": { "RCID": 8841, "PRIM": 1, "GRUP": 2, "OBJL": 129, "RVER": 1, "AGEN": 550, "FIDN": -2004046809, "FIDS": 19802, "LNAM": "0226888CAC274D5A", "LNAM_REFS": null, "FFPT_RIND": null, "EXPSOU": null, "NOBJNM": null, "OBJNAM": null, "QUASOU": null, "SOUACC": null, "TECSOU": null, "VERDAT": null, "STATUS": null, "INFORM": null, "NINFOM": null, "NTXTDS": null, "SCAMAX": null, "SCAMIN": 29999, "TXTDSC": null, "RECDAT": null, "RECIND": null, "SORDAT": "20150206", "SORIND": "US,US,reprt,L-246-2015", "DEPTH": 8.4, "_enc_cell": "US4TB3P0", "depth_m": 8.4, "_sound_id": 554, "CATZOC": 5, "QUAL_POSACC": null, "QUAL_SOUACC": null, "QUAL_SUREND": "1938", "QUAL_SURSTA": "1915", "QUAL_TECSOU": null, "QUAL_VERDAT": null, "QUAL_INFORM": "Former Japan Chart 481 (Ed. 1940, Rev. 1944), from Japan surveys, Scale 1:25,000", "QUAL_SORDAT": "20150206", "QUAL_SORIND": "US,US,reprt,L-246-2015", "QUAL_ENC_CELL": "US4TB3P0", "zoc_label": "D", "quality_model_weight": 0.22, "sdat_code": 24, "sdat_name": "local datum", "sdat_source": "DSPM_SDAT" }, "geometry": { "type": "Point", "coordinates": [ 134.5248566, 7.3257613, 8.4 ] } },
{ "type": "Feature", "properties": { "RCID": 8841, "PRIM": 1, "GRUP": 2, "OBJL": 129, "RVER": 1, "AGEN": 550, "FIDN": -2004046809, "FIDS": 19802, "LNAM": "0226888CAC274D5A", "LNAM_REFS": null, "FFPT_RIND": null, "EXPSOU": null, "NOBJNM": null, "OBJNAM": null, "QUASOU": null, "SOUACC": null, "TECSOU": null, "VERDAT": null, "STATUS": null, "INFORM": null, "NINFOM": null, "NTXTDS": null, "SCAMAX": null, "SCAMIN": 29999, "TXTDSC": null, "RECDAT": null, "RECIND": null, "SORDAT": "20150206", "SORIND": "US,US,reprt,L-246-2015", "DEPTH": 16.9, "_enc_cell": "US4TB3P0", "depth_m": 16.9, "_sound_id": 563, "CATZOC": 3, "QUAL_POSACC": null, "QUAL_SOUACC": null, "QUAL_SUREND": "2004", "QUAL_SURSTA": null, "QUAL_TECSOU": null, "QUAL_VERDAT": null, "QUAL_INFORM": "U.S. Navy LIDAR Survey, Archive No. 04HFM01, Scale 1:5,000-1:10,000", "QUAL_SORDAT": "20150206", "QUAL_SORIND": "US,US,reprt,L-246-2015", "QUAL_ENC_CELL": "US4TB3P0", "zoc_label": "B", "quality_model_weight": 0.72, "sdat_code": 24, "sdat_name": "local datum", "sdat_source": "DSPM_SDAT" }, "geometry": { "type": "Point", "coordinates": [ 134.5253449, 7.3324666, 16.9 ] } },
{ "type": "Feature", "properties": { "RCID": 8841, "PRIM": 1, "GRUP": 2, "OBJL": 129, "RVER": 1, "AGEN": 550, "FIDN": -2004046809, "FIDS": 19802, "LNAM": "0226888CAC274D5A", "LNAM_REFS": null, "FFPT_RIND": null, "EXPSOU": null, "NOBJNM": null, "OBJNAM": null, "QUASOU": null, "SOUACC": null, "TECSOU": null, "VERDAT": null, "STATUS": null, "INFORM": null, "NINFOM": null, "NTXTDS": null, "SCAMAX": null, "SCAMIN": 29999, "TXTDSC": null, "RECDAT": null, "RECIND": null, "SORDAT": "20150206", "SORIND": "US,US,reprt,L-246-2015", "DEPTH": 15.8, "_enc_cell": "US4TB3P0", "depth_m": 15.8, "_sound_id": 589, "CATZOC": 5, "QUAL_POSACC": null, "QUAL_SOUACC": null, "QUAL_SUREND": "1938", "QUAL_SURSTA": "1915", "QUAL_TECSOU": null, "QUAL_VERDAT": null, "QUAL_INFORM": "Former Japan Chart 481 (Ed. 1940, Rev. 1944), from Japan surveys, Scale 1:25,000", "QUAL_SORDAT": "20150206", "QUAL_SORIND": "US,US,reprt,L-246-2015", "QUAL_ENC_CELL": "US4TB3P0", "zoc_label": "D", "quality_model_weight": 0.22, "sdat_code": 24, "sdat_name": "local datum", "sdat_source": "DSPM_SDAT" }, "geometry": { "type": "Point", "coordinates": [ 134.5271759, 7.3333168, 15.8 ] } },
{ "type": "Feature", "properties": { "RCID": 8841, "PRIM": 1, "GRUP": 2, "OBJL": 129, "RVER": 1, "AGEN": 550, "FIDN": -2004046809, "FIDS": 19802, "LNAM": "0226888CAC274D5A", "LNAM_REFS": null, "FFPT_RIND": null, "EXPSOU": null, "NOBJNM": null, "OBJNAM": null, "QUASOU": null, "SOUACC": null, "TECSOU": null, "VERDAT": null, "STATUS": null, "INFORM": null, "NINFOM": null, "NTXTDS": null, "SCAMAX": null, "SCAMIN": 29999, "TXTDSC": null, "RECDAT": null, "RECIND": null, "SORDAT": "20150206", "SORIND": "US,US,reprt,L-246-2015", "DEPTH": 20.0, "_enc_cell": "US4TB3P0", "depth_m": 20.0, "_sound_id": 598, "CATZOC": 5, "QUAL_POSACC": null, "QUAL_SOUACC": null, "QUAL_SUREND": "1938", "QUAL_SURSTA": "1915", "QUAL_TECSOU": null, "QUAL_VERDAT": null, "QUAL_INFORM": "Former Japan Chart 481 (Ed. 1940, Rev. 1944), from Japan surveys, Scale 1:25,000", "QUAL_SORDAT": "20150206", "QUAL_SORIND": "US,US,reprt,L-246-2015", "QUAL_ENC_CELL": "US4TB3P0", "zoc_label": "D", "quality_model_weight": 0.22, "sdat_code": 24, "sdat_name": "local datum", "sdat_source": "DSPM_SDAT" }, "geometry": { "type": "Point", "coordinates": [ 134.5282288, 7.335578, 20.0 ] } },
{ "type": "Feature", "properties": { "RCID": 8841, "PRIM": 1, "GRUP": 2, "OBJL": 129, "RVER": 1, "AGEN": 550, "FIDN": -2004046809, "FIDS": 19802, "LNAM": "0226888CAC274D5A", "LNAM_REFS": null, "FFPT_RIND": null, "EXPSOU": null, "NOBJNM": null, "OBJNAM": null, "QUASOU": null, "SOUACC": null, "TECSOU": null, "VERDAT": null, "STATUS": null, "INFORM": null, "NINFOM": null, "NTXTDS": null, "SCAMAX": null, "SCAMIN": 29999, "TXTDSC": null, "RECDAT": null, "RECIND": null, "SORDAT": "20150206", "SORIND": "US,US,reprt,L-246-2015", "DEPTH": 27.0, "_enc_cell": "US4TB3P0", "depth_m": 27.0, "_sound_id": 573, "CATZOC": 3, "QUAL_POSACC": null, "QUAL_SOUACC": null, "QUAL_SUREND": "2004", "QUAL_SURSTA": null, "QUAL_TECSOU": null, "QUAL_VERDAT": null, "QUAL_INFORM": "U.S. Navy LIDAR Survey, Archive No. 04HFM01, Scale 1:5,000-1:10,000", "QUAL_SORDAT": "20150206", "QUAL_SORIND": "US,US,reprt,L-246-2015", "QUAL_ENC_CELL": "US4TB3P0", "zoc_label": "B", "quality_model_weight": 0.72, "sdat_code": 24, "sdat_name": "local datum", "sdat_source": "DSPM_SDAT" }, "geometry": { "type": "Point", "coordinates": [ 134.52589420000001, 7.3374443, 27.0 ] } },
{ "type": "Feature", "properties": { "RCID": 8841, "PRIM": 1, "GRUP": 2, "OBJL": 129, "RVER": 1, "AGEN": 550, "FIDN": -2004046809, "FIDS": 19802, "LNAM": "0226888CAC274D5A", "LNAM_REFS": null, "FFPT_RIND": null, "EXPSOU": null, "NOBJNM": null, "OBJNAM": null, "QUASOU": null, "SOUACC": null, "TECSOU": null, "VERDAT": null, "STATUS": null, "INFORM": null, "NINFOM": null, "NTXTDS": null, "SCAMAX": null, "SCAMIN": 29999, "TXTDSC": null, "RECDAT": null, "RECIND": null, "SORDAT": "20150206", "SORIND": "US,US,reprt,L-246-2015", "DEPTH": 4.6, "_enc_cell": "US4TB3P0", "depth_m": 4.6, "_sound_id": 560, "CATZOC": 3, "QUAL_POSACC": null, "QUAL_SOUACC": null, "QUAL_SUREND": "2004", "QUAL_SURSTA": null, "QUAL_TECSOU": null, "QUAL_VERDAT": null, "QUAL_INFORM": "U.S. Navy LIDAR Survey, Archive No. 04HFM01, Scale 1:5,000-1:10,000", "QUAL_SORDAT": "20150206", "QUAL_SORIND": "US,US,reprt,L-246-2015", "QUAL_ENC_CELL": "US4TB3P0", "zoc_label": "B", "quality_model_weight": 0.72, "sdat_code": 24, "sdat_name": "local datum", "sdat_source": "DSPM_SDAT" }, "geometry": { "type": "Point", "coordinates": [ 134.525085499999989, 7.3383803, 4.6 ] } },
{ "type": "Feature", "properties": { "RCID": 8841, "PRIM": 1, "GRUP": 2, "OBJL": 129, "RVER": 1, "AGEN": 550, "FIDN": -2004046809, "FIDS": 19802, "LNAM": "0226888CAC274D5A", "LNAM_REFS": null, "FFPT_RIND": null, "EXPSOU": null, "NOBJNM": null, "OBJNAM": null, "QUASOU": null, "SOUACC": null, "TECSOU": null, "VERDAT": null, "STATUS": null, "INFORM": null, "NINFOM": null, "NTXTDS": null, "SCAMAX": null, "SCAMIN": 29999, "TXTDSC": null, "RECDAT": null, "RECIND": null, "SORDAT": "20150206", "SORIND": "US,US,reprt,L-246-2015", "DEPTH": 29.0, "_enc_cell": "US4TB3P0", "depth_m": 29.0, "_sound_id": 597, "CATZOC": 5, "QUAL_POSACC": null, "QUAL_SOUACC": null, "QUAL_SUREND": "1938", "QUAL_SURSTA": "1915", "QUAL_TECSOU": null, "QUAL_VERDAT": null, "QUAL_INFORM": "Former Japan Chart 481 (Ed. 1940, Rev. 1944), from Japan surveys, Scale 1:25,000", "QUAL_SORDAT": "20150206", "QUAL_SORIND": "US,US,reprt,L-246-2015", "QUAL_ENC_CELL": "US4TB3P0", "zoc_label": "D", "quality_model_weight": 0.22, "sdat_code": 24, "sdat_name": "local datum", "sdat_source": "DSPM_SDAT" }, "geometry": { "type": "Point", "coordinates": [ 134.5281982, 7.3389554, 29.0 ] } },
{ "type": "Feature", "properties": { "RCID": 8842, "PRIM": 1, "GRUP": 2, "OBJL": 129, "RVER": 1, "AGEN": 550, "FIDN": 199852186, "FIDS": 19802, "LNAM": "02260BE9809A4D5A", "LNAM_REFS": null, "FFPT_RIND": null, "EXPSOU": 3.0, "NOBJNM": null, "OBJNAM": null, "QUASOU": null, "SOUACC": null, "TECSOU": null, "VERDAT": null, "STATUS": null, "INFORM": null, "NINFOM": null, "NTXTDS": null, "SCAMAX": null, "SCAMIN": 29999, "TXTDSC": null, "RECDAT": null, "RECIND": null, "SORDAT": "20150206", "SORIND": "US,US,reprt,L-246-2015", "DEPTH": 32.0, "_enc_cell": "US4TB3P0", "depth_m": 32.0, "_sound_id": 1281, "CATZOC": 5, "QUAL_POSACC": null, "QUAL_SOUACC": null, "QUAL_SUREND": "1938", "QUAL_SURSTA": "1915", "QUAL_TECSOU": null, "QUAL_VERDAT": null, "QUAL_INFORM": "Former Japan Chart 481 (Ed. 1940, Rev. 1944), from Japan surveys, Scale 1:25,000", "QUAL_SORDAT": "20150206", "QUAL_SORIND": "US,US,reprt,L-246-2015", "QUAL_ENC_CELL": "US4TB3P0", "zoc_label": "D", "quality_model_weight": 0.22, "sdat_code": 24, "sdat_name": "local datum", "sdat_source": "DSPM_SDAT" }, "geometry": { "type": "Point", "coordinates": [ 134.5263214, 7.3392668, 32.0 ] } },
{ "type": "Feature", "properties": { "RCID": 8841, "PRIM": 1, "GRUP": 2, "OBJL": 129, "RVER": 1, "AGEN": 550, "FIDN": -2004046809, "FIDS": 19802, "LNAM": "0226888CAC274D5A", "LNAM_REFS": null, "FFPT_RIND": null, "EXPSOU": null, "NOBJNM": null, "OBJNAM": null, "QUASOU": null, "SOUACC": null, "TECSOU": null, "VERDAT": null, "STATUS": null, "INFORM": null, "NINFOM": null, "NTXTDS": null, "SCAMAX": null, "SCAMIN": 29999, "TXTDSC": null, "RECDAT": null, "RECIND": null, "SORDAT": "20150206", "SORIND": "US,US,reprt,L-246-2015", "DEPTH": 12.9, "_enc_cell": "US4TB3P0", "depth_m": 12.9, "_sound_id": 512, "CATZOC": 5, "QUAL_POSACC": null, "QUAL_SOUACC": null, "QUAL_SUREND": "1938", "QUAL_SURSTA": "1915", "QUAL_TECSOU": null, "QUAL_VERDAT": null, "QUAL_INFORM": "Former Japan Chart 481 (Ed. 1940, Rev. 1944), from Japan surveys, Scale 1:25,000", "QUAL_SORDAT": "20150206", "QUAL_SORIND": "US,US,reprt,L-246-2015", "QUAL_ENC_CELL": "US4TB3P0", "zoc_label": "D", "quality_model_weight": 0.22, "sdat_code": 24, "sdat_name": "local datum", "sdat_source": "DSPM_SDAT" }, "geometry": { "type": "Point", "coordinates": [ 134.5228119, 7.3318248, 12.9 ] } },
{ "type": "Feature", "properties": { "RCID": 8841, "PRIM": 1, "GRUP": 2, "OBJL": 129, "RVER": 1, "AGEN": 550, "FIDN": -2004046809, "FIDS": 19802, "LNAM": "0226888CAC274D5A", "LNAM_REFS": null, "FFPT_RIND": null, "EXPSOU": null, "NOBJNM": null, "OBJNAM": null, "QUASOU": null, "SOUACC": null, "TECSOU": null, "VERDAT": null, "STATUS": null, "INFORM": null, "NINFOM": null, "NTXTDS": null, "SCAMAX": null, "SCAMIN": 29999, "TXTDSC": null, "RECDAT": null, "RECIND": null, "SORDAT": "20150206", "SORIND": "US,US,reprt,L-246-2015", "DEPTH": 38.0, "_enc_cell": "US4TB3P0", "depth_m": 38.0, "_sound_id": 487, "CATZOC": 5, "QUAL_POSACC": null, "QUAL_SOUACC": null, "QUAL_SUREND": "1938", "QUAL_SURSTA": "1915", "QUAL_TECSOU": null, "QUAL_VERDAT": null, "QUAL_INFORM": "Former Japan Chart 481 (Ed. 1940, Rev. 1944), from Japan surveys, Scale 1:25,000", "QUAL_SORDAT": "20150206", "QUAL_SORIND": "US,US,reprt,L-246-2015", "QUAL_ENC_CELL": "US4TB3P0", "zoc_label": "D", "quality_model_weight": 0.22, "sdat_code": 24, "sdat_name": "local datum", "sdat_source": "DSPM_SDAT" }, "geometry": { "type": "Point", "coordinates": [ 134.5220184, 7.3330112, 38.0 ] } },
{ "type": "Feature", "properties": { "RCID": 8841, "PRIM": 1, "GRUP": 2, "OBJL": 129, "RVER": 1, "AGEN": 550, "FIDN": -2004046809, "FIDS": 19802, "LNAM": "0226888CAC274D5A", "LNAM_REFS": null, "FFPT_RIND": null, "EXPSOU": null, "NOBJNM": null, "OBJNAM": null, "QUASOU": null, "SOUACC": null, "TECSOU": null, "VERDAT": null, "STATUS": null, "INFORM": null, "NINFOM": null, "NTXTDS": null, "SCAMAX": null, "SCAMIN": 29999, "TXTDSC": null, "RECDAT": null, "RECIND": null, "SORDAT": "20150206", "SORIND": "US,US,reprt,L-246-2015", "DEPTH": 3.3, "_enc_cell": "US4TB3P0", "depth_m": 3.3, "_sound_id": 542, "CATZOC": 3, "QUAL_POSACC": null, "QUAL_SOUACC": null, "QUAL_SUREND": "2004", "QUAL_SURSTA": null, "QUAL_TECSOU": null, "QUAL_VERDAT": null, "QUAL_INFORM": "U.S. Navy LIDAR Survey, Archive No. 04HFM01, Scale 1:5,000-1:10,000", "QUAL_SORDAT": "20150206", "QUAL_SORIND": "US,US,reprt,L-246-2015", "QUAL_ENC_CELL": "US4TB3P0", "zoc_label": "B", "quality_model_weight": 0.72, "sdat_code": 24, "sdat_name": "local datum", "sdat_source": "DSPM_SDAT" }, "geometry": { "type": "Point", "coordinates": [ 134.524108899999987, 7.3340054, 3.3 ] } },
{ "type": "Feature", "properties": { "RCID": 8841, "PRIM": 1, "GRUP": 2, "OBJL": 129, "RVER": 1, "AGEN": 550, "FIDN": -2004046809, "FIDS": 19802, "LNAM": "0226888CAC274D5A", "LNAM_REFS": null, "FFPT_RIND": null, "EXPSOU": null, "NOBJNM": null, "OBJNAM": null, "QUASOU": null, "SOUACC": null, "TECSOU": null, "VERDAT": null, "STATUS": null, "INFORM": null, "NINFOM": null, "NTXTDS": null, "SCAMAX": null, "SCAMIN": 29999, "TXTDSC": null, "RECDAT": null, "RECIND": null, "SORDAT": "20150206", "SORIND": "US,US,reprt,L-246-2015", "DEPTH": 12.1, "_enc_cell": "US4TB3P0", "depth_m": 12.1, "_sound_id": 522, "CATZOC": 3, "QUAL_POSACC": null, "QUAL_SOUACC": null, "QUAL_SUREND": "2004", "QUAL_SURSTA": null, "QUAL_TECSOU": null, "QUAL_VERDAT": null, "QUAL_INFORM": "U.S. Navy LIDAR Survey, Archive No. 04HFM01, Scale 1:5,000-1:10,000", "QUAL_SORDAT": "20150206", "QUAL_SORIND": "US,US,reprt,L-246-2015", "QUAL_ENC_CELL": "US4TB3P0", "zoc_label": "B", "quality_model_weight": 0.72, "sdat_code": 24, "sdat_name": "local datum", "sdat_source": "DSPM_SDAT" }, "geometry": { "type": "Point", "coordinates": [ 134.5233002, 7.334425, 12.1 ] } },
{ "type": "Feature", "properties": { "RCID": 8841, "PRIM": 1, "GRUP": 2, "OBJL": 129, "RVER": 1, "AGEN": 550, "FIDN": -2004046809, "FIDS": 19802, "LNAM": "0226888CAC274D5A", "LNAM_REFS": null, "FFPT_RIND": null, "EXPSOU": null, "NOBJNM": null, "OBJNAM": null, "QUASOU": null, "SOUACC": null, "TECSOU": null, "VERDAT": null, "STATUS": null, "INFORM": null, "NINFOM": null, "NTXTDS": null, "SCAMAX": null, "SCAMIN": 29999, "TXTDSC": null, "RECDAT": null, "RECIND": null, "SORDAT": "20150206", "SORIND": "US,US,reprt,L-246-2015", "DEPTH": 43.0, "_enc_cell": "US4TB3P0", "depth_m": 43.0, "_sound_id": 491, "CATZOC": 5, "QUAL_POSACC": null, "QUAL_SOUACC": null, "QUAL_SUREND": "1938", "QUAL_SURSTA": "1915", "QUAL_TECSOU": null, "QUAL_VERDAT": null, "QUAL_INFORM": "Former Japan Chart 481 (Ed. 1940, Rev. 1944), from Japan surveys, Scale 1:25,000", "QUAL_SORDAT": "20150206", "QUAL_SORIND": "US,US,reprt,L-246-2015", "QUAL_ENC_CELL": "US4TB3P0", "zoc_label": "D", "quality_model_weight": 0.22, "sdat_code": 24, "sdat_name": "local datum", "sdat_source": "DSPM_SDAT" }, "geometry": { "type": "Point", "coordinates": [ 134.5220947, 7.3344555, 43.0 ] } },
{ "type": "Feature", "properties": { "RCID": 8841, "PRIM": 1, "GRUP": 2, "OBJL": 129, "RVER": 1, "AGEN": 550, "FIDN": -2004046809, "FIDS": 19802, "LNAM": "0226888CAC274D5A", "LNAM_REFS": null, "FFPT_RIND": null, "EXPSOU": null, "NOBJNM": null, "OBJNAM": null, "QUASOU": null, "SOUACC": null, "TECSOU": null, "VERDAT": null, "STATUS": null, "INFORM": null, "NINFOM": null, "NTXTDS": null, "SCAMAX": null, "SCAMIN": 29999, "TXTDSC": null, "RECDAT": null, "RECIND": null, "SORDAT": "20150206", "SORIND": "US,US,reprt,L-246-2015", "DEPTH": 8.3, "_enc_cell": "US4TB3P0", "depth_m": 8.3, "_sound_id": 619, "CATZOC": 5, "QUAL_POSACC": null, "QUAL_SOUACC": null, "QUAL_SUREND": "1938", "QUAL_SURSTA": "1915", "QUAL_TECSOU": null, "QUAL_VERDAT": null, "QUAL_INFORM": "Former Japan Chart 481 (Ed. 1940, Rev. 1944), from Japan surveys, Scale 1:25,000", "QUAL_SORDAT": "20150206", "QUAL_SORIND": "US,US,reprt,L-246-2015", "QUAL_ENC_CELL": "US4TB3P0", "zoc_label": "D", "quality_model_weight": 0.22, "sdat_code": 24, "sdat_name": "local datum", "sdat_source": "DSPM_SDAT" }, "geometry": { "type": "Point", "coordinates": [ 134.530578600000013, 7.3330946, 8.3 ] } },
{ "type": "Feature", "properties": { "RCID": 8841, "PRIM": 1, "GRUP": 2, "OBJL": 129, "RVER": 1, "AGEN": 550, "FIDN": -2004046809, "FIDS": 19802, "LNAM": "0226888CAC274D5A", "LNAM_REFS": null, "FFPT_RIND": null, "EXPSOU": null, "NOBJNM": null, "OBJNAM": null, "QUASOU": null, "SOUACC": null, "TECSOU": null, "VERDAT": null, "STATUS": null, "INFORM": null, "NINFOM": null, "NTXTDS": null, "SCAMAX": null, "SCAMIN": 29999, "TXTDSC": null, "RECDAT": null, "RECIND": null, "SORDAT": "20150206", "SORIND": "US,US,reprt,L-246-2015", "DEPTH": 6.5, "_enc_cell": "US4TB3P0", "depth_m": 6.5, "_sound_id": 606, "CATZOC": 5, "QUAL_POSACC": null, "QUAL_SOUACC": null, "QUAL_SUREND": "1938", "QUAL_SURSTA": "1915", "QUAL_TECSOU": null, "QUAL_VERDAT": null, "QUAL_INFORM": "Former Japan Chart 481 (Ed. 1940, Rev. 1944), from Japan surveys, Scale 1:25,000", "QUAL_SORDAT": "20150206", "QUAL_SORIND": "US,US,reprt,L-246-2015", "QUAL_ENC_CELL": "US4TB3P0", "zoc_label": "D", "quality_model_weight": 0.22, "sdat_code": 24, "sdat_name": "local datum", "sdat_source": "DSPM_SDAT" }, "geometry": { "type": "Point", "coordinates": [ 134.529144300000013, 7.3332834, 6.5 ] } },
{ "type": "Feature", "properties": { "RCID": 8841, "PRIM": 1, "GRUP": 2, "OBJL": 129, "RVER": 1, "AGEN": 550, "FIDN": -2004046809, "FIDS": 19802, "LNAM": "0226888CAC274D5A", "LNAM_REFS": null, "FFPT_RIND": null, "EXPSOU": null, "NOBJNM": null, "OBJNAM": null, "QUASOU": null, "SOUACC": null, "TECSOU": null, "VERDAT": null, "STATUS": null, "INFORM": null, "NINFOM": null, "NTXTDS": null, "SCAMAX": null, "SCAMIN": 29999, "TXTDSC": null, "RECDAT": null, "RECIND": null, "SORDAT": "20150206", "SORIND": "US,US,reprt,L-246-2015", "DEPTH": 21.0, "_enc_cell": "US4TB3P0", "depth_m": 21.0, "_sound_id": 605, "CATZOC": 5, "QUAL_POSACC": null, "QUAL_SOUACC": null, "QUAL_SUREND": "1938", "QUAL_SURSTA": "1915", "QUAL_TECSOU": null, "QUAL_VERDAT": null, "QUAL_INFORM": "Former Japan Chart 481 (Ed. 1940, Rev. 1944), from Japan surveys, Scale 1:25,000", "QUAL_SORDAT": "20150206", "QUAL_SORIND": "US,US,reprt,L-246-2015", "QUAL_ENC_CELL": "US4TB3P0", "zoc_label": "D", "quality_model_weight": 0.22, "sdat_code": 24, "sdat_name": "local datum", "sdat_source": "DSPM_SDAT" }, "geometry": { "type": "Point", "coordinates": [ 134.529129, 7.3344555, 21.0 ] } },
{ "type": "Feature", "properties": { "RCID": 8841, "PRIM": 1, "GRUP": 2, "OBJL": 129, "RVER": 1, "AGEN": 550, "FIDN": -2004046809, "FIDS": 19802, "LNAM": "0226888CAC274D5A", "LNAM_REFS": null, "FFPT_RIND": null, "EXPSOU": null, "NOBJNM": null, "OBJNAM": null, "QUASOU": null, "SOUACC": null, "TECSOU": null, "VERDAT": null, "STATUS": null, "INFORM": null, "NINFOM": null, "NTXTDS": null, "SCAMAX": null, "SCAMIN": 29999, "TXTDSC": null, "RECDAT": null, "RECIND": null, "SORDAT": "20150206", "SORIND": "US,US,reprt,L-246-2015", "DEPTH": 19.7, "_enc_cell": "US4TB3P0", "depth_m": 19.7, "_sound_id": 620, "CATZOC": 5, "QUAL_POSACC": null, "QUAL_SOUACC": null, "QUAL_SUREND": "1938", "QUAL_SURSTA": "1915", "QUAL_TECSOU": null, "QUAL_VERDAT": null, "QUAL_INFORM": "Former Japan Chart 481 (Ed. 1940, Rev. 1944), from Japan surveys, Scale 1:25,000", "QUAL_SORDAT": "20150206", "QUAL_SORIND": "US,US,reprt,L-246-2015", "QUAL_ENC_CELL": "US4TB3P0", "zoc_label": "D", "quality_model_weight": 0.22, "sdat_code": 24, "sdat_name": "local datum", "sdat_source": "DSPM_SDAT" }, "geometry": { "type": "Point", "coordinates": [ 134.530578600000013, 7.3345499, 19.7 ] } },
{ "type": "Feature", "properties": { "RCID": 8841, "PRIM": 1, "GRUP": 2, "OBJL": 129, "RVER": 1, "AGEN": 550, "FIDN": -2004046809, "FIDS": 19802, "LNAM": "0226888CAC274D5A", "LNAM_REFS": null, "FFPT_RIND": null, "EXPSOU": null, "NOBJNM": null, "OBJNAM": null, "QUASOU": null, "SOUACC": null, "TECSOU": null, "VERDAT": null, "STATUS": null, "INFORM": null, "NINFOM": null, "NTXTDS": null, "SCAMAX": null, "SCAMIN": 29999, "TXTDSC": null, "RECDAT": null, "RECIND": null, "SORDAT": "20150206", "SORIND": "US,US,reprt,L-246-2015", "DEPTH": 17.7, "_enc_cell": "US4TB3P0", "depth_m": 17.7, "_sound_id": 622, "CATZOC": 5, "QUAL_POSACC": null, "QUAL_SOUACC": null, "QUAL_SUREND": "1938", "QUAL_SURSTA": "1915", "QUAL_TECSOU": null, "QUAL_VERDAT": null, "QUAL_INFORM": "Former Japan Chart 481 (Ed. 1940, Rev. 1944), from Japan surveys, Scale 1:25,000", "QUAL_SORDAT": "20150206", "QUAL_SORIND": "US,US,reprt,L-246-2015", "QUAL_ENC_CELL": "US4TB3P0", "zoc_label": "D", "quality_model_weight": 0.22, "sdat_code": 24, "sdat_name": "local datum", "sdat_source": "DSPM_SDAT" }, "geometry": { "type": "Point", "coordinates": [ 134.531555200000014, 7.3353472, 17.7 ] } },
{ "type": "Feature", "properties": { "RCID": 8841, "PRIM": 1, "GRUP": 2, "OBJL": 129, "RVER": 1, "AGEN": 550, "FIDN": -2004046809, "FIDS": 19802, "LNAM": "0226888CAC274D5A", "LNAM_REFS": null, "FFPT_RIND": null, "EXPSOU": null, "NOBJNM": null, "OBJNAM": null, "QUASOU": null, "SOUACC": null, "TECSOU": null, "VERDAT": null, "STATUS": null, "INFORM": null, "NINFOM": null, "NTXTDS": null, "SCAMAX": null, "SCAMIN": 29999, "TXTDSC": null, "RECDAT": null, "RECIND": null, "SORDAT": "20150206", "SORIND": "US,US,reprt,L-246-2015", "DEPTH": 1.9, "_enc_cell": "US4TB3P0", "depth_m": 1.9, "_sound_id": 638, "CATZOC": 5, "QUAL_POSACC": null, "QUAL_SOUACC": null, "QUAL_SUREND": "1938", "QUAL_SURSTA": "1915", "QUAL_TECSOU": null, "QUAL_VERDAT": null, "QUAL_INFORM": "Former Japan Chart 481 (Ed. 1940, Rev. 1944), from Japan surveys, Scale 1:25,000", "QUAL_SORDAT": "20150206", "QUAL_SORIND": "US,US,reprt,L-246-2015", "QUAL_ENC_CELL": "US4TB3P0", "zoc_label": "D", "quality_model_weight": 0.22, "sdat_code": 24, "sdat_name": "local datum", "sdat_source": "DSPM_SDAT" }, "geometry": { "type": "Point", "coordinates": [ 134.5327759, 7.3355613, 1.9 ] } },
{ "type": "Feature", "properties": { "RCID": 8841, "PRIM": 1, "GRUP": 2, "OBJL": 129, "RVER": 1, "AGEN": 550, "FIDN": -2004046809, "FIDS": 19802, "LNAM": "0226888CAC274D5A", "LNAM_REFS": null, "FFPT_RIND": null, "EXPSOU": null, "NOBJNM": null, "OBJNAM": null, "QUASOU": null, "SOUACC": null, "TECSOU": null, "VERDAT": null, "STATUS": null, "INFORM": null, "NINFOM": null, "NTXTDS": null, "SCAMAX": null, "SCAMIN": 29999, "TXTDSC": null, "RECDAT": null, "RECIND": null, "SORDAT": "20150206", "SORIND": "US,US,reprt,L-246-2015", "DEPTH": 17.7, "_enc_cell": "US4TB3P0", "depth_m": 17.7, "_sound_id": 604, "CATZOC": 5, "QUAL_POSACC": null, "QUAL_SOUACC": null, "QUAL_SUREND": "1938", "QUAL_SURSTA": "1915", "QUAL_TECSOU": null, "QUAL_VERDAT": null, "QUAL_INFORM": "Former Japan Chart 481 (Ed. 1940, Rev. 1944), from Japan surveys, Scale 1:25,000", "QUAL_SORDAT": "20150206", "QUAL_SORIND": "US,US,reprt,L-246-2015", "QUAL_ENC_CELL": "US4TB3P0", "zoc_label": "D", "quality_model_weight": 0.22, "sdat_code": 24, "sdat_name": "local datum", "sdat_source": "DSPM_SDAT" }, "geometry": { "type": "Point", "coordinates": [ 134.528930699999989, 7.3363361, 17.7 ] } },
{ "type": "Feature", "properties": { "RCID": 8841, "PRIM": 1, "GRUP": 2, "OBJL": 129, "RVER": 1, "AGEN": 550, "FIDN": -2004046809, "FIDS": 19802, "LNAM": "0226888CAC274D5A", "LNAM_REFS": null, "FFPT_RIND": null, "EXPSOU": null, "NOBJNM": null, "OBJNAM": null, "QUASOU": null, "SOUACC": null, "TECSOU": null, "VERDAT": null, "STATUS": null, "INFORM": null, "NINFOM": null, "NTXTDS": null, "SCAMAX": null, "SCAMIN": 29999, "TXTDSC": null, "RECDAT": null, "RECIND": null, "SORDAT": "20150206", "SORIND": "US,US,reprt,L-246-2015", "DEPTH": 1.9, "_enc_cell": "US4TB3P0", "depth_m": 1.9, "_sound_id": 630, "CATZOC": 5, "QUAL_POSACC": null, "QUAL_SOUACC": null, "QUAL_SUREND": "1938", "QUAL_SURSTA": "1915", "QUAL_TECSOU": null, "QUAL_VERDAT": null, "QUAL_INFORM": "Former Japan Chart 481 (Ed. 1940, Rev. 1944), from Japan surveys, Scale 1:25,000", "QUAL_SORDAT": "20150206", "QUAL_SORIND": "US,US,reprt,L-246-2015", "QUAL_ENC_CELL": "US4TB3P0", "zoc_label": "D", "quality_model_weight": 0.22, "sdat_code": 24, "sdat_name": "local datum", "sdat_source": "DSPM_SDAT" }, "geometry": { "type": "Point", "coordinates": [ 134.5323486, 7.3364029, 1.9 ] } },
{ "type": "Feature", "properties": { "RCID": 8841, "PRIM": 1, "GRUP": 2, "OBJL": 129, "RVER": 1, "AGEN": 550, "FIDN": -2004046809, "FIDS": 19802, "LNAM": "0226888CAC274D5A", "LNAM_REFS": null, "FFPT_RIND": null, "EXPSOU": null, "NOBJNM": null, "OBJNAM": null, "QUASOU": null, "SOUACC": null, "TECSOU": null, "VERDAT": null, "STATUS": null, "INFORM": null, "NINFOM": null, "NTXTDS": null, "SCAMAX": null, "SCAMIN": 29999, "TXTDSC": null, "RECDAT": null, "RECIND": null, "SORDAT": "20150206", "SORIND": "US,US,reprt,L-246-2015", "DEPTH": 2.4, "_enc_cell": "US4TB3P0", "depth_m": 2.4, "_sound_id": 637, "CATZOC": 5, "QUAL_POSACC": null, "QUAL_SOUACC": null, "QUAL_SUREND": "1938", "QUAL_SURSTA": "1915", "QUAL_TECSOU": null, "QUAL_VERDAT": null, "QUAL_INFORM": "Former Japan Chart 481 (Ed. 1940, Rev. 1944), from Japan surveys, Scale 1:25,000", "QUAL_SORDAT": "20150206", "QUAL_SORIND": "US,US,reprt,L-246-2015", "QUAL_ENC_CELL": "US4TB3P0", "zoc_label": "D", "quality_model_weight": 0.22, "sdat_code": 24, "sdat_name": "local datum", "sdat_source": "DSPM_SDAT" }, "geometry": { "type": "Point", "coordinates": [ 134.532760599999989, 7.3384695, 2.4 ] } },
{ "type": "Feature", "properties": { "RCID": 8841, "PRIM": 1, "GRUP": 2, "OBJL": 129, "RVER": 1, "AGEN": 550, "FIDN": -2004046809, "FIDS": 19802, "LNAM": "0226888CAC274D5A", "LNAM_REFS": null, "FFPT_RIND": null, "EXPSOU": null, "NOBJNM": null, "OBJNAM": null, "QUASOU": null, "SOUACC": null, "TECSOU": null, "VERDAT": null, "STATUS": null, "INFORM": null, "NINFOM": null, "NTXTDS": null, "SCAMAX": null, "SCAMIN": 29999, "TXTDSC": null, "RECDAT": null, "RECIND": null, "SORDAT": "20150206", "SORIND": "US,US,reprt,L-246-2015", "DEPTH": 1.0, "_enc_cell": "US4TB3P0", "depth_m": 1.0, "_sound_id": 617, "CATZOC": 5, "QUAL_POSACC": null, "QUAL_SOUACC": null, "QUAL_SUREND": "1938", "QUAL_SURSTA": "1915", "QUAL_TECSOU": null, "QUAL_VERDAT": null, "QUAL_INFORM": "Former Japan Chart 481 (Ed. 1940, Rev. 1944), from Japan surveys, Scale 1:25,000", "QUAL_SORDAT": "20150206", "QUAL_SORIND": "US,US,reprt,L-246-2015", "QUAL_ENC_CELL": "US4TB3P0", "zoc_label": "D", "quality_model_weight": 0.22, "sdat_code": 24, "sdat_name": "local datum", "sdat_source": "DSPM_SDAT" }, "geometry": { "type": "Point", "coordinates": [ 134.5305176, 7.338511, 1.0 ] } },
{ "type": "Feature", "properties": { "RCID": 8841, "PRIM": 1, "GRUP": 2, "OBJL": 129, "RVER": 1, "AGEN": 550, "FIDN": -2004046809, "FIDS": 19802, "LNAM": "0226888CAC274D5A", "LNAM_REFS": null, "FFPT_RIND": null, "EXPSOU": null, "NOBJNM": null, "OBJNAM": null, "QUASOU": null, "SOUACC": null, "TECSOU": null, "VERDAT": null, "STATUS": null, "INFORM": null, "NINFOM": null, "NTXTDS": null, "SCAMAX": null, "SCAMIN": 29999, "TXTDSC": null, "RECDAT": null, "RECIND": null, "SORDAT": "20150206", "SORIND": "US,US,reprt,L-246-2015", "DEPTH": 12.4, "_enc_cell": "US4TB3P0", "depth_m": 12.4, "_sound_id": 565, "CATZOC": 5, "QUAL_POSACC": null, "QUAL_SOUACC": null, "QUAL_SUREND": "1938", "QUAL_SURSTA": "1915", "QUAL_TECSOU": null, "QUAL_VERDAT": null, "QUAL_INFORM": "Former Japan Chart 481 (Ed. 1940, Rev. 1944), from Japan surveys, Scale 1:25,000", "QUAL_SORDAT": "20150206", "QUAL_SORIND": "US,US,reprt,L-246-2015", "QUAL_ENC_CELL": "US4TB3P0", "zoc_label": "D", "quality_model_weight": 0.22, "sdat_code": 24, "sdat_name": "local datum", "sdat_source": "DSPM_SDAT" }, "geometry": { "type": "Point", "coordinates": [ 134.525543199999987, 7.3404388, 12.4 ] } },
{ "type": "Feature", "properties": { "RCID": 8841, "PRIM": 1, "GRUP": 2, "OBJL": 129, "RVER": 1, "AGEN": 550, "FIDN": -2004046809, "FIDS": 19802, "LNAM": "0226888CAC274D5A", "LNAM_REFS": null, "FFPT_RIND": null, "EXPSOU": null, "NOBJNM": null, "OBJNAM": null, "QUASOU": null, "SOUACC": null, "TECSOU": null, "VERDAT": null, "STATUS": null, "INFORM": null, "NINFOM": null, "NTXTDS": null, "SCAMAX": null, "SCAMIN": 29999, "TXTDSC": null, "RECDAT": null, "RECIND": null, "SORDAT": "20150206", "SORIND": "US,US,reprt,L-246-2015", "DEPTH": 19.6, "_enc_cell": "US4TB3P0", "depth_m": 19.6, "_sound_id": 578, "CATZOC": 5, "QUAL_POSACC": null, "QUAL_SOUACC": null, "QUAL_SUREND": "1938", "QUAL_SURSTA": "1915", "QUAL_TECSOU": null, "QUAL_VERDAT": null, "QUAL_INFORM": "Former Japan Chart 481 (Ed. 1940, Rev. 1944), from Japan surveys, Scale 1:25,000", "QUAL_SORDAT": "20150206", "QUAL_SORIND": "US,US,reprt,L-246-2015", "QUAL_ENC_CELL": "US4TB3P0", "zoc_label": "D", "quality_model_weight": 0.22, "sdat_code": 24, "sdat_name": "local datum", "sdat_source": "DSPM_SDAT" }, "geometry": { "type": "Point", "coordinates": [ 134.5262756, 7.3406, 19.6 ] } },
{ "type": "Feature", "properties": { "RCID": 8841, "PRIM": 1, "GRUP": 2, "OBJL": 129, "RVER": 1, "AGEN": 550, "FIDN": -2004046809, "FIDS": 19802, "LNAM": "0226888CAC274D5A", "LNAM_REFS": null, "FFPT_RIND": null, "EXPSOU": null, "NOBJNM": null, "OBJNAM": null, "QUASOU": null, "SOUACC": null, "TECSOU": null, "VERDAT": null, "STATUS": null, "INFORM": null, "NINFOM": null, "NTXTDS": null, "SCAMAX": null, "SCAMIN": 29999, "TXTDSC": null, "RECDAT": null, "RECIND": null, "SORDAT": "20150206", "SORIND": "US,US,reprt,L-246-2015", "DEPTH": 25.0, "_enc_cell": "US4TB3P0", "depth_m": 25.0, "_sound_id": 593, "CATZOC": 5, "QUAL_POSACC": null, "QUAL_SOUACC": null, "QUAL_SUREND": "1938", "QUAL_SURSTA": "1915", "QUAL_TECSOU": null, "QUAL_VERDAT": null, "QUAL_INFORM": "Former Japan Chart 481 (Ed. 1940, Rev. 1944), from Japan surveys, Scale 1:25,000", "QUAL_SORDAT": "20150206", "QUAL_SORIND": "US,US,reprt,L-246-2015", "QUAL_ENC_CELL": "US4TB3P0", "zoc_label": "D", "quality_model_weight": 0.22, "sdat_code": 24, "sdat_name": "local datum", "sdat_source": "DSPM_SDAT" }, "geometry": { "type": "Point", "coordinates": [ 134.5274506, 7.3406582, 25.0 ] } },
{ "type": "Feature", "properties": { "RCID": 8841, "PRIM": 1, "GRUP": 2, "OBJL": 129, "RVER": 1, "AGEN": 550, "FIDN": -2004046809, "FIDS": 19802, "LNAM": "0226888CAC274D5A", "LNAM_REFS": null, "FFPT_RIND": null, "EXPSOU": null, "NOBJNM": null, "OBJNAM": null, "QUASOU": null, "SOUACC": null, "TECSOU": null, "VERDAT": null, "STATUS": null, "INFORM": null, "NINFOM": null, "NTXTDS": null, "SCAMAX": null, "SCAMIN": 29999, "TXTDSC": null, "RECDAT": null, "RECIND": null, "SORDAT": "20150206", "SORIND": "US,US,reprt,L-246-2015", "DEPTH": 7.4, "_enc_cell": "US4TB3P0", "depth_m": 7.4, "_sound_id": 581, "CATZOC": 5, "QUAL_POSACC": null, "QUAL_SOUACC": null, "QUAL_SUREND": "1938", "QUAL_SURSTA": "1915", "QUAL_TECSOU": null, "QUAL_VERDAT": null, "QUAL_INFORM": "Former Japan Chart 481 (Ed. 1940, Rev. 1944), from Japan surveys, Scale 1:25,000", "QUAL_SORDAT": "20150206", "QUAL_SORIND": "US,US,reprt,L-246-2015", "QUAL_ENC_CELL": "US4TB3P0", "zoc_label": "D", "quality_model_weight": 0.22, "sdat_code": 24, "sdat_name": "local datum", "sdat_source": "DSPM_SDAT" }, "geometry": { "type": "Point", "coordinates": [ 134.526474, 7.3413639, 7.4 ] } },
{ "type": "Feature", "properties": { "RCID": 8841, "PRIM": 1, "GRUP": 2, "OBJL": 129, "RVER": 1, "AGEN": 550, "FIDN": -2004046809, "FIDS": 19802, "LNAM": "0226888CAC274D5A", "LNAM_REFS": null, "FFPT_RIND": null, "EXPSOU": null, "NOBJNM": null, "OBJNAM": null, "QUASOU": null, "SOUACC": null, "TECSOU": null, "VERDAT": null, "STATUS": null, "INFORM": null, "NINFOM": null, "NTXTDS": null, "SCAMAX": null, "SCAMIN": 29999, "TXTDSC": null, "RECDAT": null, "RECIND": null, "SORDAT": "20150206", "SORIND": "US,US,reprt,L-246-2015", "DEPTH": 21.0, "_enc_cell": "US4TB3P0", "depth_m": 21.0, "_sound_id": 562, "CATZOC": 5, "QUAL_POSACC": null, "QUAL_SOUACC": null, "QUAL_SUREND": "1938", "QUAL_SURSTA": "1915", "QUAL_TECSOU": null, "QUAL_VERDAT": null, "QUAL_INFORM": "Former Japan Chart 481 (Ed. 1940, Rev. 1944), from Japan surveys, Scale 1:25,000", "QUAL_SORDAT": "20150206", "QUAL_SORIND": "US,US,reprt,L-246-2015", "QUAL_ENC_CELL": "US4TB3P0", "zoc_label": "D", "quality_model_weight": 0.22, "sdat_code": 24, "sdat_name": "local datum", "sdat_source": "DSPM_SDAT" }, "geometry": { "type": "Point", "coordinates": [ 134.5253143, 7.3416057, 21.0 ] } },
{ "type": "Feature", "properties": { "RCID": 8841, "PRIM": 1, "GRUP": 2, "OBJL": 129, "RVER": 1, "AGEN": 550, "FIDN": -2004046809, "FIDS": 19802, "LNAM": "0226888CAC274D5A", "LNAM_REFS": null, "FFPT_RIND": null, "EXPSOU": null, "NOBJNM": null, "OBJNAM": null, "QUASOU": null, "SOUACC": null, "TECSOU": null, "VERDAT": null, "STATUS": null, "INFORM": null, "NINFOM": null, "NTXTDS": null, "SCAMAX": null, "SCAMIN": 29999, "TXTDSC": null, "RECDAT": null, "RECIND": null, "SORDAT": "20150206", "SORIND": "US,US,reprt,L-246-2015", "DEPTH": 9.7, "_enc_cell": "US4TB3P0", "depth_m": 9.7, "_sound_id": 623, "CATZOC": 5, "QUAL_POSACC": null, "QUAL_SOUACC": null, "QUAL_SUREND": "1938", "QUAL_SURSTA": "1915", "QUAL_TECSOU": null, "QUAL_VERDAT": null, "QUAL_INFORM": "Former Japan Chart 481 (Ed. 1940, Rev. 1944), from Japan surveys, Scale 1:25,000", "QUAL_SORDAT": "20150206", "QUAL_SORIND": "US,US,reprt,L-246-2015", "QUAL_ENC_CELL": "US4TB3P0", "zoc_label": "D", "quality_model_weight": 0.22, "sdat_code": 24, "sdat_name": "local datum", "sdat_source": "DSPM_SDAT" }, "geometry": { "type": "Point", "coordinates": [ 134.531555200000014, 7.3398361, 9.7 ] } },
{ "type": "Feature", "properties": { "RCID": 8841, "PRIM": 1, "GRUP": 2, "OBJL": 129, "RVER": 1, "AGEN": 550, "FIDN": -2004046809, "FIDS": 19802, "LNAM": "0226888CAC274D5A", "LNAM_REFS": null, "FFPT_RIND": null, "EXPSOU": null, "NOBJNM": null, "OBJNAM": null, "QUASOU": null, "SOUACC": null, "TECSOU": null, "VERDAT": null, "STATUS": null, "INFORM": null, "NINFOM": null, "NTXTDS": null, "SCAMAX": null, "SCAMIN": 29999, "TXTDSC": null, "RECDAT": null, "RECIND": null, "SORDAT": "20150206", "SORIND": "US,US,reprt,L-246-2015", "DEPTH": 21.0, "_enc_cell": "US4TB3P0", "depth_m": 21.0, "_sound_id": 614, "CATZOC": 5, "QUAL_POSACC": null, "QUAL_SOUACC": null, "QUAL_SUREND": "1938", "QUAL_SURSTA": "1915", "QUAL_TECSOU": null, "QUAL_VERDAT": null, "QUAL_INFORM": "Former Japan Chart 481 (Ed. 1940, Rev. 1944), from Japan surveys, Scale 1:25,000", "QUAL_SORDAT": "20150206", "QUAL_SORIND": "US,US,reprt,L-246-2015", "QUAL_ENC_CELL": "US4TB3P0", "zoc_label": "D", "quality_model_weight": 0.22, "sdat_code": 24, "sdat_name": "local datum", "sdat_source": "DSPM_SDAT" }, "geometry": { "type": "Point", "coordinates": [ 134.530365, 7.3405914, 21.0 ] } },
{ "type": "Feature", "properties": { "RCID": 8841, "PRIM": 1, "GRUP": 2, "OBJL": 129, "RVER": 1, "AGEN": 550, "FIDN": -2004046809, "FIDS": 19802, "LNAM": "0226888CAC274D5A", "LNAM_REFS": null, "FFPT_RIND": null, "EXPSOU": null, "NOBJNM": null, "OBJNAM": null, "QUASOU": null, "SOUACC": null, "TECSOU": null, "VERDAT": null, "STATUS": null, "INFORM": null, "NINFOM": null, "NTXTDS": null, "SCAMAX": null, "SCAMIN": 29999, "TXTDSC": null, "RECDAT": null, "RECIND": null, "SORDAT": "20150206", "SORIND": "US,US,reprt,L-246-2015", "DEPTH": 9.7, "_enc_cell": "US4TB3P0", "depth_m": 9.7, "_sound_id": 607, "CATZOC": 5, "QUAL_POSACC": null, "QUAL_SOUACC": null, "QUAL_SUREND": "1938", "QUAL_SURSTA": "1915", "QUAL_TECSOU": null, "QUAL_VERDAT": null, "QUAL_INFORM": "Former Japan Chart 481 (Ed. 1940, Rev. 1944), from Japan surveys, Scale 1:25,000", "QUAL_SORDAT": "20150206", "QUAL_SORIND": "US,US,reprt,L-246-2015", "QUAL_ENC_CELL": "US4TB3P0", "zoc_label": "D", "quality_model_weight": 0.22, "sdat_code": 24, "sdat_name": "local datum", "sdat_source": "DSPM_SDAT" }, "geometry": { "type": "Point", "coordinates": [ 134.529419, 7.3429055, 9.7 ] } }
]
}
