{
"type": "FeatureCollection",
"name": "UWTROC",
"crs": { "type": "name", "properties": { "name": "urn:ogc:def:crs:OGC:1.3:CRS84" } },
"features": [
{ "type": "Feature", "properties": { "RCID": 1381, "PRIM": 1, "GRUP": 2, "OBJL": 153, "RVER": 1, "AGEN": 550, "FIDN": 281536250, "FIDS": 9, "LNAM": "022610C7E6FA0009", "LNAM_REFS": null, "FFPT_RIND": null, "EXPSOU": 2.0, "NATSUR": null, "NATQUA": null, "NOBJNM": null, "OBJNAM": null, "QUASOU": null, "SOUACC": null, "STATUS": null, "TECSOU": null, "VALSOU": 1.2, "VERDAT": null, "WATLEV": 3, "INFORM": null, "NINFOM": null, "NTXTDS": null, "SCAMAX": null, "SCAMIN": null, "TXTDSC": null, "RECDAT": null, "RECIND": null, "SORDAT": "20150206", "SORIND": "US,US,reprt,L-246-2015", "_enc_cell": "US4TB3P0" }, "geometry": { "type": "Point", "coordinates": [ 134.5220947, 7.3317471 ] } },
{ "type": "Feature", "properties": { "RCID": 811, "PRIM": 1, "GRUP": 2, "OBJL": 153, "RVER": 1, "AGEN": 550, "FIDN": 410856850, "FIDS": 9, "LNAM": "0226187D2D920009", "LNAM_REFS": null, "FFPT_RIND": null, "EXPSOU": null, "NATSUR": [ "9" ], "NATQUA": null, "NOBJNM": null, "OBJNAM": null, "QUASOU": [ "2" ], "SOUACC": null, "STATUS": null, "TECSOU": null, "VALSOU": null, "VERDAT": null, "WATLEV": 4, "INFORM": null, "NINFOM": null, "NTXTDS": null, "SCAMAX": null, "SCAMIN": 44999.0, "TXTDSC": null, "RECDAT": null, "RECIND": null, "SORDAT": "20150206", "SORIND": "US,US,reprt,L-246-2015", "_enc_cell": "US4TB3P0" }, "geometry": { "type": "Point", "coordinates": [ 134.5224304, 7.3358388 ] } },
{ "type": "Feature", "properties": { "RCID": 985, "PRIM": 1, "GRUP": 2, "OBJL": 153, "RVER": 1, "AGEN": 550, "FIDN": 898983605, "FIDS": 9, "LNAM": "0226359566B50009", "LNAM_REFS": null, "FFPT_RIND": null, "EXPSOU": 2.0, "NATSUR": null, "NATQUA": null, "NOBJNM": null, "OBJNAM": null, "QUASOU": null, "SOUACC": null, "STATUS": null, "TECSOU": null, "VALSOU": 11.7, "VERDAT": null, "WATLEV": 3, "INFORM": null, "NINFOM": null, "NTXTDS": null, "SCAMAX": null, "SCAMIN": null, "TXTDSC": null, "RECDAT": null, "RECIND": null, "SORDAT": "20150206", "SORIND": "US,US,reprt,L-246-2015", "_enc_cell": "US4TB3P0" }, "geometry": { "type": "Point", "coordinates": [ 134.522674599999988, 7.3406887 ] } },
{ "type": "Feature", "properties": { "RCID": 1151, "PRIM": 1, "GRUP": 2, "OBJL": 153, "RVER": 1, "AGEN": 550, "FIDN": 537686699, "FIDS": 9, "LNAM": "0226200C72AB0009", "LNAM_REFS": null, "FFPT_RIND": null, "EXPSOU": 2.0, "NATSUR": null, "NATQUA": null, "NOBJNM": null, "OBJNAM": null, "QUASOU": null, "SOUACC": null, "STATUS": null, "TECSOU": null, "VALSOU": 6.1, "VERDAT": null, "WATLEV": 3, "INFORM": null, "NINFOM": null, "NTXTDS": null, "SCAMAX": null, "SCAMIN": null, "TXTDSC": null, "RECDAT": null, "RECIND": null, "SORDAT": "20150206", "SORIND": "US,US,reprt,L-246-2015", "_enc_cell": "US4TB3P0" }, "geometry": { "type": "Point", "coordinates": [ 134.523513799999989, 7.3409362 ] } }
]
}
