{
  "type": "FeatureCollection",
  "properties": {
    "name": "漓江",
    "source": "OpenStreetMap contributors",
    "license": "ODbL 1.0"
  },
  "features": [
    {
      "type": "Feature",
      "properties": {
        "name": "漓江",
        "osmType": "way",
        "osmId": 33676389,
        "source": "OpenStreetMap contributors via Overpass API"
      },
      "geometry": {
        "type": "LineString",
        "coordinates": [
          [
            110.4176416,
            25.1082972
          ],
          [
            110.4191726,
            25.1045791
          ],
          [
            110.4207122,
            25.1015334
          ],
          [
            110.4256796,
            25.097272
          ],
          [
            110.4295442,
            25.0929795
          ],
          [
            110.4298542,
            25.0904134
          ],
          [
            110.4287406,
            25.083521
          ],
          [
            110.4262837,
            25.0803982
          ],
          [
            110.4256603,
            25.0770736
          ],
          [
            110.4278713,
            25.0725497
          ],
          [
            110.4363299,
            25.0611378
          ],
          [
            110.4449304,
            25.0559367
          ],
          [
            110.4515726,
            25.0516192
          ],
          [
            110.4510918,
            25.0484412
          ],
          [
            110.4486151,
            25.0460922
          ],
          [
            110.4445785,
            25.0424539
          ],
          [
            110.4442071,
            25.0398836
          ],
          [
            110.4472121,
            25.0370612
          ]
        ]
      }
    },
    {
      "type": "Feature",
      "properties": {
        "name": "漓江",
        "osmType": "way",
        "osmId": 49322861,
        "source": "OpenStreetMap contributors via Overpass API"
      },
      "geometry": {
        "type": "LineString",
        "coordinates": [
          [
            110.3329431,
            25.3585125
          ],
          [
            110.3228393,
            25.3526314
          ],
          [
            110.3234576,
            25.3473397
          ],
          [
            110.329437,
            25.3414291
          ],
          [
            110.3315145,
            25.3387457
          ],
          [
            110.3232711,
            25.3278987
          ],
          [
            110.314805,
            25.3110804
          ],
          [
            110.3098584,
            25.3056895
          ],
          [
            110.3021562,
            25.3015977
          ],
          [
            110.2991296,
            25.2983225
          ],
          [
            110.3000308,
            25.2937005
          ],
          [
            110.3012898,
            25.2885921
          ],
          [
            110.2993496,
            25.2824526
          ],
          [
            110.295978,
            25.2760152
          ],
          [
            110.2934752,
            25.2707977
          ],
          [
            110.2935893,
            25.2636387
          ],
          [
            110.2942016,
            25.2611668
          ],
          [
            110.2909327,
            25.256268
          ],
          [
            110.2876637,
            25.2522526
          ],
          [
            110.2905587,
            25.2496839
          ],
          [
            110.2981707,
            25.2472727
          ],
          [
            110.302949,
            25.244025
          ],
          [
            110.3160489,
            25.2311516
          ],
          [
            110.3289845,
            25.2225788
          ],
          [
            110.3324566,
            25.221492
          ],
          [
            110.3366161,
            25.2216701
          ],
          [
            110.3414061,
            25.2178262
          ],
          [
            110.3434611,
            25.2109485
          ],
          [
            110.3479639,
            25.2028021
          ]
        ]
      }
    },
    {
      "type": "Feature",
      "properties": {
        "name": "漓江",
        "osmType": "way",
        "osmId": 52252726,
        "source": "OpenStreetMap contributors via Overpass API"
      },
      "geometry": {
        "type": "LineString",
        "coordinates": [
          [
            110.5202726,
            24.9197105
          ],
          [
            110.5200038,
            24.9189908
          ],
          [
            110.5163566,
            24.9162362
          ],
          [
            110.5139358,
            24.9155173
          ],
          [
            110.5113221,
            24.9141543
          ],
          [
            110.5071456,
            24.9135816
          ],
          [
            110.5049201,
            24.9139733
          ],
          [
            110.5031991,
            24.9130628
          ],
          [
            110.5025973,
            24.9099845
          ],
          [
            110.5019884,
            24.9073365
          ],
          [
            110.5053634,
            24.9035202
          ],
          [
            110.5117376,
            24.9037197
          ],
          [
            110.5160448,
            24.901328
          ],
          [
            110.5134558,
            24.8958524
          ],
          [
            110.5043394,
            24.8918701
          ],
          [
            110.5007503,
            24.8894947
          ],
          [
            110.5007402,
            24.8876776
          ],
          [
            110.4993015,
            24.8853507
          ],
          [
            110.4987928,
            24.8838895
          ],
          [
            110.4989826,
            24.8816319
          ],
          [
            110.4974701,
            24.8764843
          ],
          [
            110.4977349,
            24.8717165
          ],
          [
            110.4995199,
            24.8697763
          ],
          [
            110.5026376,
            24.8669965
          ],
          [
            110.5074155,
            24.8656305
          ],
          [
            110.5099805,
            24.8660678
          ],
          [
            110.5123624,
            24.8650196
          ],
          [
            110.5131403,
            24.8628522
          ],
          [
            110.5136079,
            24.8563052
          ],
          [
            110.512464,
            24.8496215
          ],
          [
            110.5096673,
            24.8448674
          ],
          [
            110.5090418,
            24.842891
          ],
          [
            110.505251,
            24.8389267
          ],
          [
            110.5035273,
            24.8341907
          ],
          [
            110.5053234,
            24.8280482
          ],
          [
            110.5073038,
            24.8211039
          ],
          [
            110.5081379,
            24.8175634
          ],
          [
            110.5073697,
            24.8165309
          ],
          [
            110.5051245,
            24.8157536
          ],
          [
            110.501839,
            24.8179164
          ],
          [
            110.5002746,
            24.8185698
          ],
          [
            110.4989248,
            24.8175736
          ],
          [
            110.49683,
            24.8144356
          ],
          [
            110.496512,
            24.8106987
          ]
        ]
      }
    },
    {
      "type": "Feature",
      "properties": {
        "name": "漓江",
        "osmType": "way",
        "osmId": 71396424,
        "source": "OpenStreetMap contributors via Overpass API"
      },
      "geometry": {
        "type": "LineString",
        "coordinates": [
          [
            110.4945621,
            24.7750812
          ],
          [
            110.4966613,
            24.7712811
          ],
          [
            110.5006504,
            24.7705554
          ],
          [
            110.5033976,
            24.7714636
          ],
          [
            110.5054142,
            24.7722861
          ],
          [
            110.5074665,
            24.773179
          ],
          [
            110.5097818,
            24.7751256
          ],
          [
            110.5110157,
            24.7778746
          ],
          [
            110.5124241,
            24.7811051
          ],
          [
            110.5152578,
            24.7816582
          ],
          [
            110.5239574,
            24.7768378
          ],
          [
            110.5253023,
            24.7743964
          ],
          [
            110.5290922,
            24.7733182
          ],
          [
            110.5338198,
            24.7740529
          ],
          [
            110.5429633,
            24.7775238
          ],
          [
            110.5490484,
            24.7790527
          ],
          [
            110.5558424,
            24.7781901
          ],
          [
            110.5694058,
            24.7694057
          ],
          [
            110.5791973,
            24.7623192
          ],
          [
            110.5797567,
            24.7610091
          ],
          [
            110.5804643,
            24.7592846
          ],
          [
            110.5777039,
            24.7495462
          ],
          [
            110.5816933,
            24.7387177
          ],
          [
            110.5843047,
            24.7338419
          ],
          [
            110.5857075,
            24.7290755
          ],
          [
            110.5862734,
            24.7207418
          ],
          [
            110.5852302,
            24.7189987
          ],
          [
            110.5854608,
            24.7167235
          ],
          [
            110.5877455,
            24.7156639
          ],
          [
            110.5901392,
            24.7126544
          ],
          [
            110.5917287,
            24.7121292
          ],
          [
            110.59368,
            24.7110521
          ],
          [
            110.5958576,
            24.7094291
          ],
          [
            110.5979894,
            24.7033211
          ],
          [
            110.6007039,
            24.6972129
          ],
          [
            110.6009196,
            24.6899146
          ],
          [
            110.5992826,
            24.6817786
          ],
          [
            110.6012132,
            24.6750287
          ],
          [
            110.6095848,
            24.6711904
          ],
          [
            110.6146833,
            24.6677071
          ],
          [
            110.6094132,
            24.6643604
          ],
          [
            110.6057009,
            24.6564289
          ],
          [
            110.6078894,
            24.637499
          ],
          [
            110.6087028,
            24.6362965
          ]
        ]
      }
    },
    {
      "type": "Feature",
      "properties": {
        "name": "漓江",
        "osmType": "way",
        "osmId": 140134360,
        "source": "OpenStreetMap contributors via Overpass API"
      },
      "geometry": {
        "type": "LineString",
        "coordinates": [
          [
            110.45109,
            25.5472028
          ],
          [
            110.4489492,
            25.5407287
          ],
          [
            110.4482869,
            25.5399425
          ],
          [
            110.4462291,
            25.5396749
          ],
          [
            110.4423325,
            25.5399333
          ],
          [
            110.4408767,
            25.5339248
          ],
          [
            110.4378303,
            25.5243405
          ],
          [
            110.4400744,
            25.5175442
          ],
          [
            110.4386034,
            25.5152193
          ],
          [
            110.4362334,
            25.5152928
          ],
          [
            110.433277,
            25.5150538
          ],
          [
            110.4325608,
            25.5099998
          ],
          [
            110.4310004,
            25.501677
          ],
          [
            110.4289348,
            25.497309
          ],
          [
            110.428793,
            25.4910846
          ],
          [
            110.426244,
            25.4889813
          ],
          [
            110.4168115,
            25.4877804
          ],
          [
            110.4096106,
            25.4852215
          ],
          [
            110.3980373,
            25.4753108
          ],
          [
            110.3923012,
            25.4718011
          ],
          [
            110.3918288,
            25.469653
          ],
          [
            110.393276,
            25.4671141
          ],
          [
            110.3947425,
            25.4668631
          ],
          [
            110.4033887,
            25.4696109
          ],
          [
            110.4045925,
            25.4692943
          ],
          [
            110.4057762,
            25.4668744
          ],
          [
            110.4049811,
            25.4655008
          ],
          [
            110.3983932,
            25.4626535
          ],
          [
            110.3975749,
            25.4596556
          ],
          [
            110.3994504,
            25.4538846
          ],
          [
            110.3900443,
            25.436712
          ],
          [
            110.3730675,
            25.4068303
          ],
          [
            110.3606983,
            25.3985042
          ],
          [
            110.3576762,
            25.3955495
          ],
          [
            110.3576897,
            25.3862591
          ],
          [
            110.3611887,
            25.3833536
          ],
          [
            110.3649071,
            25.3805969
          ],
          [
            110.3679621,
            25.3665785
          ],
          [
            110.3673421,
            25.3634167
          ],
          [
            110.3655726,
            25.3625781
          ],
          [
            110.3608821,
            25.3637377
          ],
          [
            110.3552137,
            25.3656296
          ],
          [
            110.3462802,
            25.3650881
          ],
          [
            110.3329431,
            25.3585125
          ]
        ]
      }
    },
    {
      "type": "Feature",
      "properties": {
        "name": "漓江",
        "osmType": "way",
        "osmId": 140134361,
        "source": "OpenStreetMap contributors via Overpass API"
      },
      "geometry": {
        "type": "LineString",
        "coordinates": [
          [
            110.4632719,
            25.5632673
          ],
          [
            110.4585051,
            25.5564241
          ],
          [
            110.4515287,
            25.5482117
          ],
          [
            110.45109,
            25.5472028
          ]
        ]
      }
    },
    {
      "type": "Feature",
      "properties": {
        "name": "漓江",
        "osmType": "way",
        "osmId": 150098985,
        "source": "OpenStreetMap contributors via Overpass API"
      },
      "geometry": {
        "type": "LineString",
        "coordinates": [
          [
            110.5376667,
            24.7761901
          ],
          [
            110.5419533,
            24.7795203
          ],
          [
            110.5486965,
            24.7826326
          ],
          [
            110.5508727,
            24.7818525
          ],
          [
            110.5518681,
            24.7812241
          ],
          [
            110.5521787,
            24.7793723
          ]
        ]
      }
    },
    {
      "type": "Feature",
      "properties": {
        "name": "漓江",
        "osmType": "way",
        "osmId": 150098986,
        "source": "OpenStreetMap contributors via Overpass API"
      },
      "geometry": {
        "type": "LineString",
        "coordinates": [
          [
            110.5823472,
            24.7372329
          ],
          [
            110.5862215,
            24.7353897
          ],
          [
            110.5865905,
            24.733224
          ],
          [
            110.5860413,
            24.7308046
          ]
        ]
      }
    },
    {
      "type": "Feature",
      "properties": {
        "name": "漓江",
        "osmType": "way",
        "osmId": 238015554,
        "source": "OpenStreetMap contributors via Overpass API"
      },
      "geometry": {
        "type": "LineString",
        "coordinates": [
          [
            110.4472121,
            25.0370612
          ],
          [
            110.4519036,
            25.0345675
          ],
          [
            110.4568843,
            25.031957
          ],
          [
            110.4586459,
            25.0277006
          ],
          [
            110.4574927,
            25.0207385
          ],
          [
            110.4558633,
            25.0137792
          ],
          [
            110.4563165,
            25.0078797
          ],
          [
            110.4576328,
            25.0036516
          ],
          [
            110.4554689,
            24.9999658
          ],
          [
            110.4521826,
            24.9963252
          ],
          [
            110.4479386,
            24.9932383
          ],
          [
            110.4431459,
            24.9904452
          ],
          [
            110.4417813,
            24.9878837
          ],
          [
            110.4434428,
            24.983434
          ],
          [
            110.4455503,
            24.9815595
          ],
          [
            110.4482577,
            24.9758025
          ],
          [
            110.4516201,
            24.971601
          ],
          [
            110.4557277,
            24.9662458
          ],
          [
            110.4570414,
            24.9593618
          ],
          [
            110.4572754,
            24.9548212
          ],
          [
            110.4615357,
            24.9494187
          ],
          [
            110.4672353,
            24.947659
          ],
          [
            110.4701233,
            24.948535
          ],
          [
            110.4781612,
            24.9495926
          ],
          [
            110.483566,
            24.9472435
          ],
          [
            110.487175,
            24.9441928
          ],
          [
            110.488,
            24.9404101
          ],
          [
            110.4873309,
            24.9372706
          ],
          [
            110.4850602,
            24.936005
          ],
          [
            110.4828496,
            24.9341401
          ],
          [
            110.482365,
            24.9313542
          ],
          [
            110.4832199,
            24.9300626
          ],
          [
            110.4866267,
            24.9257778
          ],
          [
            110.4902763,
            24.9228819
          ],
          [
            110.495896,
            24.9222806
          ],
          [
            110.5051166,
            24.9235951
          ],
          [
            110.5087899,
            24.9245655
          ],
          [
            110.5098516,
            24.9250698
          ],
          [
            110.5119951,
            24.9260313
          ],
          [
            110.5136638,
            24.9257303
          ],
          [
            110.5161439,
            24.9245013
          ],
          [
            110.5175821,
            24.9231092
          ],
          [
            110.5196242,
            24.9209186
          ],
          [
            110.5202726,
            24.9197105
          ]
        ]
      }
    },
    {
      "type": "Feature",
      "properties": {
        "name": "漓江",
        "osmType": "way",
        "osmId": 258641113,
        "source": "OpenStreetMap contributors via Overpass API"
      },
      "geometry": {
        "type": "LineString",
        "coordinates": [
          [
            110.4486151,
            25.0460922
          ],
          [
            110.4485602,
            25.0441898
          ],
          [
            110.4485505,
            25.0435682
          ],
          [
            110.4481483,
            25.0419937
          ],
          [
            110.4477102,
            25.0396774
          ],
          [
            110.4473706,
            25.0376174
          ],
          [
            110.4472121,
            25.0370612
          ]
        ]
      }
    },
    {
      "type": "Feature",
      "properties": {
        "name": "漓江",
        "osmType": "way",
        "osmId": 258664522,
        "source": "OpenStreetMap contributors via Overpass API"
      },
      "geometry": {
        "type": "LineString",
        "coordinates": [
          [
            110.3479639,
            25.2028021
          ],
          [
            110.356548,
            25.2021245
          ],
          [
            110.3611413,
            25.2029815
          ],
          [
            110.3666214,
            25.2010547
          ],
          [
            110.3733698,
            25.1976764
          ],
          [
            110.3751135,
            25.1949341
          ],
          [
            110.3755502,
            25.1910792
          ],
          [
            110.3769318,
            25.1876769
          ],
          [
            110.3805276,
            25.1836536
          ],
          [
            110.3875914,
            25.1800684
          ],
          [
            110.3923845,
            25.1763096
          ],
          [
            110.3975696,
            25.1735541
          ],
          [
            110.4011797,
            25.1738501
          ],
          [
            110.4054309,
            25.1761541
          ],
          [
            110.4083649,
            25.1812716
          ],
          [
            110.4107737,
            25.1830672
          ],
          [
            110.4162533,
            25.1845903
          ],
          [
            110.4216484,
            25.1828092
          ],
          [
            110.4235844,
            25.1799949
          ],
          [
            110.4245629,
            25.1788394
          ],
          [
            110.4250476,
            25.1752599
          ],
          [
            110.4253436,
            25.1699399
          ],
          [
            110.4275644,
            25.1559966
          ],
          [
            110.4288958,
            25.1497233
          ]
        ]
      }
    },
    {
      "type": "Feature",
      "properties": {
        "name": "漓江",
        "osmType": "way",
        "osmId": 1090693663,
        "source": "OpenStreetMap contributors via Overpass API"
      },
      "geometry": {
        "type": "LineString",
        "coordinates": [
          [
            110.4288958,
            25.1497233
          ],
          [
            110.4313516,
            25.1419715
          ],
          [
            110.4308027,
            25.1314449
          ],
          [
            110.4297137,
            25.1275839
          ],
          [
            110.4239104,
            25.1161535
          ],
          [
            110.4186093,
            25.109906
          ],
          [
            110.4176416,
            25.1082972
          ]
        ]
      }
    },
    {
      "type": "Feature",
      "properties": {
        "name": "漓江",
        "osmType": "way",
        "osmId": 1090693664,
        "source": "OpenStreetMap contributors via Overpass API"
      },
      "geometry": {
        "type": "LineString",
        "coordinates": [
          [
            110.496512,
            24.8106987
          ],
          [
            110.4971568,
            24.8078394
          ],
          [
            110.4989039,
            24.8061114
          ],
          [
            110.5005793,
            24.8064369
          ],
          [
            110.5031141,
            24.8063793
          ],
          [
            110.5047712,
            24.8048628
          ],
          [
            110.5066943,
            24.7993924
          ],
          [
            110.5069605,
            24.7957018
          ],
          [
            110.5035325,
            24.7926125
          ],
          [
            110.4995558,
            24.78931
          ],
          [
            110.49771,
            24.7871896
          ],
          [
            110.4959506,
            24.7842561
          ],
          [
            110.4941953,
            24.7823128
          ],
          [
            110.4935737,
            24.7809128
          ],
          [
            110.4934192,
            24.7788756
          ],
          [
            110.4942255,
            24.7767358
          ],
          [
            110.4945621,
            24.7750812
          ]
        ]
      }
    },
    {
      "type": "Feature",
      "properties": {
        "name": "漓江",
        "osmType": "way",
        "osmId": 1545925824,
        "source": "OpenStreetMap contributors via Overpass API"
      },
      "geometry": {
        "type": "LineString",
        "coordinates": [
          [
            110.479536,
            25.6289436
          ],
          [
            110.4796301,
            25.6285357
          ],
          [
            110.4799896,
            25.6269757
          ],
          [
            110.480969,
            25.6246968
          ],
          [
            110.4827169,
            25.6239517
          ],
          [
            110.4838292,
            25.6235252
          ],
          [
            110.4844061,
            25.62319
          ],
          [
            110.4847068,
            25.6228747
          ],
          [
            110.4849465,
            25.6224946
          ],
          [
            110.4851032,
            25.6220842
          ],
          [
            110.4851803,
            25.6216765
          ],
          [
            110.4851866,
            25.6212471
          ],
          [
            110.4851298,
            25.6206679
          ],
          [
            110.4849893,
            25.6195754
          ],
          [
            110.4848162,
            25.6186093
          ],
          [
            110.4846669,
            25.6180295
          ],
          [
            110.4845958,
            25.6176364
          ],
          [
            110.4845719,
            25.6172343
          ],
          [
            110.48464,
            25.6163882
          ],
          [
            110.4847638,
            25.6152502
          ],
          [
            110.484815,
            25.6143214
          ],
          [
            110.484749,
            25.6121278
          ],
          [
            110.4842984,
            25.6095345
          ],
          [
            110.4835594,
            25.6070125
          ],
          [
            110.482906,
            25.6044332
          ],
          [
            110.4817803,
            25.6018287
          ],
          [
            110.4799266,
            25.5990961
          ],
          [
            110.4780054,
            25.5968152
          ],
          [
            110.4772926,
            25.59602
          ],
          [
            110.4762412,
            25.5950718
          ],
          [
            110.4745416,
            25.5936144
          ],
          [
            110.4720312,
            25.5916964
          ],
          [
            110.4688366,
            25.5897124
          ],
          [
            110.4675001,
            25.5888825
          ],
          [
            110.4671491,
            25.5886019
          ],
          [
            110.4668872,
            25.5882867
          ],
          [
            110.4666592,
            25.5879127
          ],
          [
            110.4664959,
            25.5874383
          ],
          [
            110.4664102,
            25.5868465
          ],
          [
            110.4664222,
            25.5861882
          ],
          [
            110.4666158,
            25.5855835
          ],
          [
            110.4669622,
            25.5849775
          ],
          [
            110.4673905,
            25.5844175
          ],
          [
            110.4678911,
            25.5839865
          ],
          [
            110.4691014,
            25.5831001
          ],
          [
            110.4699546,
            25.5824864
          ],
          [
            110.4702057,
            25.5822554
          ],
          [
            110.4704941,
            25.5818546
          ],
          [
            110.4706183,
            25.5815607
          ],
          [
            110.470619,
            25.5812862
          ],
          [
            110.4705589,
            25.5809081
          ],
          [
            110.4705094,
            25.5803415
          ],
          [
            110.4705761,
            25.5798256
          ],
          [
            110.4708295,
            25.5792651
          ],
          [
            110.4711432,
            25.5787345
          ],
          [
            110.4712314,
            25.578474
          ],
          [
            110.4712482,
            25.578217
          ],
          [
            110.4712195,
            25.577985
          ],
          [
            110.471069,
            25.5776161
          ],
          [
            110.4706475,
            25.5767677
          ],
          [
            110.4700055,
            25.5757275
          ],
          [
            110.4693947,
            25.5749968
          ],
          [
            110.4686925,
            25.5744917
          ],
          [
            110.4674247,
            25.5735293
          ],
          [
            110.4657005,
            25.5717275
          ],
          [
            110.4646497,
            25.5705027
          ],
          [
            110.4644359,
            25.570153
          ],
          [
            110.4642499,
            25.5697579
          ],
          [
            110.4639385,
            25.5689987
          ],
          [
            110.4637312,
            25.5683985
          ],
          [
            110.4636131,
            25.5672554
          ],
          [
            110.4633496,
            25.5641818
          ],
          [
            110.4632719,
            25.5632673
          ]
        ]
      }
    },
    {
      "type": "Feature",
      "properties": {
        "name": "漓江",
        "osmType": "way",
        "osmId": 1545925868,
        "source": "OpenStreetMap contributors via Overpass API"
      },
      "geometry": {
        "type": "LineString",
        "coordinates": [
          [
            110.4835841,
            25.8571294
          ],
          [
            110.4843378,
            25.8542272
          ],
          [
            110.4843264,
            25.8536138
          ],
          [
            110.4841413,
            25.8527993
          ],
          [
            110.4840316,
            25.8522687
          ],
          [
            110.4841633,
            25.8517615
          ],
          [
            110.4846483,
            25.8506376
          ],
          [
            110.484965,
            25.8499453
          ],
          [
            110.4859414,
            25.84919
          ],
          [
            110.4873415,
            25.8483533
          ],
          [
            110.4878685,
            25.8479691
          ],
          [
            110.4880632,
            25.8475248
          ],
          [
            110.4880221,
            25.8471397
          ],
          [
            110.4877712,
            25.8468633
          ],
          [
            110.4873726,
            25.8465885
          ],
          [
            110.4870311,
            25.8462232
          ],
          [
            110.486713,
            25.845779
          ],
          [
            110.4863523,
            25.845368
          ],
          [
            110.4858618,
            25.8451396
          ],
          [
            110.4851104,
            25.8447398
          ],
          [
            110.4846715,
            25.8443029
          ],
          [
            110.4847401,
            25.8438265
          ],
          [
            110.4851109,
            25.8431954
          ],
          [
            110.4857677,
            25.8429338
          ],
          [
            110.4863573,
            25.8427191
          ],
          [
            110.486668,
            25.842334
          ],
          [
            110.4866492,
            25.841742
          ],
          [
            110.4864579,
            25.8409461
          ],
          [
            110.4861207,
            25.8399614
          ],
          [
            110.485787,
            25.839044
          ],
          [
            110.4857193,
            25.838632
          ],
          [
            110.4856977,
            25.8384131
          ],
          [
            110.4856978,
            25.8380074
          ],
          [
            110.4857989,
            25.8373806
          ],
          [
            110.4860567,
            25.8369141
          ],
          [
            110.486516,
            25.8365736
          ],
          [
            110.486936,
            25.8362694
          ],
          [
            110.4868365,
            25.8359155
          ],
          [
            110.4864872,
            25.835539
          ],
          [
            110.4861449,
            25.8349849
          ],
          [
            110.4860344,
            25.834278
          ],
          [
            110.4863823,
            25.8336647
          ],
          [
            110.4871498,
            25.8334088
          ],
          [
            110.4878731,
            25.833538
          ],
          [
            110.488359,
            25.8338846
          ],
          [
            110.488699,
            25.8341128
          ],
          [
            110.4890317,
            25.8341501
          ],
          [
            110.4893519,
            25.833924
          ],
          [
            110.4896887,
            25.8335749
          ],
          [
            110.4902026,
            25.8334175
          ],
          [
            110.4914381,
            25.8332548
          ],
          [
            110.4922746,
            25.8329715
          ],
          [
            110.4923615,
            25.8323155
          ],
          [
            110.4922478,
            25.831052
          ],
          [
            110.4922976,
            25.8304593
          ],
          [
            110.4928028,
            25.8300493
          ],
          [
            110.4936723,
            25.8296517
          ],
          [
            110.4944587,
            25.8295457
          ],
          [
            110.4949846,
            25.8293717
          ],
          [
            110.495222,
            25.8291208
          ],
          [
            110.4949156,
            25.828676
          ],
          [
            110.4936944,
            25.8278353
          ],
          [
            110.4925184,
            25.8271146
          ],
          [
            110.4919055,
            25.8264536
          ],
          [
            110.4919235,
            25.8258846
          ],
          [
            110.4923514,
            25.8255371
          ],
          [
            110.4933632,
            25.824927
          ],
          [
            110.4939816,
            25.82444
          ],
          [
            110.4937952,
            25.8241567
          ],
          [
            110.4930733,
            25.8238126
          ],
          [
            110.4924439,
            25.8236075
          ],
          [
            110.4921236,
            25.8233864
          ],
          [
            110.4921899,
            25.8229987
          ],
          [
            110.492586,
            25.8223832
          ],
          [
            110.4927227,
            25.8219285
          ],
          [
            110.4926509,
            25.8216054
          ],
          [
            110.4923831,
            25.8214277
          ],
          [
            110.4918489,
            25.8214774
          ],
          [
            110.4913285,
            25.8215458
          ],
          [
            110.4908206,
            25.8215036
          ],
          [
            110.4902547,
            25.821214
          ],
          [
            110.4895893,
            25.820555
          ],
          [
            110.4892304,
            25.819889
          ],
          [
            110.4893022,
            25.8192653
          ],
          [
            110.4897605,
            25.8188254
          ],
          [
            110.4904755,
            25.8188648
          ],
          [
            110.4916212,
            25.81945
          ],
          [
            110.4924797,
            25.8197482
          ],
          [
            110.4927834,
            25.8194786
          ],
          [
            110.4927618,
            25.8189506
          ],
          [
            110.4925727,
            25.818364
          ],
          [
            110.4924788,
            25.8179291
          ],
          [
            110.4927176,
            25.8175539
          ],
          [
            110.4933959,
            25.8169351
          ],
          [
            110.4936181,
            25.8165076
          ],
          [
            110.4933834,
            25.8160156
          ],
          [
            110.4929665,
            25.8154217
          ],
          [
            110.4928004,
            25.8149706
          ],
          [
            110.4929592,
            25.8146711
          ],
          [
            110.4940166,
            25.8145642
          ],
          [
            110.4955404,
            25.8145692
          ],
          [
            110.4961694,
            25.8144831
          ],
          [
            110.496364,
            25.8142942
          ],
          [
            110.4962232,
            25.8139413
          ],
          [
            110.4958451,
            25.8134393
          ],
          [
            110.4954526,
            25.8129082
          ],
          [
            110.4954677,
            25.8125628
          ],
          [
            110.496053,
            25.8123913
          ],
          [
            110.4969557,
            25.8122522
          ],
          [
            110.4976372,
            25.811951
          ],
          [
            110.4985772,
            25.8118156
          ],
          [
            110.4993902,
            25.8116292
          ],
          [
            110.4999347,
            25.8109237
          ],
          [
            110.5003892,
            25.809285
          ],
          [
            110.5008072,
            25.8085238
          ],
          [
            110.5010113,
            25.8083326
          ]
        ]
      }
    },
    {
      "type": "Feature",
      "properties": {
        "name": "漓江",
        "osmType": "way",
        "osmId": 1545925875,
        "source": "OpenStreetMap contributors via Overpass API"
      },
      "geometry": {
        "type": "LineString",
        "coordinates": [
          [
            110.4921719,
            25.7257752
          ],
          [
            110.4921581,
            25.7254198
          ],
          [
            110.4920974,
            25.7247724
          ],
          [
            110.4919788,
            25.7242957
          ],
          [
            110.4920919,
            25.7238533
          ],
          [
            110.4929002,
            25.7229536
          ],
          [
            110.493983,
            25.7218117
          ],
          [
            110.4941568,
            25.7212665
          ],
          [
            110.4939816,
            25.7208776
          ],
          [
            110.4935651,
            25.7206464
          ],
          [
            110.4926271,
            25.7206191
          ],
          [
            110.4907729,
            25.7207608
          ],
          [
            110.4893508,
            25.7206365
          ],
          [
            110.4884073,
            25.7202513
          ],
          [
            110.4878101,
            25.7195939
          ],
          [
            110.4874059,
            25.7186109
          ],
          [
            110.4869535,
            25.7175546
          ],
          [
            110.4869645,
            25.7164834
          ],
          [
            110.4873383,
            25.7155278
          ],
          [
            110.4873333,
            25.7149197
          ],
          [
            110.4869912,
            25.7146128
          ],
          [
            110.4862381,
            25.7143568
          ],
          [
            110.4853429,
            25.7140262
          ],
          [
            110.4849047,
            25.713626
          ],
          [
            110.4847916,
            25.7132432
          ],
          [
            110.4852247,
            25.7128928
          ],
          [
            110.486273,
            25.7126032
          ],
          [
            110.4877043,
            25.7124023
          ],
          [
            110.4886077,
            25.7121016
          ],
          [
            110.4890077,
            25.711699
          ],
          [
            110.4890781,
            25.7112466
          ],
          [
            110.4890068,
            25.7108162
          ],
          [
            110.4887586,
            25.7103526
          ],
          [
            110.4880662,
            25.7098605
          ],
          [
            110.4870993,
            25.7094342
          ],
          [
            110.4864115,
            25.7092515
          ],
          [
            110.485668,
            25.7093211
          ],
          [
            110.4839714,
            25.709766
          ],
          [
            110.4815665,
            25.7105321
          ],
          [
            110.4796325,
            25.711427
          ],
          [
            110.477049,
            25.7127161
          ],
          [
            110.4753301,
            25.7134908
          ],
          [
            110.4747445,
            25.713382
          ],
          [
            110.4742086,
            25.7127069
          ],
          [
            110.474093,
            25.7122271
          ],
          [
            110.4743794,
            25.7117366
          ],
          [
            110.4749253,
            25.7111933
          ],
          [
            110.4756303,
            25.710734
          ],
          [
            110.4772868,
            25.7097091
          ],
          [
            110.4784253,
            25.708659
          ],
          [
            110.4786112,
            25.7078302
          ],
          [
            110.4784226,
            25.7068527
          ],
          [
            110.4769092,
            25.7041136
          ],
          [
            110.475677,
            25.701626
          ],
          [
            110.4753262,
            25.7000142
          ],
          [
            110.4753132,
            25.6983149
          ],
          [
            110.4756255,
            25.6967481
          ],
          [
            110.4761178,
            25.6946957
          ],
          [
            110.4767132,
            25.692132
          ],
          [
            110.4773525,
            25.6895942
          ],
          [
            110.4776941,
            25.68666
          ],
          [
            110.4777935,
            25.68478
          ],
          [
            110.4777563,
            25.6838959
          ],
          [
            110.4777137,
            25.682421
          ],
          [
            110.4778412,
            25.6806406
          ],
          [
            110.4780056,
            25.6794593
          ],
          [
            110.4786121,
            25.6784133
          ],
          [
            110.4803205,
            25.6760799
          ],
          [
            110.4809653,
            25.6750375
          ],
          [
            110.4810728,
            25.6745659
          ],
          [
            110.4810674,
            25.6741111
          ],
          [
            110.4809473,
            25.673589
          ],
          [
            110.4806116,
            25.6725506
          ],
          [
            110.4803638,
            25.671777
          ],
          [
            110.4802904,
            25.6712133
          ],
          [
            110.4803339,
            25.6699191
          ],
          [
            110.481105,
            25.6680021
          ],
          [
            110.4816834,
            25.6667132
          ],
          [
            110.4817661,
            25.6662128
          ],
          [
            110.4817677,
            25.66563
          ],
          [
            110.4817775,
            25.6652657
          ],
          [
            110.4815324,
            25.6644633
          ],
          [
            110.4809523,
            25.6631973
          ],
          [
            110.4801835,
            25.6620061
          ],
          [
            110.479444,
            25.660113
          ],
          [
            110.4788977,
            25.6582847
          ],
          [
            110.4785111,
            25.6566073
          ],
          [
            110.4780405,
            25.6544363
          ],
          [
            110.477173,
            25.6521952
          ],
          [
            110.4762784,
            25.6496638
          ],
          [
            110.4756804,
            25.6473435
          ],
          [
            110.4756183,
            25.6462808
          ],
          [
            110.4761377,
            25.6448196
          ],
          [
            110.4765853,
            25.6436866
          ],
          [
            110.4768709,
            25.6427672
          ],
          [
            110.4773774,
            25.6410821
          ],
          [
            110.4774333,
            25.6401237
          ],
          [
            110.4773341,
            25.6396332
          ],
          [
            110.47701,
            25.6388767
          ],
          [
            110.4761027,
            25.637025
          ],
          [
            110.4758255,
            25.6352437
          ],
          [
            110.4760459,
            25.6336488
          ],
          [
            110.4765033,
            25.6323668
          ],
          [
            110.4769736,
            25.6316397
          ],
          [
            110.4773979,
            25.6310336
          ],
          [
            110.4779711,
            25.6303966
          ],
          [
            110.4787041,
            25.629716
          ],
          [
            110.479536,
            25.6289436
          ]
        ]
      }
    },
    {
      "type": "Feature",
      "properties": {
        "name": "漓江",
        "osmType": "way",
        "osmId": 1545925876,
        "source": "OpenStreetMap contributors via Overpass API"
      },
      "geometry": {
        "type": "LineString",
        "coordinates": [
          [
            110.5010113,
            25.8083326
          ],
          [
            110.501232,
            25.8079302
          ],
          [
            110.501278,
            25.8076049
          ],
          [
            110.5011331,
            25.8072498
          ],
          [
            110.5007239,
            25.8069848
          ],
          [
            110.5000825,
            25.8068681
          ],
          [
            110.499128,
            25.8068954
          ],
          [
            110.4979514,
            25.807063
          ],
          [
            110.4968286,
            25.8073706
          ],
          [
            110.4958176,
            25.8077804
          ],
          [
            110.4952134,
            25.8082075
          ],
          [
            110.4949817,
            25.8085726
          ],
          [
            110.4947541,
            25.8087986
          ],
          [
            110.4944437,
            25.8089029
          ],
          [
            110.4939582,
            25.8088135
          ],
          [
            110.4932381,
            25.8086707
          ],
          [
            110.4923314,
            25.808775
          ],
          [
            110.4918431,
            25.808744
          ],
          [
            110.4916335,
            25.8085751
          ],
          [
            110.4916252,
            25.8082535
          ],
          [
            110.491839,
            25.8077435
          ],
          [
            110.4919176,
            25.8073698
          ],
          [
            110.4916914,
            25.8069476
          ],
          [
            110.4912997,
            25.8064149
          ],
          [
            110.4911793,
            25.8058167
          ],
          [
            110.4916069,
            25.8047214
          ],
          [
            110.4920896,
            25.8037205
          ],
          [
            110.4924745,
            25.8030959
          ],
          [
            110.4929756,
            25.8027432
          ],
          [
            110.4935094,
            25.8025582
          ],
          [
            110.4939067,
            25.802208
          ],
          [
            110.4940226,
            25.8015858
          ],
          [
            110.4937968,
            25.8008366
          ],
          [
            110.4937347,
            25.8002442
          ],
          [
            110.4936271,
            25.7997598
          ],
          [
            110.4932133,
            25.7992792
          ],
          [
            110.4923678,
            25.7987448
          ],
          [
            110.4918919,
            25.7985884
          ],
          [
            110.4914036,
            25.7991273
          ],
          [
            110.4908257,
            25.7999855
          ],
          [
            110.490467,
            25.8002111
          ],
          [
            110.490096,
            25.8002012
          ],
          [
            110.4897981,
            25.7997665
          ],
          [
            110.4896891,
            25.7990139
          ],
          [
            110.4898808,
            25.7983698
          ],
          [
            110.4903636,
            25.7976023
          ],
          [
            110.4907029,
            25.7969118
          ],
          [
            110.4906973,
            25.7963616
          ],
          [
            110.4903875,
            25.7958459
          ],
          [
            110.489844,
            25.7953702
          ],
          [
            110.4892509,
            25.7950722
          ],
          [
            110.4887736,
            25.7948822
          ],
          [
            110.4885299,
            25.7945286
          ],
          [
            110.488243,
            25.7940405
          ],
          [
            110.4879589,
            25.7937424
          ],
          [
            110.4875244,
            25.7938381
          ],
          [
            110.4866499,
            25.7943224
          ],
          [
            110.4860499,
            25.7945522
          ],
          [
            110.4856112,
            25.7944752
          ],
          [
            110.4853023,
            25.7941001
          ],
          [
            110.4853197,
            25.793391
          ],
          [
            110.4859791,
            25.7922521
          ],
          [
            110.4867708,
            25.7913778
          ],
          [
            110.4877198,
            25.7909667
          ],
          [
            110.4892344,
            25.7906707
          ],
          [
            110.4899433,
            25.7902261
          ],
          [
            110.4900316,
            25.7894734
          ],
          [
            110.4899447,
            25.7886475
          ],
          [
            110.490227,
            25.7882782
          ],
          [
            110.4911167,
            25.7879367
          ],
          [
            110.491707,
            25.7875914
          ],
          [
            110.4917043,
            25.7872288
          ],
          [
            110.4914275,
            25.786799
          ],
          [
            110.4906385,
            25.7863544
          ],
          [
            110.4897282,
            25.786173
          ],
          [
            110.488953,
            25.7862637
          ],
          [
            110.488363,
            25.7863809
          ],
          [
            110.4876913,
            25.7865796
          ],
          [
            110.4871423,
            25.786915
          ],
          [
            110.4867574,
            25.7873174
          ],
          [
            110.4863399,
            25.7876101
          ],
          [
            110.4856324,
            25.7878597
          ],
          [
            110.4849951,
            25.7879417
          ],
          [
            110.4846089,
            25.7877778
          ],
          [
            110.4844843,
            25.7873103
          ],
          [
            110.4849463,
            25.7862931
          ],
          [
            110.4856029,
            25.7854709
          ],
          [
            110.4861906,
            25.7850089
          ],
          [
            110.4866398,
            25.7844624
          ],
          [
            110.4870825,
            25.7838663
          ],
          [
            110.4875157,
            25.7834489
          ],
          [
            110.4878619,
            25.7831993
          ],
          [
            110.4880518,
            25.782854
          ],
          [
            110.4885262,
            25.7822913
          ],
          [
            110.4896407,
            25.7810865
          ],
          [
            110.4911705,
            25.7795228
          ],
          [
            110.4923586,
            25.7785262
          ],
          [
            110.493102,
            25.7777636
          ],
          [
            110.4935241,
            25.776986
          ],
          [
            110.4936827,
            25.7762892
          ],
          [
            110.4935581,
            25.7760155
          ],
          [
            110.4931664,
            25.7758143
          ],
          [
            110.4926174,
            25.7757075
          ],
          [
            110.491914,
            25.7757547
          ],
          [
            110.4909925,
            25.7759368
          ],
          [
            110.4901235,
            25.7757902
          ],
          [
            110.4893649,
            25.7753456
          ],
          [
            110.4887139,
            25.774799
          ],
          [
            110.4881069,
            25.77445
          ],
          [
            110.4872738,
            25.7743246
          ],
          [
            110.4861179,
            25.7739942
          ],
          [
            110.4849068,
            25.7735222
          ],
          [
            110.4841546,
            25.7734356
          ],
          [
            110.4833076,
            25.7735114
          ],
          [
            110.4826428,
            25.7735834
          ],
          [
            110.482229,
            25.7735225
          ],
          [
            110.4818515,
            25.7732041
          ],
          [
            110.4815329,
            25.7726253
          ],
          [
            110.4813784,
            25.7720166
          ],
          [
            110.4814653,
            25.771444
          ],
          [
            110.4817807,
            25.7708242
          ],
          [
            110.4818676,
            25.7702702
          ],
          [
            110.4820221,
            25.7696118
          ],
          [
            110.4822925,
            25.7688615
          ],
          [
            110.4824092,
            25.7682214
          ],
          [
            110.4823403,
            25.7676276
          ],
          [
            110.482252,
            25.7671282
          ],
          [
            110.4823181,
            25.7665332
          ],
          [
            110.4827446,
            25.7652765
          ]
        ]
      }
    },
    {
      "type": "Feature",
      "properties": {
        "name": "漓江",
        "osmType": "way",
        "osmId": 1545925877,
        "source": "OpenStreetMap contributors via Overpass API"
      },
      "geometry": {
        "type": "LineString",
        "coordinates": [
          [
            110.4827446,
            25.7652765
          ],
          [
            110.4831771,
            25.7643878
          ],
          [
            110.4834729,
            25.7634357
          ],
          [
            110.4838219,
            25.762104
          ],
          [
            110.4842431,
            25.7607363
          ],
          [
            110.4842859,
            25.7594977
          ],
          [
            110.4838721,
            25.7586132
          ],
          [
            110.4831024,
            25.7579399
          ],
          [
            110.4822761,
            25.757069
          ],
          [
            110.4819823,
            25.7565485
          ],
          [
            110.482021,
            25.755992
          ],
          [
            110.4820596,
            25.755131
          ],
          [
            110.48174,
            25.7539185
          ],
          [
            110.48122,
            25.7525283
          ],
          [
            110.4810352,
            25.7512288
          ],
          [
            110.4812683,
            25.7502684
          ],
          [
            110.4816117,
            25.7498178
          ],
          [
            110.4823456,
            25.7492973
          ],
          [
            110.4833249,
            25.7488078
          ],
          [
            110.4845069,
            25.7483953
          ],
          [
            110.4859131,
            25.7479329
          ],
          [
            110.487003,
            25.7471765
          ],
          [
            110.4878166,
            25.7462223
          ],
          [
            110.488348,
            25.7451579
          ],
          [
            110.4884849,
            25.7439896
          ],
          [
            110.4883472,
            25.7424527
          ],
          [
            110.4882327,
            25.7410649
          ],
          [
            110.4880975,
            25.7400101
          ],
          [
            110.4876382,
            25.7391424
          ],
          [
            110.4873085,
            25.7387547
          ],
          [
            110.4869168,
            25.7384192
          ],
          [
            110.4864837,
            25.7379247
          ],
          [
            110.4863085,
            25.7373506
          ],
          [
            110.4864009,
            25.7369232
          ],
          [
            110.4867926,
            25.7365728
          ],
          [
            110.4875513,
            25.7363119
          ],
          [
            110.4887522,
            25.7362767
          ],
          [
            110.4901896,
            25.7365339
          ],
          [
            110.4912655,
            25.7365016
          ],
          [
            110.4917469,
            25.7360083
          ],
          [
            110.4917754,
            25.7353406
          ],
          [
            110.4916278,
            25.7347654
          ],
          [
            110.4913547,
            25.7342609
          ],
          [
            110.4908926,
            25.733785
          ],
          [
            110.4901615,
            25.733266
          ],
          [
            110.489567,
            25.7323763
          ],
          [
            110.4888938,
            25.7313947
          ],
          [
            110.4882718,
            25.7306094
          ],
          [
            110.4881863,
            25.7302027
          ],
          [
            110.488309,
            25.7296932
          ],
          [
            110.4886332,
            25.7292061
          ],
          [
            110.489158,
            25.7287985
          ],
          [
            110.4898272,
            25.7284369
          ],
          [
            110.4905362,
            25.7284431
          ],
          [
            110.4911045,
            25.7282742
          ],
          [
            110.4915183,
            25.7276939
          ],
          [
            110.491896,
            25.7268665
          ],
          [
            110.4921013,
            25.7261243
          ],
          [
            110.4921719,
            25.7257752
          ]
        ]
      }
    }
  ]
}
