{
  "features": [
    {
      "geometry": {
        "coordinates": [
          120.285214,
          28.1427524
        ],
        "type": "Point"
      },
      "id": "qingtian",
      "properties": {
        "display_label": "青田",
        "edge_clamped": false,
        "manual_coordinate": false,
        "matched_tag_keys": [
          "name",
          "name:zh",
          "name:en"
        ],
        "score": 233,
        "source_element_id": 694036638,
        "source_element_type": "node",
        "source_name": "青田县",
        "tags": {
          "capital": "6",
          "name": "青田县",
          "name:ca": "Qingtian",
          "name:cs": "Čching-tchien",
          "name:de": "Qingtian",
          "name:en": "Qingtian",
          "name:es": "Qingtian",
          "name:fa": "چینگ‌تیان",
          "name:fr": "Qingtian",
          "name:it": "Qingtian",
          "name:ja": "青田県",
          "name:ko": "칭톈현",
          "name:nan": "Chheng-tiân-koān",
          "name:nl": "Qingtian",
          "name:no": "Qingtian",
          "name:ru": "Цинтянь",
          "name:sv": "Qingtian",
          "name:vi": "Thanh Điền",
          "name:wuu": "青田县",
          "name:yue": "青田縣",
          "name:zh": "青田县",
          "name:zh-Hans": "青田县",
          "name:zh-Hant": "青田縣",
          "name:zh-Latn-pinyin": "Qīngtián Xiàn",
          "place": "city",
          "place:CN": "county",
          "population": "100900",
          "population:date": "2022",
          "population:note": "城区人口",
          "source:name": "GNS",
          "wikidata": "Q1361329",
          "wikipedia": "zh:青田县"
        },
        "target_id": "qingtian"
      },
      "type": "Feature"
    },
    {
      "geometry": {
        "coordinates": [
          120.1440316,
          27.8745216
        ],
        "type": "Point"
      },
      "id": "yuhu",
      "properties": {
        "display_label": "玉壶镇",
        "edge_clamped": false,
        "manual_coordinate": false,
        "matched_tag_keys": [
          "name",
          "name:zh",
          "name:en"
        ],
        "score": 253,
        "source_element_id": 2643400220,
        "source_element_type": "node",
        "source_name": "玉壶镇",
        "tags": {
          "capital": "8",
          "name": "玉壶镇",
          "name:en": "Yuhu",
          "name:zh": "玉壶镇",
          "name:zh-Hans": "玉壶镇",
          "name:zh-Hant": "玉壺鎮",
          "name:zh-Latn-pinyin": "Yùhú Zhèn",
          "place": "town",
          "place:CN": "town",
          "wikidata": "Q14054965",
          "wikipedia": "zh:玉壶镇"
        },
        "target_id": "yuhu"
      },
      "type": "Feature"
    },
    {
      "geometry": {
        "coordinates": [
          120.695345,
          27.9963899
        ],
        "type": "Point"
      },
      "id": "wenzhou",
      "properties": {
        "display_label": "温州城",
        "edge_clamped": false,
        "manual_coordinate": false,
        "matched_tag_keys": [
          "name",
          "name:zh",
          "name:en"
        ],
        "score": 233,
        "source_element_id": 244082236,
        "source_element_type": "node",
        "source_name": "温州市",
        "tags": {
          "capital": "5",
          "gns:ADM1": "02",
          "gns:DSG": "ADM2",
          "gns:UFI": "-1930591",
          "gns:UNI": "9345042",
          "name": "温州市",
          "name:af": "Wenzhou",
          "name:ar": "ونجو",
          "name:ast": "Wenzhou",
          "name:bg": "Уънджоу",
          "name:br": "Wenzhou",
          "name:ca": "Wenzhou",
          "name:cdo": "Ŭng-ciŭ",
          "name:ceb": "Wenzhou",
          "name:cs": "Wen-čou",
          "name:da": "Wenzhou",
          "name:de": "Wenzhou",
          "name:en": "Wenzhou",
          "name:eo": "Venĝou",
          "name:es": "Wenzhou",
          "name:et": "Wenzhou",
          "name:eu": "Wenzhou",
          "name:fa": "ونژو",
          "name:fi": "Wenzhou",
          "name:fr": "Wenzhou",
          "name:gl": "Wenzhou",
          "name:hak": "Vûn-chû-sṳ",
          "name:hi": "वेंज़्हौ",
          "name:hr": "Wenzhou",
          "name:hu": "Vencsou",
          "name:id": "Wenzhou",
          "name:it": "Wenzhou",
          "name:ja": "温州市",
          "name:ki": "Wenzhou",
          "name:ko": "원저우시",
          "name:la": "Wenzhou",
          "name:lt": "Vendžou",
          "name:lzh": "溫州市",
          "name:mg": "Wenzhou",
          "name:ml": "വെൻഷൗ",
          "name:nan": "Un-chiu-chhī",
          "name:ne": "वानझाउ",
          "name:nl": "Wenzhou",
          "name:nn": "Wenzhou",
          "name:no": "Wenzhou",
          "name:oc": "Wenzhou",
          "name:pl": "Wenzhou",
          "name:pms": "Wenzhou",
          "name:pt": "Wenzhou",
          "name:ro": "Wenzhou",
          "name:ru": "Вэньчжоу",
          "name:sco": "Wenzhou",
          "name:sr": "Венџоу",
          "name:sv": "Wenzhou",
          "name:th": "เวินโจว",
          "name:tl": "Wenzhou",
          "name:tr": "Wenzhou",
          "name:ug": "Wénju shehiri",
          "name:uk": "Веньчжоу",
          "name:ur": "ونژو",
          "name:vi": "Ôn Châu",
          "name:war": "Wenzhou",
          "name:wuu": "温州市",
          "name:yue": "溫州市",
          "name:zh": "温州市",
          "name:zh-Hans": "温州市",
          "name:zh-Hant": "溫州市",
          "name:zh-Latn-pinyin": "Wēnzhōu Shì",
          "old_name:en": "Wenchow",
          "place": "city",
          "place:CN": "prefecture-level_city",
          "population": "9300000",
          "population:date": "2019-11-01",
          "short_name": "瓯",
          "short_name:zh-Hant": "甌",
          "source:name:oc": "Lo Congrès",
          "website": "http://www.wenzhou.gov.cn",
          "wikidata": "Q42635",
          "wikipedia": "zh:温州市"
        },
        "target_id": "wenzhou"
      },
      "type": "Feature"
    },
    {
      "geometry": {
        "coordinates": [
          121.066305,
          28.417541
        ],
        "type": "Point"
      },
      "id": "xianxi",
      "properties": {
        "display_label": "仙溪镇",
        "edge_clamped": false,
        "manual_coordinate": false,
        "matched_tag_keys": [
          "name",
          "name:zh",
          "name:en"
        ],
        "score": 253,
        "source_element_id": 2465684050,
        "source_element_type": "node",
        "source_name": "仙溪镇",
        "tags": {
          "capital": "8",
          "name": "仙溪镇",
          "name:en": "Xianxi",
          "name:zh": "仙溪镇",
          "name:zh-Hans": "仙溪镇",
          "name:zh-Hant": "仙溪鎮",
          "name:zh-Latn-pinyin": "Xiānxī Zhèn",
          "place": "town",
          "place:CN": "town",
          "source": "GNS",
          "wikidata": "Q10884330",
          "wikipedia": "zh:仙溪镇 (乐清市)"
        },
        "target_id": "xianxi"
      },
      "type": "Feature"
    },
    {
      "geometry": {
        "coordinates": [
          120.9728837,
          28.026114
        ],
        "type": "Point"
      },
      "id": "wengyang",
      "properties": {
        "display_label": "翁垟镇",
        "edge_clamped": false,
        "manual_coordinate": false,
        "matched_tag_keys": [
          "name",
          "name:zh",
          "name:en"
        ],
        "score": 228,
        "source_element_id": 8334645554,
        "source_element_type": "node",
        "source_name": "翁垟街道",
        "tags": {
          "capital": "8",
          "name": "翁垟街道",
          "name:en": "Wengyang",
          "name:zh": "翁垟街道",
          "name:zh-Hans": "翁垟街道",
          "name:zh-Hant": "翁垟街道",
          "name:zh-Latn-pinyin": "Wēngyáng Jiēdào",
          "place": "town",
          "place:CN": "subdistrict",
          "wikidata": "Q14063447",
          "wikipedia": "zh:翁垟街道"
        },
        "target_id": "wengyang"
      },
      "type": "Feature"
    },
    {
      "geometry": {
        "coordinates": [
          121.4403409,
          28.673375
        ],
        "type": "Point"
      },
      "id": "haimen",
      "properties": {
        "display_label": "海门",
        "edge_clamped": false,
        "manual_coordinate": false,
        "matched_tag_keys": [
          "name",
          "name:zh",
          "name:en"
        ],
        "score": 216,
        "source_element_id": 8452441192,
        "source_element_type": "node",
        "source_name": "海门街道",
        "tags": {
          "capital": "8",
          "name": "海门街道",
          "name:en": "Haimen",
          "name:zh": "海门街道",
          "name:zh-Hans": "海门街道",
          "name:zh-Hant": "海門街道",
          "name:zh-Latn-pinyin": "Hǎimén Jiēdào",
          "place": "suburb",
          "place:CN": "subdistrict",
          "wikidata": "Q11151403",
          "wikipedia": "zh:海门街道"
        },
        "target_id": "haimen"
      },
      "type": "Feature"
    }
  ],
  "metadata": {
    "attribution": "© OpenStreetMap contributors",
    "edgeClampingUsed": false,
    "generatedAtUtc": "2026-08-28T09:12:07.853567+00:00",
    "license": "ODbL 1.0",
    "manualCoordinatesUsed": false,
    "source": "OpenStreetMap Overpass API",
    "truthCogSha256": "c1da93dca81abc2ee9edaa47496d80c6fa36155e11c9b61464f4f2b547659b43"
  },
  "type": "FeatureCollection"
}
