{
  "features": [
    {
      "geometry": {
        "coordinates": [
          120.285214,
          28.1427524
        ],
        "type": "Point"
      },
      "id": "node/694036638/qingtian",
      "properties": {
        "displayLabel": "青田",
        "edgeClamped": false,
        "insideProjectedAoi": true,
        "insideWgs84Aoi": true,
        "manualCoordinate": false,
        "matchedTagKeys": [
          "name",
          "name:zh",
          "name:en"
        ],
        "score": 233,
        "scoreComponents": {
          "administrative": 0,
          "displayLabelExact": 0,
          "exactAlias": 40,
          "expectedKind": 30,
          "island": 0,
          "node": 8,
          "placeKind": 55,
          "tag": 100
        },
        "sourceElementId": 694036638,
        "sourceElementType": "node",
        "sourceName": "青田县",
        "tags": {
          "capital": "6",
          "name": "青田县",
          "name:ca": "Qingtian",
          "name:cs": "Čching-tchien",
          "name:de": "Qingtian",
          "name:en": "Qingtian",
          "name:es": "Qingtian",
          "name:fa": "چینگ‌تیان",
          "name:fr": "Qingtian",
          "name:it": "Qingtian",
          "name:ja": "青田県",
          "name:ko": "칭톈현",
          "name:nan": "Chheng-tiân-koān",
          "name:nl": "Qingtian",
          "name:no": "Qingtian",
          "name:ru": "Цинтянь",
          "name:sv": "Qingtian",
          "name:vi": "Thanh Điền",
          "name:wuu": "青田县",
          "name:yue": "青田縣",
          "name:zh": "青田县",
          "name:zh-Hans": "青田县",
          "name:zh-Hant": "青田縣",
          "name:zh-Latn-pinyin": "Qīngtián Xiàn",
          "place": "city",
          "place:CN": "county",
          "population": "100900",
          "population:date": "2022",
          "population:note": "城区人口",
          "source:name": "GNS",
          "wikidata": "Q1361329",
          "wikipedia": "zh:青田县"
        },
        "targetId": "qingtian"
      },
      "type": "Feature"
    },
    {
      "geometry": {
        "coordinates": [
          120.1158523,
          28.2067271
        ],
        "type": "Point"
      },
      "id": "relation/3218862/qingtian",
      "properties": {
        "displayLabel": "青田",
        "edgeClamped": false,
        "insideProjectedAoi": true,
        "insideWgs84Aoi": true,
        "manualCoordinate": false,
        "matchedTagKeys": [
          "name",
          "name:zh",
          "alt_name",
          "name:en"
        ],
        "score": 213,
        "scoreComponents": {
          "administrative": 18,
          "displayLabelExact": 25,
          "exactAlias": 40,
          "expectedKind": 30,
          "island": 0,
          "node": 0,
          "placeKind": 0,
          "tag": 100
        },
        "sourceElementId": 3218862,
        "sourceElementType": "relation",
        "sourceName": "青田县",
        "tags": {
          "admin_level": "6",
          "alt_name": "青田;Qingtian",
          "boundary": "administrative",
          "name": "青田县",
          "name:ca": "Qingtian",
          "name:cs": "Čching-tchien",
          "name:de": "Qingtian",
          "name:en": "Qingtian County",
          "name:es": "Qingtian",
          "name:fa": "چینگ‌تیان",
          "name:fr": "Xian de Qingtian",
          "name:it": "Contea di Qingtian",
          "name:ja": "青田県",
          "name:ko": "칭톈현",
          "name:nan": "Chheng-tiân-koān",
          "name:nl": "Qingtian",
          "name:no": "Qingtian",
          "name:ru": "Цинтянь",
          "name:sv": "Qingtian",
          "name:vi": "Thanh Điền, Lệ Thủy",
          "name:wuu": "青田县",
          "name:yue": "青田",
          "name:zh": "青田县",
          "name:zh-Hans": "青田县",
          "name:zh-Hant": "青田縣",
          "name:zh-Latn-pinyin": "qīngtián xiàn",
          "type": "boundary",
          "wikidata": "Q1361329",
          "wikipedia": "en:Qingtian County"
        },
        "targetId": "qingtian"
      },
      "type": "Feature"
    },
    {
      "geometry": {
        "coordinates": [
          120.134806,
          28.205331
        ],
        "type": "Point"
      },
      "id": "node/4250515010/qingtian",
      "properties": {
        "displayLabel": "青田",
        "edgeClamped": false,
        "insideProjectedAoi": true,
        "insideWgs84Aoi": true,
        "manualCoordinate": false,
        "matchedTagKeys": [
          "name",
          "name:zh",
          "alt_name",
          "name:en"
        ],
        "score": 173,
        "scoreComponents": {
          "administrative": 0,
          "displayLabelExact": 25,
          "exactAlias": 40,
          "expectedKind": 0,
          "island": 0,
          "node": 8,
          "placeKind": 0,
          "tag": 100
        },
        "sourceElementId": 4250515010,
        "sourceElementType": "node",
        "sourceName": "青田县",
        "tags": {
          "alt_name": "青田;Qingtian Xian;Ch'ing-t'ien Hsien",
          "name": "青田县",
          "name:ca": "Qingtian",
          "name:cs": "Čching-tchien",
          "name:de": "Qingtian",
          "name:en": "Qingtian",
          "name:es": "Qingtian",
          "name:fa": "چینگ‌تیان",
          "name:fr": "Xian de Qingtian",
          "name:it": "Contea di Qingtian",
          "name:ja": "青田県",
          "name:ko": "칭톈현",
          "name:nan": "Chheng-tiân-koān",
          "name:nl": "Qingtian",
          "name:no": "Qingtian",
          "name:sv": "Qingtian",
          "name:wuu": "青田县",
          "name:yue": "青田",
          "name:zh": "青田县",
          "name:zh-Hans": "青田县",
          "name:zh-Hant": "青田縣",
          "name:zh-Latn-pinyin": "qīngtián xiàn",
          "place": "county",
          "source:name": "GNS",
          "wikidata": "Q1361329",
          "wikipedia": "en:Qingtian County"
        },
        "targetId": "qingtian"
      },
      "type": "Feature"
    },
    {
      "geometry": {
        "coordinates": [
          120.275622,
          28.1400241
        ],
        "type": "Point"
      },
      "id": "node/7702364114/qingtian",
      "properties": {
        "displayLabel": "青田",
        "edgeClamped": false,
        "insideProjectedAoi": true,
        "insideWgs84Aoi": true,
        "manualCoordinate": false,
        "matchedTagKeys": [
          "name",
          "name:en"
        ],
        "score": 173,
        "scoreComponents": {
          "administrative": 0,
          "displayLabelExact": 25,
          "exactAlias": 40,
          "expectedKind": 0,
          "island": 0,
          "node": 8,
          "placeKind": 0,
          "tag": 100
        },
        "sourceElementId": 7702364114,
        "sourceElementType": "node",
        "sourceName": "青田",
        "tags": {
          "name": "青田",
          "name:en": "Qingtian",
          "public_transport": "station",
          "railway": "station",
          "wikidata": "Q22100268",
          "wikipedia": "zh:青田站"
        },
        "targetId": "qingtian"
      },
      "type": "Feature"
    },
    {
      "geometry": {
        "coordinates": [
          120.2757319,
          28.1392294
        ],
        "type": "Point"
      },
      "id": "relation/13708974/qingtian",
      "properties": {
        "displayLabel": "青田",
        "edgeClamped": false,
        "insideProjectedAoi": true,
        "insideWgs84Aoi": true,
        "manualCoordinate": false,
        "matchedTagKeys": [
          "name"
        ],
        "score": 165,
        "scoreComponents": {
          "administrative": 0,
          "displayLabelExact": 25,
          "exactAlias": 40,
          "expectedKind": 0,
          "island": 0,
          "node": 0,
          "placeKind": 0,
          "tag": 100
        },
        "sourceElementId": 13708974,
        "sourceElementType": "relation",
        "sourceName": "青田",
        "tags": {
          "name": "青田",
          "public_transport": "stop_area",
          "type": "public_transport"
        },
        "targetId": "qingtian"
      },
      "type": "Feature"
    },
    {
      "geometry": {
        "coordinates": [
          120.3001359,
          28.1610416
        ],
        "type": "Point"
      },
      "id": "node/244081492/qingtian",
      "properties": {
        "displayLabel": "青田",
        "edgeClamped": false,
        "insideProjectedAoi": true,
        "insideWgs84Aoi": true,
        "manualCoordinate": false,
        "matchedTagKeys": [
          "name",
          "name:zh",
          "name:en"
        ],
        "score": 148,
        "scoreComponents": {
          "administrative": 0,
          "displayLabelExact": 0,
          "exactAlias": 40,
          "expectedKind": 0,
          "island": 0,
          "node": 8,
          "placeKind": 0,
          "tag": 100
        },
        "sourceElementId": 244081492,
        "sourceElementType": "node",
        "sourceName": "青田县",
        "tags": {
          "gns:ADM1": "02",
          "gns:DSG": "ADM3",
          "gns:UFI": "-1922498",
          "gns:UNI": "9345893",
          "name": "青田县",
          "name:en": "Qingtian",
          "name:vi": "Thanh Điền",
          "name:zh": "青田县",
          "name:zh-Hans": "青田县",
          "name:zh-Hant": "青田縣",
          "name:zh-Latn-pinyin": "Qingtian Xian",
          "place": "county"
        },
        "targetId": "qingtian"
      },
      "type": "Feature"
    },
    {
      "geometry": {
        "coordinates": [
          120.1440316,
          27.8745216
        ],
        "type": "Point"
      },
      "id": "node/2643400220/yuhu",
      "properties": {
        "displayLabel": "玉壶镇",
        "edgeClamped": false,
        "insideProjectedAoi": true,
        "insideWgs84Aoi": true,
        "manualCoordinate": false,
        "matchedTagKeys": [
          "name",
          "name:zh",
          "name:en"
        ],
        "score": 253,
        "scoreComponents": {
          "administrative": 0,
          "displayLabelExact": 25,
          "exactAlias": 40,
          "expectedKind": 30,
          "island": 0,
          "node": 8,
          "placeKind": 50,
          "tag": 100
        },
        "sourceElementId": 2643400220,
        "sourceElementType": "node",
        "sourceName": "玉壶镇",
        "tags": {
          "capital": "8",
          "name": "玉壶镇",
          "name:en": "Yuhu",
          "name:zh": "玉壶镇",
          "name:zh-Hans": "玉壶镇",
          "name:zh-Hant": "玉壺鎮",
          "name:zh-Latn-pinyin": "Yùhú Zhèn",
          "place": "town",
          "place:CN": "town",
          "wikidata": "Q14054965",
          "wikipedia": "zh:玉壶镇"
        },
        "targetId": "yuhu"
      },
      "type": "Feature"
    },
    {
      "geometry": {
        "coordinates": [
          120.695345,
          27.9963899
        ],
        "type": "Point"
      },
      "id": "node/244082236/wenzhou",
      "properties": {
        "displayLabel": "温州城",
        "edgeClamped": false,
        "insideProjectedAoi": true,
        "insideWgs84Aoi": true,
        "manualCoordinate": false,
        "matchedTagKeys": [
          "name",
          "name:zh",
          "name:en"
        ],
        "score": 233,
        "scoreComponents": {
          "administrative": 0,
          "displayLabelExact": 0,
          "exactAlias": 40,
          "expectedKind": 30,
          "island": 0,
          "node": 8,
          "placeKind": 55,
          "tag": 100
        },
        "sourceElementId": 244082236,
        "sourceElementType": "node",
        "sourceName": "温州市",
        "tags": {
          "capital": "5",
          "gns:ADM1": "02",
          "gns:DSG": "ADM2",
          "gns:UFI": "-1930591",
          "gns:UNI": "9345042",
          "name": "温州市",
          "name:af": "Wenzhou",
          "name:ar": "ونجو",
          "name:ast": "Wenzhou",
          "name:bg": "Уънджоу",
          "name:br": "Wenzhou",
          "name:ca": "Wenzhou",
          "name:cdo": "Ŭng-ciŭ",
          "name:ceb": "Wenzhou",
          "name:cs": "Wen-čou",
          "name:da": "Wenzhou",
          "name:de": "Wenzhou",
          "name:en": "Wenzhou",
          "name:eo": "Venĝou",
          "name:es": "Wenzhou",
          "name:et": "Wenzhou",
          "name:eu": "Wenzhou",
          "name:fa": "ونژو",
          "name:fi": "Wenzhou",
          "name:fr": "Wenzhou",
          "name:gl": "Wenzhou",
          "name:hak": "Vûn-chû-sṳ",
          "name:hi": "वेंज़्हौ",
          "name:hr": "Wenzhou",
          "name:hu": "Vencsou",
          "name:id": "Wenzhou",
          "name:it": "Wenzhou",
          "name:ja": "温州市",
          "name:ki": "Wenzhou",
          "name:ko": "원저우시",
          "name:la": "Wenzhou",
          "name:lt": "Vendžou",
          "name:lzh": "溫州市",
          "name:mg": "Wenzhou",
          "name:ml": "വെൻഷൗ",
          "name:nan": "Un-chiu-chhī",
          "name:ne": "वानझाउ",
          "name:nl": "Wenzhou",
          "name:nn": "Wenzhou",
          "name:no": "Wenzhou",
          "name:oc": "Wenzhou",
          "name:pl": "Wenzhou",
          "name:pms": "Wenzhou",
          "name:pt": "Wenzhou",
          "name:ro": "Wenzhou",
          "name:ru": "Вэньчжоу",
          "name:sco": "Wenzhou",
          "name:sr": "Венџоу",
          "name:sv": "Wenzhou",
          "name:th": "เวินโจว",
          "name:tl": "Wenzhou",
          "name:tr": "Wenzhou",
          "name:ug": "Wénju shehiri",
          "name:uk": "Веньчжоу",
          "name:ur": "ونژو",
          "name:vi": "Ôn Châu",
          "name:war": "Wenzhou",
          "name:wuu": "温州市",
          "name:yue": "溫州市",
          "name:zh": "温州市",
          "name:zh-Hans": "温州市",
          "name:zh-Hant": "溫州市",
          "name:zh-Latn-pinyin": "Wēnzhōu Shì",
          "old_name:en": "Wenchow",
          "place": "city",
          "place:CN": "prefecture-level_city",
          "population": "9300000",
          "population:date": "2019-11-01",
          "short_name": "瓯",
          "short_name:zh-Hant": "甌",
          "source:name:oc": "Lo Congrès",
          "website": "http://www.wenzhou.gov.cn",
          "wikidata": "Q42635",
          "wikipedia": "zh:温州市"
        },
        "targetId": "wenzhou"
      },
      "type": "Feature"
    },
    {
      "geometry": {
        "coordinates": [
          120.7295292,
          27.8300935
        ],
        "type": "Point"
      },
      "id": "relation/3289341/wenzhou",
      "properties": {
        "displayLabel": "温州城",
        "edgeClamped": false,
        "insideProjectedAoi": true,
        "insideWgs84Aoi": true,
        "manualCoordinate": false,
        "matchedTagKeys": [
          "name",
          "name:zh",
          "alt_name",
          "name:en"
        ],
        "score": 188,
        "scoreComponents": {
          "administrative": 18,
          "displayLabelExact": 0,
          "exactAlias": 40,
          "expectedKind": 30,
          "island": 0,
          "node": 0,
          "placeKind": 0,
          "tag": 100
        },
        "sourceElementId": 3289341,
        "sourceElementType": "relation",
        "sourceName": "温州市",
        "tags": {
          "admin_level": "5",
          "alt_name": "温州",
          "alt_name:en": "Wenzhou",
          "boundary": "administrative",
          "int_name": "Wenzhou",
          "name": "温州市",
          "name:af": "Wenzhou",
          "name:ar": "ونجو",
          "name:ast": "Wenzhou",
          "name:bg": "Уънджоу",
          "name:br": "Wenzhou",
          "name:ca": "Wenzhou",
          "name:cdo": "Ŭng-ciŭ",
          "name:ceb": "Wenzhou",
          "name:cs": "Wen-čou",
          "name:da": "Wenzhou",
          "name:de": "Wenzhou",
          "name:en": "Wenzhou",
          "name:eo": "Venĝou",
          "name:es": "Wenzhou",
          "name:et": "Wenzhou Shi",
          "name:eu": "Wenzhou",
          "name:fa": "ونژو",
          "name:fi": "Wenzhou",
          "name:fr": "Wenzhou",
          "name:gl": "Wenzhou",
          "name:hak": "Vûn-chû-sṳ",
          "name:hu": "Vencsou",
          "name:id": "Wenzhou",
          "name:it": "Wenzhou",
          "name:ja": "温州市",
          "name:ki": "Wenzhou",
          "name:ko": "원저우시",
          "name:la": "Wenzhou",
          "name:lt": "Vendžou",
          "name:lzh": "溫州市",
          "name:mg": "Wenzhou",
          "name:nan": "Un-chiu-chhī",
          "name:nl": "Wenzhou",
          "name:nn": "Wenzhou",
          "name:no": "Wenzhou",
          "name:pl": "Wenzhou",
          "name:pms": "Wenzhou",
          "name:pt": "Wenzhou",
          "name:ro": "Wenzhou",
          "name:ru": "Вэньчжоу",
          "name:sco": "Wenzhou",
          "name:sr": "Венџоу",
          "name:sv": "Wenzhou",
          "name:th": "เวินโจว",
          "name:tl": "Wenzhou",
          "name:tr": "Wenzhou",
          "name:ug": "Wénju shehiri",
          "name:uk": "Веньчжоу",
          "name:ur": "ونژو",
          "name:vi": "Ôn Châu",
          "name:war": "Wenzhou",
          "name:wuu": "温州市",
          "name:yue": "温州",
          "name:zh": "温州市",
          "name:zh-Hans": "温州市",
          "name:zh-Hant": "溫州市",
          "name:zh-Latn-pinyin": "Wēnzhōu Shì",
          "old_name": "Wenchow",
          "type": "boundary",
          "wikidata": "Q42635",
          "wikipedia": "en:Wenzhou"
        },
        "targetId": "wenzhou"
      },
      "type": "Feature"
    },
    {
      "geometry": {
        "coordinates": [
          120.6810513,
          27.9833239
        ],
        "type": "Point"
      },
      "id": "node/7699195680/wenzhou",
      "properties": {
        "displayLabel": "温州城",
        "edgeClamped": false,
        "insideProjectedAoi": true,
        "insideWgs84Aoi": true,
        "manualCoordinate": false,
        "matchedTagKeys": [
          "name",
          "name:zh",
          "name:en"
        ],
        "score": 148,
        "scoreComponents": {
          "administrative": 0,
          "displayLabelExact": 0,
          "exactAlias": 40,
          "expectedKind": 0,
          "island": 0,
          "node": 8,
          "placeKind": 0,
          "tag": 100
        },
        "sourceElementId": 7699195680,
        "sourceElementType": "node",
        "sourceName": "温州",
        "tags": {
          "alt_name": "温州站;温州火车站;Wenzhou Railway Station",
          "name": "温州",
          "name:en": "Wenzhou",
          "name:zh": "温州",
          "public_transport": "station",
          "railway": "station",
          "train": "yes",
          "wikidata": "Q17030060",
          "wikipedia": "zh:温州站"
        },
        "targetId": "wenzhou"
      },
      "type": "Feature"
    },
    {
      "geometry": {
        "coordinates": [
          121.066305,
          28.417541
        ],
        "type": "Point"
      },
      "id": "node/2465684050/xianxi",
      "properties": {
        "displayLabel": "仙溪镇",
        "edgeClamped": false,
        "insideProjectedAoi": true,
        "insideWgs84Aoi": true,
        "manualCoordinate": false,
        "matchedTagKeys": [
          "name",
          "name:zh",
          "name:en"
        ],
        "score": 253,
        "scoreComponents": {
          "administrative": 0,
          "displayLabelExact": 25,
          "exactAlias": 40,
          "expectedKind": 30,
          "island": 0,
          "node": 8,
          "placeKind": 50,
          "tag": 100
        },
        "sourceElementId": 2465684050,
        "sourceElementType": "node",
        "sourceName": "仙溪镇",
        "tags": {
          "capital": "8",
          "name": "仙溪镇",
          "name:en": "Xianxi",
          "name:zh": "仙溪镇",
          "name:zh-Hans": "仙溪镇",
          "name:zh-Hant": "仙溪鎮",
          "name:zh-Latn-pinyin": "Xiānxī Zhèn",
          "place": "town",
          "place:CN": "town",
          "source": "GNS",
          "wikidata": "Q10884330",
          "wikipedia": "zh:仙溪镇 (乐清市)"
        },
        "targetId": "xianxi"
      },
      "type": "Feature"
    },
    {
      "geometry": {
        "coordinates": [
          119.9269682,
          28.8314435
        ],
        "type": "Point"
      },
      "id": "node/11724710306/xianxi",
      "properties": {
        "displayLabel": "仙溪镇",
        "edgeClamped": false,
        "insideProjectedAoi": true,
        "insideWgs84Aoi": true,
        "manualCoordinate": false,
        "matchedTagKeys": [
          "name"
        ],
        "score": 218,
        "scoreComponents": {
          "administrative": 0,
          "displayLabelExact": 0,
          "exactAlias": 40,
          "expectedKind": 30,
          "island": 0,
          "node": 8,
          "placeKind": 40,
          "tag": 100
        },
        "sourceElementId": 11724710306,
        "sourceElementType": "node",
        "sourceName": "仙溪",
        "tags": {
          "name": "仙溪",
          "place": "village"
        },
        "targetId": "xianxi"
      },
      "type": "Feature"
    },
    {
      "geometry": {
        "coordinates": [
          120.9728837,
          28.026114
        ],
        "type": "Point"
      },
      "id": "node/8334645554/wengyang",
      "properties": {
        "displayLabel": "翁垟镇",
        "edgeClamped": false,
        "insideProjectedAoi": true,
        "insideWgs84Aoi": true,
        "manualCoordinate": false,
        "matchedTagKeys": [
          "name",
          "name:zh",
          "name:en"
        ],
        "score": 228,
        "scoreComponents": {
          "administrative": 0,
          "displayLabelExact": 0,
          "exactAlias": 40,
          "expectedKind": 30,
          "island": 0,
          "node": 8,
          "placeKind": 50,
          "tag": 100
        },
        "sourceElementId": 8334645554,
        "sourceElementType": "node",
        "sourceName": "翁垟街道",
        "tags": {
          "capital": "8",
          "name": "翁垟街道",
          "name:en": "Wengyang",
          "name:zh": "翁垟街道",
          "name:zh-Hans": "翁垟街道",
          "name:zh-Hant": "翁垟街道",
          "name:zh-Latn-pinyin": "Wēngyáng Jiēdào",
          "place": "town",
          "place:CN": "subdistrict",
          "wikidata": "Q14063447",
          "wikipedia": "zh:翁垟街道"
        },
        "targetId": "wengyang"
      },
      "type": "Feature"
    },
    {
      "geometry": {
        "coordinates": [
          120.975717,
          28.0225867
        ],
        "type": "Point"
      },
      "id": "node/11143617152/wengyang",
      "properties": {
        "displayLabel": "翁垟镇",
        "edgeClamped": false,
        "insideProjectedAoi": true,
        "insideWgs84Aoi": true,
        "manualCoordinate": false,
        "matchedTagKeys": [
          "name",
          "name:en"
        ],
        "score": 148,
        "scoreComponents": {
          "administrative": 0,
          "displayLabelExact": 0,
          "exactAlias": 40,
          "expectedKind": 0,
          "island": 0,
          "node": 8,
          "placeKind": 0,
          "tag": 100
        },
        "sourceElementId": 11143617152,
        "sourceElementType": "node",
        "sourceName": "翁垟",
        "tags": {
          "name": "翁垟",
          "name:en": "Wengyang",
          "public_transport": "station",
          "railway": "station",
          "station": "subway",
          "subway": "yes"
        },
        "targetId": "wengyang"
      },
      "type": "Feature"
    },
    {
      "geometry": {
        "coordinates": [
          120.9756954,
          28.0225985
        ],
        "type": "Point"
      },
      "id": "node/11143617153/wengyang",
      "properties": {
        "displayLabel": "翁垟镇",
        "edgeClamped": false,
        "insideProjectedAoi": true,
        "insideWgs84Aoi": true,
        "manualCoordinate": false,
        "matchedTagKeys": [
          "name",
          "name:en"
        ],
        "score": 148,
        "scoreComponents": {
          "administrative": 0,
          "displayLabelExact": 0,
          "exactAlias": 40,
          "expectedKind": 0,
          "island": 0,
          "node": 8,
          "placeKind": 0,
          "tag": 100
        },
        "sourceElementId": 11143617153,
        "sourceElementType": "node",
        "sourceName": "翁垟",
        "tags": {
          "name": "翁垟",
          "name:en": "Wengyang",
          "public_transport": "stop_position",
          "railway": "stop",
          "subway": "yes"
        },
        "targetId": "wengyang"
      },
      "type": "Feature"
    },
    {
      "geometry": {
        "coordinates": [
          120.9757387,
          28.0225749
        ],
        "type": "Point"
      },
      "id": "node/11143617154/wengyang",
      "properties": {
        "displayLabel": "翁垟镇",
        "edgeClamped": false,
        "insideProjectedAoi": true,
        "insideWgs84Aoi": true,
        "manualCoordinate": false,
        "matchedTagKeys": [
          "name",
          "name:en"
        ],
        "score": 148,
        "scoreComponents": {
          "administrative": 0,
          "displayLabelExact": 0,
          "exactAlias": 40,
          "expectedKind": 0,
          "island": 0,
          "node": 8,
          "placeKind": 0,
          "tag": 100
        },
        "sourceElementId": 11143617154,
        "sourceElementType": "node",
        "sourceName": "翁垟",
        "tags": {
          "name": "翁垟",
          "name:en": "Wengyang",
          "public_transport": "stop_position",
          "railway": "stop",
          "subway": "yes"
        },
        "targetId": "wengyang"
      },
      "type": "Feature"
    },
    {
      "geometry": {
        "coordinates": [
          120.9757171,
          28.0225867
        ],
        "type": "Point"
      },
      "id": "relation/16242193/wengyang",
      "properties": {
        "displayLabel": "翁垟镇",
        "edgeClamped": false,
        "insideProjectedAoi": true,
        "insideWgs84Aoi": true,
        "manualCoordinate": false,
        "matchedTagKeys": [
          "name",
          "name:en"
        ],
        "score": 140,
        "scoreComponents": {
          "administrative": 0,
          "displayLabelExact": 0,
          "exactAlias": 40,
          "expectedKind": 0,
          "island": 0,
          "node": 0,
          "placeKind": 0,
          "tag": 100
        },
        "sourceElementId": 16242193,
        "sourceElementType": "relation",
        "sourceName": "翁垟",
        "tags": {
          "name": "翁垟",
          "name:en": "Wengyang",
          "public_transport": "stop_area",
          "type": "public_transport"
        },
        "targetId": "wengyang"
      },
      "type": "Feature"
    },
    {
      "geometry": {
        "coordinates": [
          121.4403409,
          28.673375
        ],
        "type": "Point"
      },
      "id": "node/8452441192/haimen",
      "properties": {
        "displayLabel": "海门",
        "edgeClamped": false,
        "insideProjectedAoi": true,
        "insideWgs84Aoi": true,
        "manualCoordinate": false,
        "matchedTagKeys": [
          "name",
          "name:zh",
          "name:en"
        ],
        "score": 216,
        "scoreComponents": {
          "administrative": 0,
          "displayLabelExact": 0,
          "exactAlias": 40,
          "expectedKind": 30,
          "island": 0,
          "node": 8,
          "placeKind": 38,
          "tag": 100
        },
        "sourceElementId": 8452441192,
        "sourceElementType": "node",
        "sourceName": "海门街道",
        "tags": {
          "capital": "8",
          "name": "海门街道",
          "name:en": "Haimen",
          "name:zh": "海门街道",
          "name:zh-Hans": "海门街道",
          "name:zh-Hant": "海門街道",
          "name:zh-Latn-pinyin": "Hǎimén Jiēdào",
          "place": "suburb",
          "place:CN": "subdistrict",
          "wikidata": "Q11151403",
          "wikipedia": "zh:海门街道"
        },
        "targetId": "haimen"
      },
      "type": "Feature"
    }
  ],
  "metadata": {
    "attribution": "© OpenStreetMap contributors",
    "edgeClampingUsed": false,
    "generatedAtUtc": "2026-08-28T09:12:07.853567+00:00",
    "license": "ODbL 1.0",
    "manualCoordinatesUsed": false,
    "source": "OpenStreetMap Overpass API",
    "truthCogSha256": "c1da93dca81abc2ee9edaa47496d80c6fa36155e11c9b61464f4f2b547659b43"
  },
  "type": "FeatureCollection"
}
