{
"type": "FeatureCollection",
"name": "STONE_MONEY_USER_YELLOW_AOI_CANDIDATE",
"crs": { "type": "name", "properties": { "name": "urn:ogc:def:crs:OGC:1.3:CRS84" } },
"features": [
{ "type": "Feature", "properties": { "id": "STONE_MONEY_USER_YELLOW_AOI_CANDIDATE", "status": "EVIDENCE_DERIVED_CANDIDATE_NOT_FINAL" }, "geometry": { "type": "Polygon", "coordinates": [ [ [ 134.54760958, 7.32304809 ], [ 134.539264870000011, 7.31836031 ], [ 134.52688235, 7.31703795 ], [ 134.5211715, 7.32546387 ], [ 134.52181622, 7.34071146 ], [ 134.53024858, 7.34353654 ], [ 134.53776747, 7.33977987 ], [ 134.54497487, 7.33248234 ], [ 134.54811869, 7.32598903 ], [ 134.54760958, 7.32304809 ] ] ] } }
]
}
