{
  "type": "FeatureCollection",
  "name": "Guilin accepted AOI",
  "features": [
    {
      "type": "Feature",
      "properties": {
        "status": "ACCEPTED",
        "geometry_sha256": "36b750be56ae0dea906996258068eaf9aaa71e01667eb328b9ce6bd1b48cbe80"
      },
      "geometry": {
        "type": "Polygon",
        "coordinates": [
          [
            [
              380331.8,
              2705928.1
            ],
            [
              530128.2,
              2705928.1
            ],
            [
              530128.2,
              2926987.2
            ],
            [
              380331.8,
              2926987.2
            ],
            [
              380331.8,
              2705928.1
            ]
          ]
        ]
      }
    }
  ]
}
