{
  "type": "FeatureCollection",
  "name": "kunming_cuihu_20000km2_square",
  "features": [
    {
      "type": "Feature",
      "id": "kunming-cuihu-20000km2-square",
      "properties": {
        "project_id": "kunming-dem-v001",
        "display_name_zh": "昆明翠湖中心 20000 平方公里正方形 AOI",
        "center_wgs84": [102.70228, 25.05042],
        "project_crs": "EPSG:32648",
        "center_projected_m": [268192.317001, 2772499.470618],
        "projected_bounds_m": [197481.638882, 2701788.7925, 338902.99512, 2843210.148737],
        "shape": "square",
        "side_m": 141421.3562373095,
        "half_extent_m": 70710.67811865475,
        "area_m2": 20000000000.0,
        "area_km2": 20000.0,
        "coordinate_order": "longitude, latitude",
        "source_policy": "strict authenticated ASF ALOS PALSAR RTC_HI_RES DEM assets; no 30 m fallback"
      },
      "geometry": {
        "type": "Polygon",
        "coordinates": [
          [
            [102.017303702477, 24.400186475092],
            [103.411050791123, 24.421241178325],
            [103.394496377378, 25.697921495],
            [101.986269412518, 25.675612945549],
            [102.017303702477, 24.400186475092]
          ]
        ]
      }
    }
  ]
}
