{
  "type": "FeatureCollection",
  "name": "kunming_asf_11tiles_rect_crop",
  "features": [
    {
      "type": "Feature",
      "id": "kunming-asf-11tiles-rect",
      "properties": {
        "project_id": "kunming-dem-v001",
        "display_name_zh": "昆明 ASF 11 张 DEM 连续长方形裁切范围",
        "selection_policy": "largest practical zero-gap rectangle from the 11 delivered DEM rasters",
        "target_crs": "EPSG:32648",
        "pixel_spacing_m": 12.5,
        "area_km2": 31639.25,
        "width_m": 135500.0,
        "height_m": 233500.0,
        "projected_bounds": [209000.0, 2651625.0, 344500.0, 2885125.0],
        "grid_width": 10840,
        "grid_height": 18680,
        "valid_fraction": 1.0,
        "gap_area_km2": 0.0,
        "source_dem_count": 11,
        "previous_cuihu_square_role": "historical_planning_only"
      },
      "geometry": {
        "type": "Polygon",
        "coordinates": [
          [
            [102.14086273384817, 23.949865582403287],
            [103.47164907811238, 23.96889091976421],
            [103.4453113114003, 26.07687652784521],
            [102.0916517185676, 26.055941546057234],
            [102.14086273384817, 23.949865582403287]
          ]
        ]
      }
    }
  ]
}
