{"type": "FeatureCollection", "name": "NOAA_MULTIBEAM_CORE_CLIPS_R03", "features": [{"type": "Feature", "properties": {"survey_id": "RR1309", "survey_year": 2013, "platform": "Roger Revelle", "instrument": "Kongsberg EM122", "source": "Rolling Deck to Repository (R2R)", "download_url": "https://www.ngdc.noaa.gov/ships/roger_revelle/RR1309_mb.html", "track_length_source_field": 7496, "file_count": 839, "context_clip_length_m": 39039.5, "core_clip_length_m": 739.3, "nearest_to_story_anchor_m": 5288.4, "intersects_core": true, "reef_interior_constraint_status": "TRACKLINE_CONTEXT_ONLY"}, "geometry": {"type": "LineString", "coordinates": [[134.605, 7.320158287494667], [134.60073670865478, 7.315]]}}]}
