{
"type": "FeatureCollection",
"name": "OBSTRN",
"crs": { "type": "name", "properties": { "name": "urn:ogc:def:crs:OGC:1.3:CRS84" } },
"features": [
{ "type": "Feature", "properties": { "RCID": 654, "PRIM": 3, "GRUP": 2, "OBJL": 86, "RVER": 1, "AGEN": 550, "FIDN": 264749155, "FIDS": 9, "LNAM": "02260FC7C0630009", "LNAM_REFS": null, "FFPT_RIND": null, "CATOBS": 6.0, "CONDTN": null, "EXPSOU": null, "HEIGHT": null, "NATCON": null, "NATQUA": null, "NOBJNM": null, "OBJNAM": null, "PRODCT": null, "QUASOU": null, "SOUACC": null, "STATUS": null, "TECSOU": null, "VALSOU": null, "VERACC": null, "VERDAT": null, "VERLEN": null, "WATLEV": 3, "NATSUR": [ "9" ], "INFORM": "Numerous Rocks; some are Covers and Uncovers", "NINFOM": null, "NTXTDS": null, "SCAMAX": null, "SCAMIN": null, "TXTDSC": null, "RECDAT": null, "RECIND": null, "SORDAT": "20150206", "SORIND": "US,US,reprt,L-246-2015", "_enc_cell": "US4TB3P0" }, "geometry": { "type": "Polygon", "coordinates": [ [ [ 134.5183563, 7.3475165 ], [ 134.5183563, 7.3473806 ], [ 134.5184021, 7.3472304 ], [ 134.518432600000011, 7.3471193 ], [ 134.5185242, 7.3470082 ], [ 134.518631, 7.3469529 ], [ 134.5187378, 7.3469057 ], [ 134.5188599, 7.3469558 ], [ 134.5189819, 7.3469362 ], [ 134.519058199999989, 7.3470359 ], [ 134.5191345, 7.3470388 ], [ 134.519195599999989, 7.3471279 ], [ 134.5192413, 7.347239 ], [ 134.519287100000014, 7.3473806 ], [ 134.519287100000014, 7.3477945 ], [ 134.5192566, 7.3479776 ], [ 134.519165, 7.3480945 ], [ 134.519058199999989, 7.3481445 ], [ 134.5188751, 7.3481278 ], [ 134.5187531, 7.3480721 ], [ 134.5186462, 7.3479915 ], [ 134.5185242, 7.3478804 ], [ 134.5184631, 7.3477693 ], [ 134.5183868, 7.3476362 ], [ 134.5183563, 7.3475165 ] ] ] } },
{ "type": "Feature", "properties": { "RCID": 667, "PRIM": 3, "GRUP": 2, "OBJL": 86, "RVER": 1, "AGEN": 550, "FIDN": 536503856, "FIDS": 9, "LNAM": "02261FFA66300009", "LNAM_REFS": null, "FFPT_RIND": null, "CATOBS": 6.0, "CONDTN": null, "EXPSOU": null, "HEIGHT": null, "NATCON": null, "NATQUA": null, "NOBJNM": null, "OBJNAM": "Beluu Lukes", "PRODCT": null, "QUASOU": null, "SOUACC": null, "STATUS": null, "TECSOU": null, "VALSOU": 0.1, "VERACC": null, "VERDAT": null, "VERLEN": null, "WATLEV": 3, "NATSUR": null, "INFORM": null, "NINFOM": null, "NTXTDS": null, "SCAMAX": null, "SCAMIN": null, "TXTDSC": null, "RECDAT": null, "RECIND": null, "SORDAT": "20150206", "SORIND": "US,US,reprt,L-246-2015", "_enc_cell": "US4TB3P0" }, "geometry": { "type": "Polygon", "coordinates": [ [ [ 134.5071106, 7.2904835 ], [ 134.507141100000013, 7.2903276 ], [ 134.507034299999987, 7.2901249 ], [ 134.5069428, 7.2899303 ], [ 134.5070648, 7.2897167 ], [ 134.5072022, 7.2897029 ], [ 134.50737, 7.2898083 ], [ 134.5075684, 7.2898388 ], [ 134.5078583, 7.2899165 ], [ 134.5080719, 7.2900333 ], [ 134.5083313, 7.2901721 ], [ 134.5086365, 7.2903166 ], [ 134.5089417, 7.2903776 ], [ 134.5093536, 7.2904387 ], [ 134.5098877, 7.2904167 ], [ 134.5103607, 7.2902694 ], [ 134.5106812, 7.2900944 ], [ 134.5111847, 7.2900834 ], [ 134.5118713, 7.2902083 ], [ 134.512207, 7.2902083 ], [ 134.5128479, 7.2905054 ], [ 134.513534600000014, 7.2907391 ], [ 134.513794, 7.2911167 ], [ 134.5139465, 7.2914805 ], [ 134.5141754, 7.2919169 ], [ 134.514373799999987, 7.292572 ], [ 134.514389, 7.2929721 ], [ 134.5145721, 7.2932391 ], [ 134.5147553, 7.2935557 ], [ 134.5149231, 7.2939057 ], [ 134.514953600000013, 7.2943916 ], [ 134.514724699999988, 7.2944555 ], [ 134.514465300000012, 7.294425 ], [ 134.5141907, 7.2942224 ], [ 134.5140228, 7.2939806 ], [ 134.5137177, 7.2934918 ], [ 134.5131989, 7.2932277 ], [ 134.512558, 7.2928028 ], [ 134.5121613, 7.292614 ], [ 134.5118256, 7.2925835 ], [ 134.5114136, 7.2925391 ], [ 134.510894799999988, 7.2925611 ], [ 134.510528599999986, 7.2926445 ], [ 134.510162400000013, 7.2927723 ], [ 134.509796099999988, 7.2928667 ], [ 134.5093689, 7.2928891 ], [ 134.5089264, 7.2928667 ], [ 134.508575400000012, 7.2927723 ], [ 134.508255, 7.292572 ], [ 134.5080566, 7.2923389 ], [ 134.5079346, 7.2920833 ], [ 134.5078278, 7.2918415 ], [ 134.5078125, 7.2916164 ], [ 134.507721, 7.2913113 ], [ 134.5074768, 7.2910137 ], [ 134.507400499999989, 7.2908554 ], [ 134.5071869, 7.2907863 ], [ 134.5071259, 7.2906556 ], [ 134.5071106, 7.2904835 ] ] ] } },
{ "type": "Feature", "properties": { "RCID": 676, "PRIM": 3, "GRUP": 2, "OBJL": 86, "RVER": 1, "AGEN": 550, "FIDN": 811410719, "FIDS": 9, "LNAM": "0226305D251F0009", "LNAM_REFS": null, "FFPT_RIND": null, "CATOBS": 6.0, "CONDTN": null, "EXPSOU": null, "HEIGHT": null, "NATCON": [ "9" ], "NATQUA": null, "NOBJNM": null, "OBJNAM": null, "PRODCT": null, "QUASOU": null, "SOUACC": null, "STATUS": null, "TECSOU": null, "VALSOU": 0.1, "VERACC": null, "VERDAT": null, "VERLEN": null, "WATLEV": 3, "NATSUR": null, "INFORM": null, "NINFOM": null, "NTXTDS": null, "SCAMAX": null, "SCAMIN": null, "TXTDSC": null, "RECDAT": null, "RECIND": null, "SORDAT": "20150206", "SORIND": "US,US,reprt,L-246-2015", "_enc_cell": "US4TB3P0" }, "geometry": { "type": "Polygon", "coordinates": [ [ [ 134.517944300000011, 7.3398027 ], [ 134.5180664, 7.3397389 ], [ 134.5181732, 7.3397026 ], [ 134.518325800000014, 7.339653 ], [ 134.5184937, 7.3396001 ], [ 134.518631, 7.3395557 ], [ 134.5187225, 7.339447 ], [ 134.518798800000013, 7.3393168 ], [ 134.518829399999987, 7.3391695 ], [ 134.5188446, 7.3389945 ], [ 134.518829399999987, 7.3389525 ], [ 134.518798800000013, 7.3388195 ], [ 134.5187225, 7.3386083 ], [ 134.5186615, 7.3384275 ], [ 134.5186005, 7.338275 ], [ 134.518447900000012, 7.338028 ], [ 134.5182953, 7.3378444 ], [ 134.5181427, 7.3377085 ], [ 134.517959600000012, 7.3376308 ], [ 134.5177918, 7.3376584 ], [ 134.5177002, 7.3377333 ], [ 134.5176697, 7.3377361 ], [ 134.517608599999988, 7.3377776 ], [ 134.5175476, 7.337872 ], [ 134.517486600000012, 7.337975 ], [ 134.5174255, 7.3381057 ], [ 134.5174255, 7.3381891 ], [ 134.5174408, 7.3382974 ], [ 134.517471300000011, 7.3383584 ], [ 134.5175476, 7.3384166 ], [ 134.5176239, 7.3384528 ], [ 134.5176392, 7.3384862 ], [ 134.5177155, 7.3385806 ], [ 134.517807, 7.338728 ], [ 134.517807, 7.3388472 ], [ 134.5177918, 7.3389444 ], [ 134.5177002, 7.3390803 ], [ 134.5175781, 7.3391471 ], [ 134.5174408, 7.3392391 ], [ 134.517364500000014, 7.3393168 ], [ 134.5173187, 7.3394361 ], [ 134.517334, 7.33955 ], [ 134.517364500000014, 7.3397193 ], [ 134.5174255, 7.3398333 ], [ 134.5175629, 7.3399 ], [ 134.517730699999987, 7.339911 ], [ 134.517837500000013, 7.3398442 ], [ 134.517944300000011, 7.3398027 ] ] ] } },
{ "type": "Feature", "properties": { "RCID": 693, "PRIM": 3, "GRUP": 2, "OBJL": 86, "RVER": 1, "AGEN": 550, "FIDN": 175547463, "FIDS": 9, "LNAM": "02260A76A4470009", "LNAM_REFS": null, "FFPT_RIND": null, "CATOBS": 6.0, "CONDTN": null, "EXPSOU": null, "HEIGHT": null, "NATCON": null, "NATQUA": null, "NOBJNM": null, "OBJNAM": null, "PRODCT": null, "QUASOU": [ "2" ], "SOUACC": null, "STATUS": null, "TECSOU": null, "VALSOU": null, "VERACC": null, "VERDAT": null, "VERLEN": null, "WATLEV": 3, "NATSUR": [ "9" ], "INFORM": "Numerous Rocks", "NINFOM": null, "NTXTDS": null, "SCAMAX": null, "SCAMIN": null, "TXTDSC": null, "RECDAT": null, "RECIND": null, "SORDAT": "20150206", "SORIND": "US,US,reprt,L-246-2015", "_enc_cell": "US4TB3P0" }, "geometry": { "type": "Polygon", "coordinates": [ [ [ 134.522337099999987, 7.3351653 ], [ 134.522308399999986, 7.3351584 ], [ 134.52211, 7.3351641 ], [ 134.52191160000001, 7.3352776 ], [ 134.5217896, 7.3354139 ], [ 134.5217285, 7.3356276 ], [ 134.5217438, 7.3358192 ], [ 134.521804800000012, 7.3359613 ], [ 134.5218964, 7.3360529 ], [ 134.5220184, 7.336103 ], [ 134.522171, 7.3361249 ], [ 134.5221889, 7.3361282 ], [ 134.5222626, 7.3361416 ], [ 134.5223846, 7.3361611 ], [ 134.5224915, 7.336103 ], [ 134.5225678, 7.3360195 ], [ 134.522644, 7.3359222 ], [ 134.5226898, 7.335814 ], [ 134.5227051, 7.3357081 ], [ 134.5227051, 7.3355832 ], [ 134.522674599999988, 7.335475 ], [ 134.5226288, 7.3353725 ], [ 134.522552499999989, 7.3352723 ], [ 134.5224457, 7.3351917 ], [ 134.522337099999987, 7.3351653 ] ] ] } },
{ "type": "Feature", "properties": { "RCID": 697, "PRIM": 3, "GRUP": 2, "OBJL": 86, "RVER": 1, "AGEN": 550, "FIDN": 941692387, "FIDS": 9, "LNAM": "0226382115E30009", "LNAM_REFS": null, "FFPT_RIND": null, "CATOBS": 6.0, "CONDTN": null, "EXPSOU": null, "HEIGHT": null, "NATCON": null, "NATQUA": null, "NOBJNM": null, "OBJNAM": null, "PRODCT": null, "QUASOU": null, "SOUACC": null, "STATUS": null, "TECSOU": null, "VALSOU": 1.5, "VERACC": null, "VERDAT": null, "VERLEN": null, "WATLEV": 3, "NATSUR": null, "INFORM": null, "NINFOM": null, "NTXTDS": null, "SCAMAX": null, "SCAMIN": null, "TXTDSC": null, "RECDAT": null, "RECIND": null, "SORDAT": "20150206", "SORIND": "US,US,reprt,L-246-2015", "_enc_cell": "US4TB3P0" }, "geometry": { "type": "Polygon", "coordinates": [ [ [ 134.5383479, 7.2873241 ], [ 134.5383453, 7.2873168 ], [ 134.5383453, 7.2872028 ], [ 134.5383606, 7.2870808 ], [ 134.5384369, 7.2869248 ], [ 134.538513200000011, 7.2868223 ], [ 134.53862, 7.2867193 ], [ 134.5388031, 7.2866583 ], [ 134.5389404, 7.2866335 ], [ 134.539032, 7.2866278 ], [ 134.5392151, 7.2866473 ], [ 134.539367700000014, 7.2867141 ], [ 134.53945920000001, 7.2868028 ], [ 134.539489800000013, 7.2869835 ], [ 134.539474500000011, 7.2871919 ], [ 134.5393829, 7.2873721 ], [ 134.539245599999987, 7.2874947 ], [ 134.5390167, 7.2876196 ], [ 134.538958799999989, 7.2876364 ], [ 134.538864100000012, 7.2876639 ], [ 134.5386963, 7.2876916 ], [ 134.538559, 7.2876697 ], [ 134.53849790000001, 7.2875776 ], [ 134.5384522, 7.2875471 ], [ 134.538391100000013, 7.2874446 ], [ 134.5383479, 7.2873241 ] ] ] } },
{ "type": "Feature", "properties": { "RCID": 699, "PRIM": 3, "GRUP": 2, "OBJL": 86, "RVER": 1, "AGEN": 550, "FIDN": 879690424, "FIDS": 9, "LNAM": "0226346F02B80009", "LNAM_REFS": null, "FFPT_RIND": null, "CATOBS": 6.0, "CONDTN": null, "EXPSOU": null, "HEIGHT": null, "NATCON": null, "NATQUA": null, "NOBJNM": null, "OBJNAM": null, "PRODCT": null, "QUASOU": null, "SOUACC": null, "STATUS": null, "TECSOU": null, "VALSOU": null, "VERACC": null, "VERDAT": null, "VERLEN": null, "WATLEV": 3, "NATSUR": null, "INFORM": null, "NINFOM": null, "NTXTDS": null, "SCAMAX": null, "SCAMIN": null, "TXTDSC": null, "RECDAT": null, "RECIND": null, "SORDAT": "20150206", "SORIND": "US,US,reprt,L-246-2015", "_enc_cell": "US4TB3P0" }, "geometry": { "type": "Polygon", "coordinates": [ [ [ 134.5954285, 7.3547974 ], [ 134.595504799999986, 7.3547974 ], [ 134.595733599999988, 7.3548002 ], [ 134.595855699999987, 7.3548002 ], [ 134.5958784, 7.3548005 ], [ 134.596084600000012, 7.3548026 ], [ 134.5962677, 7.3548026 ], [ 134.5965118, 7.3548055 ], [ 134.5966644, 7.3548083 ], [ 134.5968628, 7.3548083 ], [ 134.5971375, 7.3548112 ], [ 134.5974305, 7.3549273 ], [ 134.5974731, 7.3549442 ], [ 134.597885100000013, 7.3552861 ], [ 134.598373400000014, 7.3557749 ], [ 134.5985413, 7.3559971 ], [ 134.5986939, 7.3562055 ], [ 134.598999, 7.3566251 ], [ 134.59935, 7.3567972 ], [ 134.5996246, 7.3570943 ], [ 134.599929800000012, 7.3574195 ], [ 134.60003660000001, 7.3576279 ], [ 134.600235, 7.3579388 ], [ 134.6004944, 7.3580999 ], [ 134.600769, 7.3584137 ], [ 134.6009827, 7.3586946 ], [ 134.6011963, 7.3590946 ], [ 134.6014252, 7.3595529 ], [ 134.6016846, 7.3599391 ], [ 134.6018372, 7.3603973 ], [ 134.6017914, 7.3606057 ], [ 134.6018372, 7.3608584 ], [ 134.6018372, 7.3612585 ], [ 134.601745599999987, 7.3617473 ], [ 134.601745599999987, 7.3621168 ], [ 134.6017761, 7.3623891 ], [ 134.601501500000012, 7.3621445 ], [ 134.601150499999989, 7.3617973 ], [ 134.6005096, 7.3607583 ], [ 134.600051900000011, 7.3601723 ], [ 134.5993652, 7.3594332 ], [ 134.5985718, 7.3587999 ], [ 134.5979309, 7.3582139 ], [ 134.5974579, 7.3577113 ], [ 134.5969696, 7.3571029 ], [ 134.5964966, 7.3566361 ], [ 134.5961762, 7.3563137 ], [ 134.5960236, 7.3559194 ], [ 134.595474200000012, 7.3549275 ], [ 134.5954285, 7.3547974 ] ] ] } },
{ "type": "Feature", "properties": { "RCID": 707, "PRIM": 3, "GRUP": 2, "OBJL": 86, "RVER": 1, "AGEN": 550, "FIDN": 60209194, "FIDS": 9, "LNAM": "02260396B82A0009", "LNAM_REFS": null, "FFPT_RIND": null, "CATOBS": 6.0, "CONDTN": null, "EXPSOU": null, "HEIGHT": null, "NATCON": null, "NATQUA": null, "NOBJNM": null, "OBJNAM": null, "PRODCT": null, "QUASOU": null, "SOUACC": null, "STATUS": null, "TECSOU": null, "VALSOU": null, "VERACC": null, "VERDAT": null, "VERLEN": null, "WATLEV": 3, "NATSUR": [ "9" ], "INFORM": "Numerous Rocks", "NINFOM": null, "NTXTDS": null, "SCAMAX": null, "SCAMIN": null, "TXTDSC": null, "RECDAT": null, "RECIND": null, "SORDAT": "20150206", "SORIND": "US,US,reprt,L-246-2015", "_enc_cell": "US4TB3P0" }, "geometry": { "type": "Polygon", "coordinates": [ [ [ 134.490448, 7.3901224 ], [ 134.4902191, 7.3900971 ], [ 134.4901428, 7.3901081 ], [ 134.4899445, 7.3901334 ], [ 134.4897614, 7.3901806 ], [ 134.489715600000011, 7.3903861 ], [ 134.4897461, 7.3905668 ], [ 134.4898987, 7.3907056 ], [ 134.4900513, 7.3908 ], [ 134.4901428, 7.3908277 ], [ 134.4902649, 7.3907971 ], [ 134.490387, 7.3907166 ], [ 134.4905243, 7.3906169 ], [ 134.490554800000012, 7.3905139 ], [ 134.4905396, 7.3902946 ], [ 134.4905243, 7.3901696 ], [ 134.490448, 7.3901224 ] ] ] } },
{ "type": "Feature", "properties": { "RCID": 708, "PRIM": 3, "GRUP": 2, "OBJL": 86, "RVER": 1, "AGEN": 550, "FIDN": 732432343, "FIDS": 9, "LNAM": "02262BA807D70009", "LNAM_REFS": null, "FFPT_RIND": null, "CATOBS": 6.0, "CONDTN": null, "EXPSOU": null, "HEIGHT": null, "NATCON": null, "NATQUA": null, "NOBJNM": null, "OBJNAM": null, "PRODCT": null, "QUASOU": null, "SOUACC": null, "STATUS": null, "TECSOU": null, "VALSOU": null, "VERACC": null, "VERDAT": null, "VERLEN": null, "WATLEV": 3, "NATSUR": [ "9" ], "INFORM": "Numerous Rocks", "NINFOM": null, "NTXTDS": null, "SCAMAX": null, "SCAMIN": null, "TXTDSC": null, "RECDAT": null, "RECIND": null, "SORDAT": "20150206", "SORIND": "US,US,reprt,L-246-2015", "_enc_cell": "US4TB3P0" }, "geometry": { "type": "Polygon", "coordinates": [ [ [ 134.492004400000013, 7.3776083 ], [ 134.4918671, 7.3776445 ], [ 134.491745, 7.3777471 ], [ 134.491684, 7.3778501 ], [ 134.4916534, 7.3779807 ], [ 134.491638200000011, 7.3781166 ], [ 134.4916077, 7.3782554 ], [ 134.4916077, 7.3785057 ], [ 134.491684, 7.3786612 ], [ 134.4918671, 7.378747 ], [ 134.492004400000013, 7.3787332 ], [ 134.492126500000012, 7.3786278 ], [ 134.4922028, 7.3783526 ], [ 134.4922791, 7.3781109 ], [ 134.4923248, 7.3779197 ], [ 134.4922791, 7.3777471 ], [ 134.4921417, 7.3776498 ], [ 134.492004400000013, 7.3776083 ] ] ] } },
{ "type": "Feature", "properties": { "RCID": 709, "PRIM": 3, "GRUP": 2, "OBJL": 86, "RVER": 1, "AGEN": 550, "FIDN": 578879867, "FIDS": 9, "LNAM": "02262281017B0009", "LNAM_REFS": null, "FFPT_RIND": null, "CATOBS": 6.0, "CONDTN": null, "EXPSOU": 2.0, "HEIGHT": null, "NATCON": null, "NATQUA": null, "NOBJNM": null, "OBJNAM": null, "PRODCT": null, "QUASOU": null, "SOUACC": null, "STATUS": null, "TECSOU": null, "VALSOU": 15.9, "VERACC": null, "VERDAT": null, "VERLEN": null, "WATLEV": 3, "NATSUR": [ "9" ], "INFORM": "Numerous Rocks", "NINFOM": null, "NTXTDS": null, "SCAMAX": null, "SCAMIN": null, "TXTDSC": null, "RECDAT": null, "RECIND": null, "SORDAT": "20150206", "SORIND": "US,US,reprt,L-246-2015", "_enc_cell": "US4TB3P0" }, "geometry": { "type": "Polygon", "coordinates": [ [ [ 134.4978333, 7.368753 ], [ 134.497680699999989, 7.3687611 ], [ 134.4975433, 7.3688169 ], [ 134.497406, 7.3689137 ], [ 134.4973297, 7.3689919 ], [ 134.497299199999986, 7.3690915 ], [ 134.4972687, 7.3691945 ], [ 134.4972382, 7.3693805 ], [ 134.497283900000014, 7.3695417 ], [ 134.4973908, 7.369647 ], [ 134.4975586, 7.3697028 ], [ 134.4977112, 7.3696528 ], [ 134.497818, 7.369514 ], [ 134.497894300000013, 7.3694277 ], [ 134.4979706, 7.3693361 ], [ 134.49800110000001, 7.3690414 ], [ 134.4979858, 7.3688946 ], [ 134.4978333, 7.368753 ] ] ] } },
{ "type": "Feature", "properties": { "RCID": 718, "PRIM": 3, "GRUP": 2, "OBJL": 86, "RVER": 1, "AGEN": 550, "FIDN": 847910251, "FIDS": 9, "LNAM": "0226328A156B0009", "LNAM_REFS": null, "FFPT_RIND": null, "CATOBS": 6.0, "CONDTN": null, "EXPSOU": null, "HEIGHT": null, "NATCON": null, "NATQUA": null, "NOBJNM": null, "OBJNAM": null, "PRODCT": null, "QUASOU": null, "SOUACC": null, "STATUS": null, "TECSOU": null, "VALSOU": null, "VERACC": null, "VERDAT": null, "VERLEN": null, "WATLEV": 3, "NATSUR": [ "9" ], "INFORM": "Numerous Rocks", "NINFOM": null, "NTXTDS": null, "SCAMAX": null, "SCAMIN": null, "TXTDSC": null, "RECDAT": null, "RECIND": null, "SORDAT": "20150206", "SORIND": "US,US,reprt,L-246-2015", "_enc_cell": "US4TB3P0" }, "geometry": { "type": "Polygon", "coordinates": [ [ [ 134.528549199999986, 7.2951803 ], [ 134.5284119, 7.2951803 ], [ 134.528305100000011, 7.2952194 ], [ 134.528183, 7.2953668 ], [ 134.5281372, 7.2955999 ], [ 134.5281372, 7.295836 ], [ 134.52828980000001, 7.2961221 ], [ 134.5283508, 7.2961888 ], [ 134.5284882, 7.2963138 ], [ 134.5286102, 7.2964721 ], [ 134.5287323, 7.2965612 ], [ 134.5289459, 7.2965694 ], [ 134.5293121, 7.2964859 ], [ 134.529419, 7.2963891 ], [ 134.529525799999988, 7.2962165 ], [ 134.52948, 7.2960391 ], [ 134.52948, 7.2958002 ], [ 134.529419, 7.2956443 ], [ 134.529266400000012, 7.2955389 ], [ 134.529159600000014, 7.2954054 ], [ 134.528915399999988, 7.2952695 ], [ 134.52876280000001, 7.2952471 ], [ 134.528656, 7.2952085 ], [ 134.528549199999986, 7.2951803 ] ] ] } },
{ "type": "Feature", "properties": { "RCID": 719, "PRIM": 3, "GRUP": 2, "OBJL": 86, "RVER": 1, "AGEN": 550, "FIDN": 910189051, "FIDS": 9, "LNAM": "0226364061FB0009", "LNAM_REFS": null, "FFPT_RIND": null, "CATOBS": 6.0, "CONDTN": null, "EXPSOU": null, "HEIGHT": null, "NATCON": null, "NATQUA": null, "NOBJNM": null, "OBJNAM": null, "PRODCT": null, "QUASOU": null, "SOUACC": null, "STATUS": null, "TECSOU": null, "VALSOU": null, "VERACC": null, "VERDAT": null, "VERLEN": null, "WATLEV": 3, "NATSUR": [ "9" ], "INFORM": "Numerous Rocks", "NINFOM": null, "NTXTDS": null, "SCAMAX": null, "SCAMIN": null, "TXTDSC": null, "RECDAT": null, "RECIND": null, "SORDAT": "20150206", "SORIND": "US,US,reprt,L-246-2015", "_enc_cell": "US4TB3P0" }, "geometry": { "type": "Polygon", "coordinates": [ [ [ 134.5233154, 7.3417335 ], [ 134.523513799999989, 7.341661 ], [ 134.5236969, 7.341639 ], [ 134.5238037, 7.3416915 ], [ 134.523864800000013, 7.3418388 ], [ 134.52383420000001, 7.3420305 ], [ 134.523742700000014, 7.342164 ], [ 134.523635899999988, 7.3422942 ], [ 134.5234833, 7.3424888 ], [ 134.523361200000011, 7.3425946 ], [ 134.5232239, 7.3426499 ], [ 134.5230713, 7.342597 ], [ 134.5229492, 7.3424888 ], [ 134.5229034, 7.3423362 ], [ 134.5229492, 7.3421722 ], [ 134.52301030000001, 7.342011 ], [ 134.5231018, 7.3419361 ], [ 134.5231934, 7.341814 ], [ 134.5233154, 7.3417335 ] ] ] } },
{ "type": "Feature", "properties": { "RCID": 720, "PRIM": 3, "GRUP": 2, "OBJL": 86, "RVER": 1, "AGEN": 550, "FIDN": 41725273, "FIDS": 9, "LNAM": "0226027CAD590009", "LNAM_REFS": null, "FFPT_RIND": null, "CATOBS": 6.0, "CONDTN": null, "EXPSOU": null, "HEIGHT": null, "NATCON": null, "NATQUA": null, "NOBJNM": null, "OBJNAM": null, "PRODCT": null, "QUASOU": null, "SOUACC": null, "STATUS": null, "TECSOU": null, "VALSOU": null, "VERACC": null, "VERDAT": null, "VERLEN": null, "WATLEV": 3, "NATSUR": [ "9" ], "INFORM": "Numerous Rocks", "NINFOM": null, "NTXTDS": null, "SCAMAX": null, "SCAMIN": null, "TXTDSC": null, "RECDAT": null, "RECIND": null, "SORDAT": "20150206", "SORIND": "US,US,reprt,L-246-2015", "_enc_cell": "US4TB3P0" }, "geometry": { "type": "Polygon", "coordinates": [ [ [ 134.60545350000001, 7.3510304 ], [ 134.6052856, 7.3510528 ], [ 134.605133099999989, 7.3511558 ], [ 134.6050263, 7.3512917 ], [ 134.60495, 7.3514972 ], [ 134.60495, 7.3515081 ], [ 134.6049652, 7.3517666 ], [ 134.604980500000011, 7.3518834 ], [ 134.6050873, 7.3519974 ], [ 134.6053009, 7.3521471 ], [ 134.6054993, 7.3521586 ], [ 134.6056824, 7.3521361 ], [ 134.6058502, 7.3520222 ], [ 134.6059876, 7.35185 ], [ 134.6060486, 7.3516336 ], [ 134.6060486, 7.3513832 ], [ 134.6059723, 7.3512001 ], [ 134.6057587, 7.3510637 ], [ 134.60545350000001, 7.3510304 ] ] ] } },
{ "type": "Feature", "properties": { "RCID": 753, "PRIM": 3, "GRUP": 2, "OBJL": 86, "RVER": 1, "AGEN": 550, "FIDN": 929713877, "FIDS": 9, "LNAM": "0226376A4ED50009", "LNAM_REFS": null, "FFPT_RIND": null, "CATOBS": 6.0, "CONDTN": null, "EXPSOU": null, "HEIGHT": null, "NATCON": null, "NATQUA": null, "NOBJNM": null, "OBJNAM": null, "PRODCT": null, "QUASOU": null, "SOUACC": null, "STATUS": null, "TECSOU": null, "VALSOU": null, "VERACC": null, "VERDAT": null, "VERLEN": null, "WATLEV": 3, "NATSUR": null, "INFORM": null, "NINFOM": null, "NTXTDS": null, "SCAMAX": null, "SCAMIN": null, "TXTDSC": null, "RECDAT": null, "RECIND": null, "SORDAT": "20150206", "SORIND": "US,US,reprt,L-246-2015", "_enc_cell": "US4TB3P0" }, "geometry": { "type": "Polygon", "coordinates": [ [ [ 134.554718, 7.2785721 ], [ 134.5550079, 7.2793665 ], [ 134.5555267, 7.2807779 ], [ 134.5557861, 7.2814694 ], [ 134.555191, 7.2809248 ], [ 134.5547333, 7.2804585 ], [ 134.5542908, 7.2798109 ], [ 134.5541687, 7.2795224 ], [ 134.5540924, 7.2788501 ], [ 134.553894, 7.277822 ], [ 134.553772, 7.2768583 ], [ 134.5537262, 7.2759419 ], [ 134.5537567, 7.2751193 ], [ 134.5536957, 7.2741752 ], [ 134.5534973, 7.2729502 ], [ 134.5530853, 7.2708111 ], [ 134.553070100000014, 7.2706499 ], [ 134.552948, 7.2700887 ], [ 134.552566500000012, 7.2692943 ], [ 134.552215600000011, 7.2688832 ], [ 134.552002, 7.2682304 ], [ 134.551712, 7.2674723 ], [ 134.551116900000011, 7.2661834 ], [ 134.5505066, 7.2655554 ], [ 134.550170900000012, 7.265203 ], [ 134.5502777, 7.2652526 ], [ 134.5506744, 7.2654557 ], [ 134.5511932, 7.2657137 ], [ 134.5515289, 7.2658863 ], [ 134.551971400000014, 7.2661138 ], [ 134.552536, 7.2669916 ], [ 134.5530853, 7.2673917 ], [ 134.553527800000012, 7.2682304 ], [ 134.553894, 7.2693086 ], [ 134.5541687, 7.2704248 ], [ 134.5541687, 7.2718639 ], [ 134.55412290000001, 7.2724223 ], [ 134.5543213, 7.2739415 ], [ 134.5543213, 7.2747808 ], [ 134.554184, 7.2759137 ], [ 134.5545349, 7.2767363 ], [ 134.5544586, 7.2778916 ], [ 134.554718, 7.2785721 ] ] ] } },
{ "type": "Feature", "properties": { "RCID": 754, "PRIM": 3, "GRUP": 2, "OBJL": 86, "RVER": 1, "AGEN": 550, "FIDN": 907330371, "FIDS": 9, "LNAM": "02263614C3430009", "LNAM_REFS": null, "FFPT_RIND": null, "CATOBS": 6.0, "CONDTN": null, "EXPSOU": null, "HEIGHT": null, "NATCON": null, "NATQUA": null, "NOBJNM": null, "OBJNAM": null, "PRODCT": null, "QUASOU": null, "SOUACC": null, "STATUS": null, "TECSOU": null, "VALSOU": null, "VERACC": null, "VERDAT": null, "VERLEN": null, "WATLEV": 3, "NATSUR": null, "INFORM": null, "NINFOM": null, "NTXTDS": null, "SCAMAX": null, "SCAMIN": null, "TXTDSC": null, "RECDAT": null, "RECIND": null, "SORDAT": "20150206", "SORIND": "US,US,reprt,L-246-2015", "_enc_cell": "US4TB3P0" }, "geometry": { "type": "Polygon", "coordinates": [ [ [ 134.50930790000001, 7.3410029 ], [ 134.5092163, 7.3410139 ], [ 134.5090942, 7.3410974 ], [ 134.509079, 7.3410974 ], [ 134.5090942, 7.3412056 ], [ 134.5092926, 7.3413749 ], [ 134.5094147, 7.3414002 ], [ 134.509567299999986, 7.3413277 ], [ 134.509567299999986, 7.3411584 ], [ 134.509536700000012, 7.3410502 ], [ 134.50930790000001, 7.3410029 ] ] ] } },
{ "type": "Feature", "properties": { "RCID": 755, "PRIM": 3, "GRUP": 2, "OBJL": 86, "RVER": 1, "AGEN": 550, "FIDN": 562865060, "FIDS": 9, "LNAM": "0226218CA3A40009", "LNAM_REFS": null, "FFPT_RIND": null, "CATOBS": 6.0, "CONDTN": null, "EXPSOU": null, "HEIGHT": null, "NATCON": null, "NATQUA": null, "NOBJNM": null, "OBJNAM": null, "PRODCT": null, "QUASOU": null, "SOUACC": null, "STATUS": null, "TECSOU": null, "VALSOU": null, "VERACC": null, "VERDAT": null, "VERLEN": null, "WATLEV": 3, "NATSUR": null, "INFORM": "Positon approximate", "NINFOM": null, "NTXTDS": null, "SCAMAX": null, "SCAMIN": null, "TXTDSC": null, "RECDAT": null, "RECIND": null, "SORDAT": "20150206", "SORIND": "US,US,reprt,L-246-2015", "_enc_cell": "US4TB3P0" }, "geometry": { "type": "Polygon", "coordinates": [ [ [ 134.5277863, 7.3457084 ], [ 134.5278473, 7.3457084 ], [ 134.528060900000014, 7.3458695 ], [ 134.528060900000014, 7.3459888 ], [ 134.5279236, 7.3462558 ], [ 134.527679400000011, 7.3467054 ], [ 134.5276489, 7.3469667 ], [ 134.5277557, 7.3471832 ], [ 134.5279083, 7.3471279 ], [ 134.528060900000014, 7.3466806 ], [ 134.5282745, 7.3466029 ], [ 134.5283203, 7.3464055 ], [ 134.52828980000001, 7.3460889 ], [ 134.5283203, 7.345964 ], [ 134.5284576, 7.3458333 ], [ 134.528671300000013, 7.3454971 ], [ 134.528778100000011, 7.3452473 ], [ 134.5288849, 7.3449249 ], [ 134.5288849, 7.344614 ], [ 134.5288239, 7.3443637 ], [ 134.5288086, 7.3443751 ], [ 134.5287933, 7.3444085 ], [ 134.528717, 7.344511 ], [ 134.5286255, 7.3446279 ], [ 134.5285187, 7.3447666 ], [ 134.528427099999988, 7.3448834 ], [ 134.5283356, 7.3450112 ], [ 134.5281525, 7.345078 ], [ 134.527969399999989, 7.3452668 ], [ 134.5279236, 7.3454447 ], [ 134.527816800000011, 7.3455863 ], [ 134.5277863, 7.3457084 ] ] ] } },
{ "type": "Feature", "properties": { "RCID": 756, "PRIM": 3, "GRUP": 2, "OBJL": 86, "RVER": 1, "AGEN": 550, "FIDN": 327426063, "FIDS": 9, "LNAM": "02261384200F0009", "LNAM_REFS": null, "FFPT_RIND": null, "CATOBS": 6.0, "CONDTN": null, "EXPSOU": null, "HEIGHT": null, "NATCON": null, "NATQUA": null, "NOBJNM": null, "OBJNAM": null, "PRODCT": null, "QUASOU": null, "SOUACC": null, "STATUS": null, "TECSOU": null, "VALSOU": null, "VERACC": null, "VERDAT": null, "VERLEN": null, "WATLEV": 3, "NATSUR": null, "INFORM": null, "NINFOM": null, "NTXTDS": null, "SCAMAX": null, "SCAMIN": null, "TXTDSC": null, "RECDAT": null, "RECIND": null, "SORDAT": "20150206", "SORIND": "US,US,reprt,L-246-2015", "_enc_cell": "US4TB3P0" }, "geometry": { "type": "Polygon", "coordinates": [ [ [ 134.5234222, 7.3478804 ], [ 134.5234528, 7.3477473 ], [ 134.523468, 7.3474779 ], [ 134.5234833, 7.347311 ], [ 134.523513799999989, 7.3471665 ], [ 134.523513799999989, 7.3470082 ], [ 134.523498499999988, 7.3468666 ], [ 134.523498499999988, 7.3468113 ], [ 134.5234528, 7.346714 ], [ 134.523376500000012, 7.3466277 ], [ 134.5233154, 7.3465304 ], [ 134.523239100000012, 7.3463669 ], [ 134.523254400000013, 7.3462057 ], [ 134.5233154, 7.3460946 ], [ 134.5234833, 7.3460002 ], [ 134.5237579, 7.3460083 ], [ 134.523864800000013, 7.346086 ], [ 134.523986799999989, 7.3461971 ], [ 134.524108899999987, 7.3463335 ], [ 134.524215700000013, 7.3465085 ], [ 134.524322500000011, 7.3467054 ], [ 134.524353, 7.3469138 ], [ 134.524353, 7.3470945 ], [ 134.524322500000011, 7.3473167 ], [ 134.5243073, 7.3474779 ], [ 134.5242767, 7.3476028 ], [ 134.5242462, 7.3477473 ], [ 134.5241394, 7.3479276 ], [ 134.5240021, 7.3480334 ], [ 134.523941, 7.348064 ], [ 134.52383420000001, 7.3480806 ], [ 134.5237579, 7.3480806 ], [ 134.523620599999987, 7.3480554 ], [ 134.523498499999988, 7.3479834 ], [ 134.5234222, 7.3478804 ] ] ] } }
]
}
