{
"type": "FeatureCollection",
"name": "UWTROC",
"crs": { "type": "name", "properties": { "name": "urn:ogc:def:crs:OGC:1.3:CRS84" } },
"features": [
{ "type": "Feature", "properties": { "RCID": 802, "PRIM": 1, "GRUP": 2, "OBJL": 153, "RVER": 1, "AGEN": 550, "FIDN": 426750014, "FIDS": 9, "LNAM": "0226196FB03E0009", "LNAM_REFS": null, "FFPT_RIND": null, "EXPSOU": null, "NATSUR": [ "9" ], "NATQUA": null, "NOBJNM": null, "OBJNAM": null, "QUASOU": [ "2" ], "SOUACC": null, "STATUS": null, "TECSOU": null, "VALSOU": null, "VERDAT": null, "WATLEV": 3, "INFORM": null, "NINFOM": null, "NTXTDS": null, "SCAMAX": null, "SCAMIN": 44999.0, "TXTDSC": null, "RECDAT": null, "RECIND": null, "SORDAT": "20150206", "SORIND": "US,US,reprt,L-246-2015", "_enc_cell": "US4TB3P0" }, "geometry": { "type": "Point", "coordinates": [ 134.6056213, 7.3515945 ] } },
{ "type": "Feature", "properties": { "RCID": 803, "PRIM": 1, "GRUP": 2, "OBJL": 153, "RVER": 1, "AGEN": 550, "FIDN": 122651112, "FIDS": 9, "LNAM": "0226074F81E80009", "LNAM_REFS": null, "FFPT_RIND": null, "EXPSOU": null, "NATSUR": [ "9" ], "NATQUA": null, "NOBJNM": null, "OBJNAM": null, "QUASOU": [ "2" ], "SOUACC": null, "STATUS": null, "TECSOU": null, "VALSOU": null, "VERDAT": null, "WATLEV": 3, "INFORM": null, "NINFOM": null, "NTXTDS": null, "SCAMAX": null, "SCAMIN": null, "TXTDSC": null, "RECDAT": null, "RECIND": null, "SORDAT": "20150206", "SORIND": "US,US,reprt,L-246-2015", "_enc_cell": "US4TB3P0" }, "geometry": { "type": "Point", "coordinates": [ 134.5933533, 7.3355112 ] } },
{ "type": "Feature", "properties": { "RCID": 804, "PRIM": 1, "GRUP": 2, "OBJL": 153, "RVER": 1, "AGEN": 550, "FIDN": 477745264, "FIDS": 9, "LNAM": "02261C79D0700009", "LNAM_REFS": null, "FFPT_RIND": null, "EXPSOU": null, "NATSUR": null, "NATQUA": null, "NOBJNM": null, "OBJNAM": null, "QUASOU": null, "SOUACC": null, "STATUS": null, "TECSOU": null, "VALSOU": 2.1, "VERDAT": null, "WATLEV": 3, "INFORM": null, "NINFOM": null, "NTXTDS": null, "SCAMAX": null, "SCAMIN": null, "TXTDSC": null, "RECDAT": null, "RECIND": null, "SORDAT": "20150206", "SORIND": "US,US,reprt,L-246-2015", "_enc_cell": "US4TB3P0" }, "geometry": { "type": "Point", "coordinates": [ 134.5605774, 7.3110638 ] } },
{ "type": "Feature", "properties": { "RCID": 805, "PRIM": 1, "GRUP": 2, "OBJL": 153, "RVER": 1, "AGEN": 550, "FIDN": 827793047, "FIDS": 9, "LNAM": "022631571E970009", "LNAM_REFS": null, "FFPT_RIND": null, "EXPSOU": 2.0, "NATSUR": null, "NATQUA": null, "NOBJNM": null, "OBJNAM": null, "QUASOU": null, "SOUACC": null, "STATUS": null, "TECSOU": null, "VALSOU": 7.7, "VERDAT": null, "WATLEV": 3, "INFORM": null, "NINFOM": null, "NTXTDS": null, "SCAMAX": null, "SCAMIN": null, "TXTDSC": null, "RECDAT": null, "RECIND": null, "SORDAT": "20150206", "SORIND": "US,US,reprt,L-246-2015", "_enc_cell": "US4TB3P0" }, "geometry": { "type": "Point", "coordinates": [ 134.5428009, 7.2908526 ] } },
{ "type": "Feature", "properties": { "RCID": 806, "PRIM": 1, "GRUP": 2, "OBJL": 153, "RVER": 1, "AGEN": 550, "FIDN": 315546954, "FIDS": 9, "LNAM": "022612CEDD4A0009", "LNAM_REFS": null, "FFPT_RIND": null, "EXPSOU": 2.0, "NATSUR": null, "NATQUA": null, "NOBJNM": null, "OBJNAM": null, "QUASOU": null, "SOUACC": null, "STATUS": null, "TECSOU": null, "VALSOU": 8.6, "VERDAT": null, "WATLEV": 3, "INFORM": null, "NINFOM": null, "NTXTDS": null, "SCAMAX": null, "SCAMIN": null, "TXTDSC": null, "RECDAT": null, "RECIND": null, "SORDAT": "20150206", "SORIND": "US,US,reprt,L-246-2015", "_enc_cell": "US4TB3P0" }, "geometry": { "type": "Point", "coordinates": [ 134.541870100000011, 7.2955027 ] } },
{ "type": "Feature", "properties": { "RCID": 807, "PRIM": 1, "GRUP": 2, "OBJL": 153, "RVER": 1, "AGEN": 550, "FIDN": 93422726, "FIDS": 9, "LNAM": "0226059184860009", "LNAM_REFS": null, "FFPT_RIND": null, "EXPSOU": null, "NATSUR": [ "9" ], "NATQUA": null, "NOBJNM": null, "OBJNAM": null, "QUASOU": [ "2" ], "SOUACC": null, "STATUS": null, "TECSOU": null, "VALSOU": null, "VERDAT": null, "WATLEV": 4, "INFORM": null, "NINFOM": null, "NTXTDS": null, "SCAMAX": null, "SCAMIN": null, "TXTDSC": null, "RECDAT": null, "RECIND": null, "SORDAT": "20150206", "SORIND": "US,US,reprt,L-246-2015", "_enc_cell": "US4TB3P0" }, "geometry": { "type": "Point", "coordinates": [ 134.530700700000011, 7.2893443 ] } },
{ "type": "Feature", "properties": { "RCID": 808, "PRIM": 1, "GRUP": 2, "OBJL": 153, "RVER": 1, "AGEN": 550, "FIDN": 786719192, "FIDS": 9, "LNAM": "02262EE461D80009", "LNAM_REFS": null, "FFPT_RIND": null, "EXPSOU": null, "NATSUR": [ "9" ], "NATQUA": null, "NOBJNM": null, "OBJNAM": null, "QUASOU": [ "2" ], "SOUACC": null, "STATUS": null, "TECSOU": null, "VALSOU": null, "VERDAT": null, "WATLEV": 3, "INFORM": null, "NINFOM": null, "NTXTDS": null, "SCAMAX": null, "SCAMIN": 44999.0, "TXTDSC": null, "RECDAT": null, "RECIND": null, "SORDAT": "20150206", "SORIND": "US,US,reprt,L-246-2015", "_enc_cell": "US4TB3P0" }, "geometry": { "type": "Point", "coordinates": [ 134.523819, 7.3477526 ] } },
{ "type": "Feature", "properties": { "RCID": 809, "PRIM": 1, "GRUP": 2, "OBJL": 153, "RVER": 1, "AGEN": 550, "FIDN": 145546975, "FIDS": 9, "LNAM": "022608ACDEDF0009", "LNAM_REFS": null, "FFPT_RIND": null, "EXPSOU": 2.0, "NATSUR": null, "NATQUA": null, "NOBJNM": null, "OBJNAM": null, "QUASOU": null, "SOUACC": null, "STATUS": null, "TECSOU": null, "VALSOU": 9.2, "VERDAT": null, "WATLEV": 3, "INFORM": null, "NINFOM": null, "NTXTDS": null, "SCAMAX": null, "SCAMIN": null, "TXTDSC": null, "RECDAT": null, "RECIND": null, "SORDAT": "20150206", "SORIND": "US,US,reprt,L-246-2015", "_enc_cell": "US4TB3P0" }, "geometry": { "type": "Point", "coordinates": [ 134.5236511, 7.305675 ] } },
{ "type": "Feature", "properties": { "RCID": 810, "PRIM": 1, "GRUP": 2, "OBJL": 153, "RVER": 1, "AGEN": 550, "FIDN": 770852254, "FIDS": 9, "LNAM": "02262DF2459E0009", "LNAM_REFS": null, "FFPT_RIND": null, "EXPSOU": 2.0, "NATSUR": null, "NATQUA": null, "NOBJNM": null, "OBJNAM": null, "QUASOU": null, "SOUACC": null, "STATUS": null, "TECSOU": null, "VALSOU": 9.5, "VERDAT": null, "WATLEV": 3, "INFORM": null, "NINFOM": null, "NTXTDS": null, "SCAMAX": null, "SCAMIN": null, "TXTDSC": null, "RECDAT": null, "RECIND": null, "SORDAT": "20150206", "SORIND": "US,US,reprt,L-246-2015", "_enc_cell": "US4TB3P0" }, "geometry": { "type": "Point", "coordinates": [ 134.5235748, 7.2966137 ] } },
{ "type": "Feature", "properties": { "RCID": 811, "PRIM": 1, "GRUP": 2, "OBJL": 153, "RVER": 1, "AGEN": 550, "FIDN": 410856850, "FIDS": 9, "LNAM": "0226187D2D920009", "LNAM_REFS": null, "FFPT_RIND": null, "EXPSOU": null, "NATSUR": [ "9" ], "NATQUA": null, "NOBJNM": null, "OBJNAM": null, "QUASOU": [ "2" ], "SOUACC": null, "STATUS": null, "TECSOU": null, "VALSOU": null, "VERDAT": null, "WATLEV": 4, "INFORM": null, "NINFOM": null, "NTXTDS": null, "SCAMAX": null, "SCAMIN": 44999.0, "TXTDSC": null, "RECDAT": null, "RECIND": null, "SORDAT": "20150206", "SORIND": "US,US,reprt,L-246-2015", "_enc_cell": "US4TB3P0" }, "geometry": { "type": "Point", "coordinates": [ 134.5224304, 7.3358388 ] } },
{ "type": "Feature", "properties": { "RCID": 812, "PRIM": 1, "GRUP": 2, "OBJL": 153, "RVER": 1, "AGEN": 550, "FIDN": 926706247, "FIDS": 9, "LNAM": "0226373C6A470009", "LNAM_REFS": null, "FFPT_RIND": null, "EXPSOU": 2.0, "NATSUR": null, "NATQUA": null, "NOBJNM": null, "OBJNAM": null, "QUASOU": null, "SOUACC": null, "STATUS": null, "TECSOU": null, "VALSOU": 2.0, "VERDAT": null, "WATLEV": 3, "INFORM": null, "NINFOM": null, "NTXTDS": null, "SCAMAX": null, "SCAMIN": null, "TXTDSC": null, "RECDAT": null, "RECIND": null, "SORDAT": "20150206", "SORIND": "US,US,reprt,L-246-2015", "_enc_cell": "US4TB3P0" }, "geometry": { "type": "Point", "coordinates": [ 134.5211487, 7.295825 ] } },
{ "type": "Feature", "properties": { "RCID": 813, "PRIM": 1, "GRUP": 2, "OBJL": 153, "RVER": 1, "AGEN": 550, "FIDN": 348105522, "FIDS": 9, "LNAM": "022614BFAB320009", "LNAM_REFS": null, "FFPT_RIND": null, "EXPSOU": 2.0, "NATSUR": null, "NATQUA": null, "NOBJNM": null, "OBJNAM": null, "QUASOU": null, "SOUACC": null, "STATUS": null, "TECSOU": null, "VALSOU": 15.0, "VERDAT": null, "WATLEV": 3, "INFORM": null, "NINFOM": null, "NTXTDS": null, "SCAMAX": null, "SCAMIN": null, "TXTDSC": null, "RECDAT": null, "RECIND": null, "SORDAT": "20150206", "SORIND": "US,US,reprt,L-246-2015", "_enc_cell": "US4TB3P0" }, "geometry": { "type": "Point", "coordinates": [ 134.5102539, 7.293622 ] } },
{ "type": "Feature", "properties": { "RCID": 815, "PRIM": 1, "GRUP": 2, "OBJL": 153, "RVER": 1, "AGEN": 550, "FIDN": 774330316, "FIDS": 9, "LNAM": "02262E2757CC0009", "LNAM_REFS": null, "FFPT_RIND": null, "EXPSOU": 2.0, "NATSUR": [ "9" ], "NATQUA": null, "NOBJNM": null, "OBJNAM": null, "QUASOU": null, "SOUACC": null, "STATUS": null, "TECSOU": null, "VALSOU": 0.0, "VERDAT": null, "WATLEV": 5, "INFORM": null, "NINFOM": null, "NTXTDS": null, "SCAMAX": null, "SCAMIN": null, "TXTDSC": null, "RECDAT": null, "RECIND": null, "SORDAT": "20150206", "SORIND": "US,US,reprt,L-246-2015", "_enc_cell": "US4TB3P0" }, "geometry": { "type": "Point", "coordinates": [ 134.4968872, 7.3874946 ] } },
{ "type": "Feature", "properties": { "RCID": 816, "PRIM": 1, "GRUP": 2, "OBJL": 153, "RVER": 1, "AGEN": 550, "FIDN": 703664147, "FIDS": 9, "LNAM": "022629F110130009", "LNAM_REFS": null, "FFPT_RIND": null, "EXPSOU": 2.0, "NATSUR": [ "9" ], "NATQUA": null, "NOBJNM": null, "OBJNAM": null, "QUASOU": null, "SOUACC": null, "STATUS": null, "TECSOU": null, "VALSOU": 0.0, "VERDAT": null, "WATLEV": 5, "INFORM": null, "NINFOM": null, "NTXTDS": null, "SCAMAX": null, "SCAMIN": null, "TXTDSC": null, "RECDAT": null, "RECIND": null, "SORDAT": "20150206", "SORIND": "US,US,reprt,L-246-2015", "_enc_cell": "US4TB3P0" }, "geometry": { "type": "Point", "coordinates": [ 134.496337899999986, 7.3924861 ] } },
{ "type": "Feature", "properties": { "RCID": 890, "PRIM": 1, "GRUP": 2, "OBJL": 153, "RVER": 1, "AGEN": 550, "FIDN": 748329016, "FIDS": 9, "LNAM": "02262C9A98380009", "LNAM_REFS": null, "FFPT_RIND": null, "EXPSOU": 2.0, "NATSUR": null, "NATQUA": null, "NOBJNM": null, "OBJNAM": null, "QUASOU": null, "SOUACC": null, "STATUS": null, "TECSOU": null, "VALSOU": 9.1, "VERDAT": null, "WATLEV": 3, "INFORM": null, "NINFOM": null, "NTXTDS": null, "SCAMAX": null, "SCAMIN": null, "TXTDSC": null, "RECDAT": null, "RECIND": null, "SORDAT": "20150206", "SORIND": "US,US,reprt,L-246-2015", "_enc_cell": "US4TB3P0" }, "geometry": { "type": "Point", "coordinates": [ 134.545578, 7.2921224 ] } },
{ "type": "Feature", "properties": { "RCID": 891, "PRIM": 1, "GRUP": 2, "OBJL": 153, "RVER": 1, "AGEN": 550, "FIDN": 933217772, "FIDS": 9, "LNAM": "0226379FC5EC0009", "LNAM_REFS": null, "FFPT_RIND": null, "EXPSOU": 2.0, "NATSUR": null, "NATQUA": null, "NOBJNM": null, "OBJNAM": null, "QUASOU": null, "SOUACC": null, "STATUS": null, "TECSOU": null, "VALSOU": 17.0, "VERDAT": null, "WATLEV": 3, "INFORM": null, "NINFOM": null, "NTXTDS": null, "SCAMAX": null, "SCAMIN": null, "TXTDSC": null, "RECDAT": null, "RECIND": null, "SORDAT": "20150206", "SORIND": "US,US,reprt,L-246-2015", "_enc_cell": "US4TB3P0" }, "geometry": { "type": "Point", "coordinates": [ 134.5445862, 7.2956529 ] } },
{ "type": "Feature", "properties": { "RCID": 892, "PRIM": 1, "GRUP": 2, "OBJL": 153, "RVER": 1, "AGEN": 550, "FIDN": 51613074, "FIDS": 9, "LNAM": "022603138D920009", "LNAM_REFS": null, "FFPT_RIND": null, "EXPSOU": 2.0, "NATSUR": null, "NATQUA": null, "NOBJNM": null, "OBJNAM": null, "QUASOU": null, "SOUACC": null, "STATUS": null, "TECSOU": null, "VALSOU": 19.6, "VERDAT": null, "WATLEV": 3, "INFORM": null, "NINFOM": null, "NTXTDS": null, "SCAMAX": null, "SCAMIN": null, "TXTDSC": null, "RECDAT": null, "RECIND": null, "SORDAT": "20150206", "SORIND": "US,US,reprt,L-246-2015", "_enc_cell": "US4TB3P0" }, "geometry": { "type": "Point", "coordinates": [ 134.542373700000013, 7.2942085 ] } },
{ "type": "Feature", "properties": { "RCID": 893, "PRIM": 1, "GRUP": 2, "OBJL": 153, "RVER": 1, "AGEN": 550, "FIDN": 766510196, "FIDS": 9, "LNAM": "02262DB004740009", "LNAM_REFS": null, "FFPT_RIND": null, "EXPSOU": 2.0, "NATSUR": null, "NATQUA": null, "NOBJNM": null, "OBJNAM": null, "QUASOU": null, "SOUACC": null, "STATUS": null, "TECSOU": null, "VALSOU": 17.6, "VERDAT": null, "WATLEV": 3, "INFORM": null, "NINFOM": null, "NTXTDS": null, "SCAMAX": null, "SCAMIN": null, "TXTDSC": null, "RECDAT": null, "RECIND": null, "SORDAT": "20150206", "SORIND": "US,US,reprt,L-246-2015", "_enc_cell": "US4TB3P0" }, "geometry": { "type": "Point", "coordinates": [ 134.5261688, 7.2973943 ] } },
{ "type": "Feature", "properties": { "RCID": 894, "PRIM": 1, "GRUP": 2, "OBJL": 153, "RVER": 1, "AGEN": 550, "FIDN": 226185327, "FIDS": 9, "LNAM": "02260D7B506F0009", "LNAM_REFS": null, "FFPT_RIND": null, "EXPSOU": 2.0, "NATSUR": null, "NATQUA": null, "NOBJNM": null, "OBJNAM": null, "QUASOU": null, "SOUACC": null, "STATUS": null, "TECSOU": null, "VALSOU": 7.2, "VERDAT": null, "WATLEV": 3, "INFORM": null, "NINFOM": null, "NTXTDS": null, "SCAMAX": null, "SCAMIN": null, "TXTDSC": null, "RECDAT": null, "RECIND": null, "SORDAT": "20150206", "SORIND": "US,US,reprt,L-246-2015", "_enc_cell": "US4TB3P0" }, "geometry": { "type": "Point", "coordinates": [ 134.5247345, 7.296597 ] } },
{ "type": "Feature", "properties": { "RCID": 895, "PRIM": 1, "GRUP": 2, "OBJL": 153, "RVER": 1, "AGEN": 550, "FIDN": 786832953, "FIDS": 9, "LNAM": "02262EE61E390009", "LNAM_REFS": null, "FFPT_RIND": null, "EXPSOU": 2.0, "NATSUR": null, "NATQUA": null, "NOBJNM": null, "OBJNAM": null, "QUASOU": null, "SOUACC": null, "STATUS": null, "TECSOU": null, "VALSOU": 5.4, "VERDAT": null, "WATLEV": 3, "INFORM": null, "NINFOM": null, "NTXTDS": null, "SCAMAX": null, "SCAMIN": 44999.0, "TXTDSC": null, "RECDAT": null, "RECIND": null, "SORDAT": "20150206", "SORIND": "US,US,reprt,L-246-2015", "_enc_cell": "US4TB3P0" }, "geometry": { "type": "Point", "coordinates": [ 134.5232239, 7.3423305 ] } },
{ "type": "Feature", "properties": { "RCID": 896, "PRIM": 1, "GRUP": 2, "OBJL": 153, "RVER": 1, "AGEN": 550, "FIDN": 805679447, "FIDS": 9, "LNAM": "02263005B1570009", "LNAM_REFS": null, "FFPT_RIND": null, "EXPSOU": 2.0, "NATSUR": null, "NATQUA": null, "NOBJNM": null, "OBJNAM": null, "QUASOU": null, "SOUACC": null, "STATUS": null, "TECSOU": null, "VALSOU": 3.0, "VERDAT": null, "WATLEV": 3, "INFORM": null, "NINFOM": null, "NTXTDS": null, "SCAMAX": null, "SCAMIN": null, "TXTDSC": null, "RECDAT": null, "RECIND": null, "SORDAT": "20150206", "SORIND": "US,US,reprt,L-246-2015", "_enc_cell": "US4TB3P0" }, "geometry": { "type": "Point", "coordinates": [ 134.5232086, 7.3212862 ] } },
{ "type": "Feature", "properties": { "RCID": 897, "PRIM": 1, "GRUP": 2, "OBJL": 153, "RVER": 1, "AGEN": 550, "FIDN": 869594489, "FIDS": 9, "LNAM": "022633D4F5790009", "LNAM_REFS": null, "FFPT_RIND": null, "EXPSOU": null, "NATSUR": [ "9" ], "NATQUA": null, "NOBJNM": null, "OBJNAM": null, "QUASOU": [ "2" ], "SOUACC": null, "STATUS": null, "TECSOU": null, "VALSOU": null, "VERDAT": null, "WATLEV": 4, "INFORM": null, "NINFOM": null, "NTXTDS": null, "SCAMAX": null, "SCAMIN": null, "TXTDSC": null, "RECDAT": null, "RECIND": null, "SORDAT": "20150206", "SORIND": "US,US,reprt,L-246-2015", "_enc_cell": "US4TB3P0" }, "geometry": { "type": "Point", "coordinates": [ 134.5221405, 7.3427081 ] } },
{ "type": "Feature", "properties": { "RCID": 898, "PRIM": 1, "GRUP": 2, "OBJL": 153, "RVER": 1, "AGEN": 550, "FIDN": 903015233, "FIDS": 9, "LNAM": "022635D2EB410009", "LNAM_REFS": null, "FFPT_RIND": null, "EXPSOU": null, "NATSUR": [ "9" ], "NATQUA": null, "NOBJNM": null, "OBJNAM": null, "QUASOU": [ "2" ], "SOUACC": null, "STATUS": null, "TECSOU": null, "VALSOU": null, "VERDAT": null, "WATLEV": 4, "INFORM": null, "NINFOM": null, "NTXTDS": null, "SCAMAX": null, "SCAMIN": null, "TXTDSC": null, "RECDAT": null, "RECIND": null, "SORDAT": "20150206", "SORIND": "US,US,reprt,L-246-2015", "_enc_cell": "US4TB3P0" }, "geometry": { "type": "Point", "coordinates": [ 134.519577, 7.343122 ] } },
{ "type": "Feature", "properties": { "RCID": 899, "PRIM": 1, "GRUP": 2, "OBJL": 153, "RVER": 1, "AGEN": 550, "FIDN": 118716154, "FIDS": 9, "LNAM": "0226071376FA0009", "LNAM_REFS": null, "FFPT_RIND": null, "EXPSOU": 1.0, "NATSUR": [ "9" ], "NATQUA": null, "NOBJNM": null, "OBJNAM": null, "QUASOU": null, "SOUACC": null, "STATUS": null, "TECSOU": null, "VALSOU": null, "VERDAT": null, "WATLEV": 4, "INFORM": null, "NINFOM": null, "NTXTDS": null, "SCAMAX": null, "SCAMIN": 44999.0, "TXTDSC": null, "RECDAT": null, "RECIND": null, "SORDAT": "20150206", "SORIND": "US,US,reprt,L-246-2015", "_enc_cell": "US4TB3P0" }, "geometry": { "type": "Point", "coordinates": [ 134.5189799, 7.3478646 ] } },
{ "type": "Feature", "properties": { "RCID": 900, "PRIM": 1, "GRUP": 2, "OBJL": 153, "RVER": 1, "AGEN": 550, "FIDN": 726551161, "FIDS": 9, "LNAM": "02262B4E4A790009", "LNAM_REFS": null, "FFPT_RIND": null, "EXPSOU": null, "NATSUR": [ "9" ], "NATQUA": null, "NOBJNM": null, "OBJNAM": null, "QUASOU": [ "2" ], "SOUACC": null, "STATUS": null, "TECSOU": null, "VALSOU": null, "VERDAT": null, "WATLEV": 4, "INFORM": null, "NINFOM": null, "NTXTDS": null, "SCAMAX": null, "SCAMIN": null, "TXTDSC": null, "RECDAT": null, "RECIND": null, "SORDAT": "20150206", "SORIND": "US,US,reprt,L-246-2015", "_enc_cell": "US4TB3P0" }, "geometry": { "type": "Point", "coordinates": [ 134.5180206, 7.3464055 ] } },
{ "type": "Feature", "properties": { "RCID": 901, "PRIM": 1, "GRUP": 2, "OBJL": 153, "RVER": 1, "AGEN": 550, "FIDN": 326888101, "FIDS": 9, "LNAM": "0226137BEAA50009", "LNAM_REFS": null, "FFPT_RIND": null, "EXPSOU": null, "NATSUR": null, "NATQUA": null, "NOBJNM": null, "OBJNAM": null, "QUASOU": null, "SOUACC": null, "STATUS": null, "TECSOU": null, "VALSOU": 3.4, "VERDAT": null, "WATLEV": 3, "INFORM": null, "NINFOM": null, "NTXTDS": null, "SCAMAX": null, "SCAMIN": null, "TXTDSC": null, "RECDAT": null, "RECIND": null, "SORDAT": "20150206", "SORIND": "US,US,reprt,L-246-2015", "_enc_cell": "US4TB3P0" }, "geometry": { "type": "Point", "coordinates": [ 134.5162201, 7.2926359 ] } },
{ "type": "Feature", "properties": { "RCID": 902, "PRIM": 1, "GRUP": 2, "OBJL": 153, "RVER": 1, "AGEN": 550, "FIDN": 104408582, "FIDS": 9, "LNAM": "0226063926060009", "LNAM_REFS": null, "FFPT_RIND": null, "EXPSOU": 2.0, "NATSUR": null, "NATQUA": null, "NOBJNM": null, "OBJNAM": null, "QUASOU": null, "SOUACC": null, "STATUS": null, "TECSOU": null, "VALSOU": 0.1, "VERDAT": null, "WATLEV": 3, "INFORM": null, "NINFOM": null, "NTXTDS": null, "SCAMAX": null, "SCAMIN": null, "TXTDSC": null, "RECDAT": null, "RECIND": null, "SORDAT": "20150206", "SORIND": "US,US,reprt,L-246-2015", "_enc_cell": "US4TB3P0" }, "geometry": { "type": "Point", "coordinates": [ 134.5119171, 7.3428721 ] } },
{ "type": "Feature", "properties": { "RCID": 903, "PRIM": 1, "GRUP": 2, "OBJL": 153, "RVER": 1, "AGEN": 550, "FIDN": 958773533, "FIDS": 9, "LNAM": "02263925B91D0009", "LNAM_REFS": null, "FFPT_RIND": null, "EXPSOU": 2.0, "NATSUR": null, "NATQUA": null, "NOBJNM": null, "OBJNAM": null, "QUASOU": null, "SOUACC": null, "STATUS": null, "TECSOU": null, "VALSOU": 17.0, "VERDAT": null, "WATLEV": 3, "INFORM": null, "NINFOM": null, "NTXTDS": null, "SCAMAX": null, "SCAMIN": null, "TXTDSC": null, "RECDAT": null, "RECIND": null, "SORDAT": "20150206", "SORIND": "US,US,reprt,L-246-2015", "_enc_cell": "US4TB3P0" }, "geometry": { "type": "Point", "coordinates": [ 134.5038757, 7.3061557 ] } },
{ "type": "Feature", "properties": { "RCID": 904, "PRIM": 1, "GRUP": 2, "OBJL": 153, "RVER": 1, "AGEN": 550, "FIDN": 209277620, "FIDS": 9, "LNAM": "02260C7952B40009", "LNAM_REFS": null, "FFPT_RIND": null, "EXPSOU": 2.0, "NATSUR": [ "9" ], "NATQUA": null, "NOBJNM": null, "OBJNAM": null, "QUASOU": null, "SOUACC": null, "STATUS": null, "TECSOU": null, "VALSOU": 0.0, "VERDAT": null, "WATLEV": 5, "INFORM": null, "NINFOM": null, "NTXTDS": null, "SCAMAX": null, "SCAMIN": null, "TXTDSC": null, "RECDAT": null, "RECIND": null, "SORDAT": "20150206", "SORIND": "US,US,reprt,L-246-2015", "_enc_cell": "US4TB3P0" }, "geometry": { "type": "Point", "coordinates": [ 134.49800110000001, 7.3987165 ] } },
{ "type": "Feature", "properties": { "RCID": 905, "PRIM": 1, "GRUP": 2, "OBJL": 153, "RVER": 1, "AGEN": 550, "FIDN": 941107633, "FIDS": 9, "LNAM": "0226381829B10009", "LNAM_REFS": null, "FFPT_RIND": null, "EXPSOU": 2.0, "NATSUR": null, "NATQUA": null, "NOBJNM": null, "OBJNAM": null, "QUASOU": null, "SOUACC": null, "STATUS": null, "TECSOU": null, "VALSOU": 14.9, "VERDAT": null, "WATLEV": 3, "INFORM": null, "NINFOM": null, "NTXTDS": null, "SCAMAX": null, "SCAMIN": null, "TXTDSC": null, "RECDAT": null, "RECIND": null, "SORDAT": "20150206", "SORIND": "US,US,reprt,L-246-2015", "_enc_cell": "US4TB3P0" }, "geometry": { "type": "Point", "coordinates": [ 134.4966736, 7.369936 ] } },
{ "type": "Feature", "properties": { "RCID": 906, "PRIM": 1, "GRUP": 2, "OBJL": 153, "RVER": 1, "AGEN": 550, "FIDN": 493982780, "FIDS": 9, "LNAM": "02261D71943C0009", "LNAM_REFS": null, "FFPT_RIND": null, "EXPSOU": 2.0, "NATSUR": [ "9" ], "NATQUA": null, "NOBJNM": null, "OBJNAM": null, "QUASOU": null, "SOUACC": null, "STATUS": null, "TECSOU": null, "VALSOU": 0.0, "VERDAT": null, "WATLEV": 5, "INFORM": null, "NINFOM": null, "NTXTDS": null, "SCAMAX": null, "SCAMIN": null, "TXTDSC": null, "RECDAT": null, "RECIND": null, "SORDAT": "20150206", "SORIND": "US,US,reprt,L-246-2015", "_enc_cell": "US4TB3P0" }, "geometry": { "type": "Point", "coordinates": [ 134.493988, 7.3881221 ] } },
{ "type": "Feature", "properties": { "RCID": 907, "PRIM": 1, "GRUP": 2, "OBJL": 153, "RVER": 1, "AGEN": 550, "FIDN": 959930733, "FIDS": 9, "LNAM": "02263937616D0009", "LNAM_REFS": null, "FFPT_RIND": null, "EXPSOU": null, "NATSUR": [ "9" ], "NATQUA": null, "NOBJNM": null, "OBJNAM": null, "QUASOU": [ "2" ], "SOUACC": null, "STATUS": null, "TECSOU": null, "VALSOU": null, "VERDAT": null, "WATLEV": 4, "INFORM": null, "NINFOM": null, "NTXTDS": null, "SCAMAX": null, "SCAMIN": null, "TXTDSC": null, "RECDAT": null, "RECIND": null, "SORDAT": "20150206", "SORIND": "US,US,reprt,L-246-2015", "_enc_cell": "US4TB3P0" }, "geometry": { "type": "Point", "coordinates": [ 134.4913178, 7.3932748 ] } },
{ "type": "Feature", "properties": { "RCID": 908, "PRIM": 1, "GRUP": 2, "OBJL": 153, "RVER": 1, "AGEN": 550, "FIDN": 314374323, "FIDS": 9, "LNAM": "022612BCF8B30009", "LNAM_REFS": null, "FFPT_RIND": null, "EXPSOU": 2.0, "NATSUR": null, "NATQUA": null, "NOBJNM": null, "OBJNAM": null, "QUASOU": null, "SOUACC": null, "STATUS": null, "TECSOU": null, "VALSOU": 17.9, "VERDAT": null, "WATLEV": 3, "INFORM": null, "NINFOM": null, "NTXTDS": null, "SCAMAX": null, "SCAMIN": null, "TXTDSC": null, "RECDAT": null, "RECIND": null, "SORDAT": "20150206", "SORIND": "US,US,reprt,L-246-2015", "_enc_cell": "US4TB3P0" }, "geometry": { "type": "Point", "coordinates": [ 134.4901733, 7.3858972 ] } },
{ "type": "Feature", "properties": { "RCID": 982, "PRIM": 1, "GRUP": 2, "OBJL": 153, "RVER": 1, "AGEN": 550, "FIDN": 690070831, "FIDS": 9, "LNAM": "02262921A52F0009", "LNAM_REFS": null, "FFPT_RIND": null, "EXPSOU": 2.0, "NATSUR": null, "NATQUA": null, "NOBJNM": null, "OBJNAM": null, "QUASOU": null, "SOUACC": null, "STATUS": null, "TECSOU": null, "VALSOU": 2.0, "VERDAT": null, "WATLEV": 3, "INFORM": null, "NINFOM": null, "NTXTDS": null, "SCAMAX": null, "SCAMIN": null, "TXTDSC": null, "RECDAT": null, "RECIND": null, "SORDAT": "20150206", "SORIND": "US,US,reprt,L-246-2015", "_enc_cell": "US4TB3P0" }, "geometry": { "type": "Point", "coordinates": [ 134.53302, 7.2888055 ] } },
{ "type": "Feature", "properties": { "RCID": 984, "PRIM": 1, "GRUP": 2, "OBJL": 153, "RVER": 1, "AGEN": 550, "FIDN": 756599120, "FIDS": 9, "LNAM": "02262D18C9500009", "LNAM_REFS": null, "FFPT_RIND": null, "EXPSOU": 2.0, "NATSUR": null, "NATQUA": null, "NOBJNM": null, "OBJNAM": null, "QUASOU": null, "SOUACC": null, "STATUS": null, "TECSOU": null, "VALSOU": 2.3, "VERDAT": null, "WATLEV": 3, "INFORM": null, "NINFOM": null, "NTXTDS": null, "SCAMAX": null, "SCAMIN": null, "TXTDSC": null, "RECDAT": null, "RECIND": null, "SORDAT": "20150206", "SORIND": "US,US,reprt,L-246-2015", "_enc_cell": "US4TB3P0" }, "geometry": { "type": "Point", "coordinates": [ 134.524597199999988, 7.2950335 ] } },
{ "type": "Feature", "properties": { "RCID": 985, "PRIM": 1, "GRUP": 2, "OBJL": 153, "RVER": 1, "AGEN": 550, "FIDN": 898983605, "FIDS": 9, "LNAM": "0226359566B50009", "LNAM_REFS": null, "FFPT_RIND": null, "EXPSOU": 2.0, "NATSUR": null, "NATQUA": null, "NOBJNM": null, "OBJNAM": null, "QUASOU": null, "SOUACC": null, "STATUS": null, "TECSOU": null, "VALSOU": 11.7, "VERDAT": null, "WATLEV": 3, "INFORM": null, "NINFOM": null, "NTXTDS": null, "SCAMAX": null, "SCAMIN": null, "TXTDSC": null, "RECDAT": null, "RECIND": null, "SORDAT": "20150206", "SORIND": "US,US,reprt,L-246-2015", "_enc_cell": "US4TB3P0" }, "geometry": { "type": "Point", "coordinates": [ 134.522674599999988, 7.3406887 ] } },
{ "type": "Feature", "properties": { "RCID": 986, "PRIM": 1, "GRUP": 2, "OBJL": 153, "RVER": 1, "AGEN": 550, "FIDN": 582422743, "FIDS": 9, "LNAM": "022622B710D70009", "LNAM_REFS": null, "FFPT_RIND": null, "EXPSOU": 2.0, "NATSUR": null, "NATQUA": null, "NOBJNM": null, "OBJNAM": null, "QUASOU": null, "SOUACC": null, "STATUS": null, "TECSOU": null, "VALSOU": 7.7, "VERDAT": null, "WATLEV": 3, "INFORM": null, "NINFOM": null, "NTXTDS": null, "SCAMAX": null, "SCAMIN": null, "TXTDSC": null, "RECDAT": null, "RECIND": null, "SORDAT": "20150206", "SORIND": "US,US,reprt,L-246-2015", "_enc_cell": "US4TB3P0" }, "geometry": { "type": "Point", "coordinates": [ 134.5225678, 7.3106141 ] } },
{ "type": "Feature", "properties": { "RCID": 987, "PRIM": 1, "GRUP": 2, "OBJL": 153, "RVER": 1, "AGEN": 550, "FIDN": 762490258, "FIDS": 9, "LNAM": "02262D72AD920009", "LNAM_REFS": null, "FFPT_RIND": null, "EXPSOU": 2.0, "NATSUR": null, "NATQUA": null, "NOBJNM": null, "OBJNAM": null, "QUASOU": null, "SOUACC": null, "STATUS": null, "TECSOU": null, "VALSOU": 0.1, "VERDAT": null, "WATLEV": 3, "INFORM": null, "NINFOM": null, "NTXTDS": null, "SCAMAX": null, "SCAMIN": null, "TXTDSC": null, "RECDAT": null, "RECIND": null, "SORDAT": "20150206", "SORIND": "US,US,reprt,L-246-2015", "_enc_cell": "US4TB3P0" }, "geometry": { "type": "Point", "coordinates": [ 134.5168152, 7.3454557 ] } },
{ "type": "Feature", "properties": { "RCID": 988, "PRIM": 1, "GRUP": 2, "OBJL": 153, "RVER": 1, "AGEN": 550, "FIDN": 204874018, "FIDS": 9, "LNAM": "02260C3621220009", "LNAM_REFS": null, "FFPT_RIND": null, "EXPSOU": null, "NATSUR": [ "9" ], "NATQUA": null, "NOBJNM": null, "OBJNAM": null, "QUASOU": [ "2" ], "SOUACC": null, "STATUS": null, "TECSOU": null, "VALSOU": null, "VERDAT": null, "WATLEV": 4, "INFORM": null, "NINFOM": null, "NTXTDS": null, "SCAMAX": null, "SCAMIN": null, "TXTDSC": null, "RECDAT": null, "RECIND": null, "SORDAT": "20150206", "SORIND": "US,US,reprt,L-246-2015", "_enc_cell": "US4TB3P0" }, "geometry": { "type": "Point", "coordinates": [ 134.5166168, 7.296236 ] } },
{ "type": "Feature", "properties": { "RCID": 989, "PRIM": 1, "GRUP": 2, "OBJL": 153, "RVER": 1, "AGEN": 550, "FIDN": 76492289, "FIDS": 9, "LNAM": "0226048F2E010009", "LNAM_REFS": null, "FFPT_RIND": null, "EXPSOU": 2.0, "NATSUR": null, "NATQUA": null, "NOBJNM": null, "OBJNAM": null, "QUASOU": null, "SOUACC": null, "STATUS": null, "TECSOU": null, "VALSOU": 9.0, "VERDAT": null, "WATLEV": 3, "INFORM": null, "NINFOM": null, "NTXTDS": null, "SCAMAX": null, "SCAMIN": null, "TXTDSC": null, "RECDAT": null, "RECIND": null, "SORDAT": "20150206", "SORIND": "US,US,reprt,L-246-2015", "_enc_cell": "US4TB3P0" }, "geometry": { "type": "Point", "coordinates": [ 134.504272500000013, 7.3017278 ] } },
{ "type": "Feature", "properties": { "RCID": 990, "PRIM": 1, "GRUP": 2, "OBJL": 153, "RVER": 1, "AGEN": 550, "FIDN": 56213953, "FIDS": 9, "LNAM": "02260359C1C10009", "LNAM_REFS": null, "FFPT_RIND": null, "EXPSOU": null, "NATSUR": [ "9" ], "NATQUA": null, "NOBJNM": null, "OBJNAM": null, "QUASOU": [ "2" ], "SOUACC": null, "STATUS": null, "TECSOU": null, "VALSOU": null, "VERDAT": null, "WATLEV": 4, "INFORM": null, "NINFOM": null, "NTXTDS": null, "SCAMAX": null, "SCAMIN": null, "TXTDSC": null, "RECDAT": null, "RECIND": null, "SORDAT": "20150206", "SORIND": "US,US,reprt,L-246-2015", "_enc_cell": "US4TB3P0" }, "geometry": { "type": "Point", "coordinates": [ 134.5025177, 7.3801971 ] } },
{ "type": "Feature", "properties": { "RCID": 991, "PRIM": 1, "GRUP": 2, "OBJL": 153, "RVER": 1, "AGEN": 550, "FIDN": 125548453, "FIDS": 9, "LNAM": "0226077BB7A50009", "LNAM_REFS": null, "FFPT_RIND": null, "EXPSOU": 2.0, "NATSUR": null, "NATQUA": null, "NOBJNM": null, "OBJNAM": null, "QUASOU": null, "SOUACC": null, "STATUS": null, "TECSOU": null, "VALSOU": 15.9, "VERDAT": null, "WATLEV": 3, "INFORM": null, "NINFOM": null, "NTXTDS": null, "SCAMAX": null, "SCAMIN": 44999.0, "TXTDSC": null, "RECDAT": null, "RECIND": null, "SORDAT": "20150206", "SORIND": "US,US,reprt,L-246-2015", "_enc_cell": "US4TB3P0" }, "geometry": { "type": "Point", "coordinates": [ 134.4974518, 7.3693972 ] } },
{ "type": "Feature", "properties": { "RCID": 993, "PRIM": 1, "GRUP": 2, "OBJL": 153, "RVER": 1, "AGEN": 550, "FIDN": 638432136, "FIDS": 9, "LNAM": "0226260DB3880009", "LNAM_REFS": null, "FFPT_RIND": null, "EXPSOU": null, "NATSUR": [ "9" ], "NATQUA": null, "NOBJNM": null, "OBJNAM": null, "QUASOU": [ "2" ], "SOUACC": null, "STATUS": null, "TECSOU": null, "VALSOU": null, "VERDAT": null, "WATLEV": 4, "INFORM": null, "NINFOM": null, "NTXTDS": null, "SCAMAX": null, "SCAMIN": null, "TXTDSC": null, "RECDAT": null, "RECIND": null, "SORDAT": "20150206", "SORIND": "US,US,reprt,L-246-2015", "_enc_cell": "US4TB3P0" }, "geometry": { "type": "Point", "coordinates": [ 134.491775499999989, 7.3833666 ] } },
{ "type": "Feature", "properties": { "RCID": 1061, "PRIM": 1, "GRUP": 2, "OBJL": 153, "RVER": 1, "AGEN": 550, "FIDN": 905678519, "FIDS": 9, "LNAM": "022635FB8EB70009", "LNAM_REFS": null, "FFPT_RIND": null, "EXPSOU": null, "NATSUR": [ "9" ], "NATQUA": null, "NOBJNM": null, "OBJNAM": null, "QUASOU": [ "2" ], "SOUACC": null, "STATUS": null, "TECSOU": null, "VALSOU": null, "VERDAT": null, "WATLEV": 3, "INFORM": null, "NINFOM": null, "NTXTDS": null, "SCAMAX": null, "SCAMIN": null, "TXTDSC": null, "RECDAT": null, "RECIND": null, "SORDAT": "20150206", "SORIND": "US,US,reprt,L-246-2015", "_enc_cell": "US4TB3P0" }, "geometry": { "type": "Point", "coordinates": [ 134.5693054, 7.3347807 ] } },
{ "type": "Feature", "properties": { "RCID": 1062, "PRIM": 1, "GRUP": 2, "OBJL": 153, "RVER": 1, "AGEN": 550, "FIDN": 606876869, "FIDS": 9, "LNAM": "0226242C34C50009", "LNAM_REFS": null, "FFPT_RIND": null, "EXPSOU": 2.0, "NATSUR": null, "NATQUA": null, "NOBJNM": null, "OBJNAM": null, "QUASOU": null, "SOUACC": null, "STATUS": null, "TECSOU": null, "VALSOU": 7.6, "VERDAT": null, "WATLEV": 3, "INFORM": null, "NINFOM": null, "NTXTDS": null, "SCAMAX": null, "SCAMIN": null, "TXTDSC": null, "RECDAT": null, "RECIND": null, "SORDAT": "20150206", "SORIND": "US,US,reprt,L-246-2015", "_enc_cell": "US4TB3P0" }, "geometry": { "type": "Point", "coordinates": [ 134.559555100000011, 7.312139 ] } },
{ "type": "Feature", "properties": { "RCID": 1063, "PRIM": 1, "GRUP": 2, "OBJL": 153, "RVER": 1, "AGEN": 550, "FIDN": 425801287, "FIDS": 9, "LNAM": "0226196136470009", "LNAM_REFS": null, "FFPT_RIND": null, "EXPSOU": 2.0, "NATSUR": null, "NATQUA": null, "NOBJNM": null, "OBJNAM": null, "QUASOU": null, "SOUACC": null, "STATUS": null, "TECSOU": null, "VALSOU": 1.8, "VERDAT": null, "WATLEV": 3, "INFORM": null, "NINFOM": null, "NTXTDS": null, "SCAMAX": null, "SCAMIN": null, "TXTDSC": null, "RECDAT": null, "RECIND": null, "SORDAT": "20150206", "SORIND": "US,US,reprt,L-246-2015", "_enc_cell": "US4TB3P0" }, "geometry": { "type": "Point", "coordinates": [ 134.5452118, 7.2995806 ] } },
{ "type": "Feature", "properties": { "RCID": 1064, "PRIM": 1, "GRUP": 2, "OBJL": 153, "RVER": 1, "AGEN": 550, "FIDN": 309946309, "FIDS": 9, "LNAM": "0226127967C50009", "LNAM_REFS": null, "FFPT_RIND": null, "EXPSOU": 2.0, "NATSUR": null, "NATQUA": null, "NOBJNM": null, "OBJNAM": null, "QUASOU": null, "SOUACC": null, "STATUS": null, "TECSOU": null, "VALSOU": 5.1, "VERDAT": null, "WATLEV": 3, "INFORM": null, "NINFOM": null, "NTXTDS": null, "SCAMAX": null, "SCAMIN": null, "TXTDSC": null, "RECDAT": null, "RECIND": null, "SORDAT": "20150206", "SORIND": "US,US,reprt,L-246-2015", "_enc_cell": "US4TB3P0" }, "geometry": { "type": "Point", "coordinates": [ 134.5417023, 7.2984581 ] } },
{ "type": "Feature", "properties": { "RCID": 1065, "PRIM": 1, "GRUP": 2, "OBJL": 153, "RVER": 1, "AGEN": 550, "FIDN": 649086433, "FIDS": 9, "LNAM": "022626B045E10009", "LNAM_REFS": null, "FFPT_RIND": null, "EXPSOU": 2.0, "NATSUR": null, "NATQUA": null, "NOBJNM": null, "OBJNAM": null, "QUASOU": null, "SOUACC": null, "STATUS": null, "TECSOU": null, "VALSOU": 9.2, "VERDAT": null, "WATLEV": 3, "INFORM": null, "NINFOM": null, "NTXTDS": null, "SCAMAX": null, "SCAMIN": null, "TXTDSC": null, "RECDAT": null, "RECIND": null, "SORDAT": "20150206", "SORIND": "US,US,reprt,L-246-2015", "_enc_cell": "US4TB3P0" }, "geometry": { "type": "Point", "coordinates": [ 134.5393219, 7.2929859 ] } },
{ "type": "Feature", "properties": { "RCID": 1066, "PRIM": 1, "GRUP": 2, "OBJL": 153, "RVER": 1, "AGEN": 550, "FIDN": 264016164, "FIDS": 9, "LNAM": "02260FBC91240009", "LNAM_REFS": null, "FFPT_RIND": null, "EXPSOU": 2.0, "NATSUR": null, "NATQUA": null, "NOBJNM": null, "OBJNAM": null, "QUASOU": null, "SOUACC": null, "STATUS": null, "TECSOU": null, "VALSOU": 1.8, "VERDAT": null, "WATLEV": 3, "INFORM": null, "NINFOM": null, "NTXTDS": null, "SCAMAX": null, "SCAMIN": null, "TXTDSC": null, "RECDAT": null, "RECIND": null, "SORDAT": "20150206", "SORIND": "US,US,reprt,L-246-2015", "_enc_cell": "US4TB3P0" }, "geometry": { "type": "Point", "coordinates": [ 134.535278299999987, 7.2964778 ] } },
{ "type": "Feature", "properties": { "RCID": 1067, "PRIM": 1, "GRUP": 2, "OBJL": 153, "RVER": 1, "AGEN": 550, "FIDN": 452018731, "FIDS": 9, "LNAM": "02261AF1422B0009", "LNAM_REFS": null, "FFPT_RIND": null, "EXPSOU": null, "NATSUR": [ "9" ], "NATQUA": null, "NOBJNM": null, "OBJNAM": null, "QUASOU": [ "2" ], "SOUACC": null, "STATUS": null, "TECSOU": null, "VALSOU": null, "VERDAT": null, "WATLEV": 4, "INFORM": null, "NINFOM": null, "NTXTDS": null, "SCAMAX": null, "SCAMIN": null, "TXTDSC": null, "RECDAT": null, "RECIND": null, "SORDAT": "20150206", "SORIND": "US,US,reprt,L-246-2015", "_enc_cell": "US4TB3P0" }, "geometry": { "type": "Point", "coordinates": [ 134.5305481, 7.2902112 ] } },
{ "type": "Feature", "properties": { "RCID": 1068, "PRIM": 1, "GRUP": 2, "OBJL": 153, "RVER": 1, "AGEN": 550, "FIDN": 336968680, "FIDS": 9, "LNAM": "02261415BBE80009", "LNAM_REFS": null, "FFPT_RIND": null, "EXPSOU": null, "NATSUR": [ "9" ], "NATQUA": null, "NOBJNM": null, "OBJNAM": null, "QUASOU": [ "2" ], "SOUACC": null, "STATUS": null, "TECSOU": null, "VALSOU": null, "VERDAT": null, "WATLEV": 4, "INFORM": null, "NINFOM": null, "NTXTDS": null, "SCAMAX": null, "SCAMIN": null, "TXTDSC": null, "RECDAT": null, "RECIND": null, "SORDAT": "20150206", "SORIND": "US,US,reprt,L-246-2015", "_enc_cell": "US4TB3P0" }, "geometry": { "type": "Point", "coordinates": [ 134.5025482, 7.2878556 ] } },
{ "type": "Feature", "properties": { "RCID": 1069, "PRIM": 1, "GRUP": 2, "OBJL": 153, "RVER": 1, "AGEN": 550, "FIDN": 40941305, "FIDS": 9, "LNAM": "02260270B6F90009", "LNAM_REFS": null, "FFPT_RIND": null, "EXPSOU": 2.0, "NATSUR": null, "NATQUA": null, "NOBJNM": null, "OBJNAM": null, "QUASOU": null, "SOUACC": null, "STATUS": null, "TECSOU": null, "VALSOU": 0.2, "VERDAT": null, "WATLEV": 3, "INFORM": null, "NINFOM": null, "NTXTDS": null, "SCAMAX": null, "SCAMIN": null, "TXTDSC": null, "RECDAT": null, "RECIND": null, "SORDAT": "20150206", "SORIND": "US,US,reprt,L-246-2015", "_enc_cell": "US4TB3P0" }, "geometry": { "type": "Point", "coordinates": [ 134.4974518, 7.398211 ] } },
{ "type": "Feature", "properties": { "RCID": 1070, "PRIM": 1, "GRUP": 2, "OBJL": 153, "RVER": 1, "AGEN": 550, "FIDN": 51058545, "FIDS": 9, "LNAM": "0226030B17710009", "LNAM_REFS": null, "FFPT_RIND": null, "EXPSOU": 2.0, "NATSUR": [ "9" ], "NATQUA": null, "NOBJNM": null, "OBJNAM": null, "QUASOU": null, "SOUACC": null, "STATUS": null, "TECSOU": null, "VALSOU": 0.0, "VERDAT": null, "WATLEV": 5, "INFORM": null, "NINFOM": null, "NTXTDS": null, "SCAMAX": null, "SCAMIN": null, "TXTDSC": null, "RECDAT": null, "RECIND": null, "SORDAT": "20150206", "SORIND": "US,US,reprt,L-246-2015", "_enc_cell": "US4TB3P0" }, "geometry": { "type": "Point", "coordinates": [ 134.4964752, 7.3866611 ] } },
{ "type": "Feature", "properties": { "RCID": 1071, "PRIM": 1, "GRUP": 2, "OBJL": 153, "RVER": 1, "AGEN": 550, "FIDN": 438948079, "FIDS": 9, "LNAM": "02261A29D0EF0009", "LNAM_REFS": null, "FFPT_RIND": null, "EXPSOU": null, "NATSUR": [ "9" ], "NATQUA": null, "NOBJNM": null, "OBJNAM": null, "QUASOU": [ "2" ], "SOUACC": null, "STATUS": null, "TECSOU": null, "VALSOU": null, "VERDAT": null, "WATLEV": 4, "INFORM": null, "NINFOM": null, "NTXTDS": null, "SCAMAX": null, "SCAMIN": null, "TXTDSC": null, "RECDAT": null, "RECIND": null, "SORDAT": "20150206", "SORIND": "US,US,reprt,L-246-2015", "_enc_cell": "US4TB3P0" }, "geometry": { "type": "Point", "coordinates": [ 134.4939728, 7.3783555 ] } },
{ "type": "Feature", "properties": { "RCID": 1072, "PRIM": 1, "GRUP": 2, "OBJL": 153, "RVER": 1, "AGEN": 550, "FIDN": 743247843, "FIDS": 9, "LNAM": "02262C4D0FE30009", "LNAM_REFS": null, "FFPT_RIND": null, "EXPSOU": 2.0, "NATSUR": null, "NATQUA": null, "NOBJNM": null, "OBJNAM": null, "QUASOU": null, "SOUACC": null, "STATUS": null, "TECSOU": null, "VALSOU": 3.6, "VERDAT": null, "WATLEV": 3, "INFORM": null, "NINFOM": null, "NTXTDS": null, "SCAMAX": null, "SCAMIN": null, "TXTDSC": null, "RECDAT": null, "RECIND": null, "SORDAT": "20150206", "SORIND": "US,US,reprt,L-246-2015", "_enc_cell": "US4TB3P0" }, "geometry": { "type": "Point", "coordinates": [ 134.4922791, 7.3804641 ] } },
{ "type": "Feature", "properties": { "RCID": 1073, "PRIM": 1, "GRUP": 2, "OBJL": 153, "RVER": 1, "AGEN": 550, "FIDN": 253499262, "FIDS": 9, "LNAM": "02260F1C177E0009", "LNAM_REFS": null, "FFPT_RIND": null, "EXPSOU": null, "NATSUR": [ "9" ], "NATQUA": null, "NOBJNM": null, "OBJNAM": null, "QUASOU": [ "2" ], "SOUACC": null, "STATUS": null, "TECSOU": null, "VALSOU": null, "VERDAT": null, "WATLEV": 4, "INFORM": null, "NINFOM": null, "NTXTDS": null, "SCAMAX": null, "SCAMIN": null, "TXTDSC": null, "RECDAT": null, "RECIND": null, "SORDAT": "20150206", "SORIND": "US,US,reprt,L-246-2015", "_enc_cell": "US4TB3P0" }, "geometry": { "type": "Point", "coordinates": [ 134.4917145, 7.3813863 ] } },
{ "type": "Feature", "properties": { "RCID": 1074, "PRIM": 1, "GRUP": 2, "OBJL": 153, "RVER": 1, "AGEN": 550, "FIDN": 886540012, "FIDS": 9, "LNAM": "022634D786EC0009", "LNAM_REFS": null, "FFPT_RIND": null, "EXPSOU": null, "NATSUR": [ "9" ], "NATQUA": null, "NOBJNM": null, "OBJNAM": null, "QUASOU": [ "2" ], "SOUACC": null, "STATUS": null, "TECSOU": null, "VALSOU": null, "VERDAT": null, "WATLEV": 4, "INFORM": null, "NINFOM": null, "NTXTDS": null, "SCAMAX": null, "SCAMIN": null, "TXTDSC": null, "RECDAT": null, "RECIND": null, "SORDAT": "20150206", "SORIND": "US,US,reprt,L-246-2015", "_enc_cell": "US4TB3P0" }, "geometry": { "type": "Point", "coordinates": [ 134.4907684, 7.3940444 ] } },
{ "type": "Feature", "properties": { "RCID": 1149, "PRIM": 1, "GRUP": 2, "OBJL": 153, "RVER": 1, "AGEN": 550, "FIDN": 397131310, "FIDS": 9, "LNAM": "022617ABBE2E0009", "LNAM_REFS": null, "FFPT_RIND": null, "EXPSOU": 2.0, "NATSUR": null, "NATQUA": null, "NOBJNM": null, "OBJNAM": null, "QUASOU": null, "SOUACC": null, "STATUS": null, "TECSOU": null, "VALSOU": 8.1, "VERDAT": null, "WATLEV": 3, "INFORM": null, "NINFOM": null, "NTXTDS": null, "SCAMAX": null, "SCAMIN": null, "TXTDSC": null, "RECDAT": null, "RECIND": null, "SORDAT": "20150206", "SORIND": "US,US,reprt,L-246-2015", "_enc_cell": "US4TB3P0" }, "geometry": { "type": "Point", "coordinates": [ 134.536972100000014, 7.2927084 ] } },
{ "type": "Feature", "properties": { "RCID": 1150, "PRIM": 1, "GRUP": 2, "OBJL": 153, "RVER": 1, "AGEN": 550, "FIDN": 152317577, "FIDS": 9, "LNAM": "022609142E890009", "LNAM_REFS": null, "FFPT_RIND": null, "EXPSOU": 2.0, "NATSUR": null, "NATQUA": null, "NOBJNM": null, "OBJNAM": null, "QUASOU": null, "SOUACC": null, "STATUS": null, "TECSOU": null, "VALSOU": 9.6, "VERDAT": null, "WATLEV": 3, "INFORM": null, "NINFOM": null, "NTXTDS": null, "SCAMAX": null, "SCAMIN": null, "TXTDSC": null, "RECDAT": null, "RECIND": null, "SORDAT": "20150206", "SORIND": "US,US,reprt,L-246-2015", "_enc_cell": "US4TB3P0" }, "geometry": { "type": "Point", "coordinates": [ 134.5253296, 7.2976027 ] } },
{ "type": "Feature", "properties": { "RCID": 1151, "PRIM": 1, "GRUP": 2, "OBJL": 153, "RVER": 1, "AGEN": 550, "FIDN": 537686699, "FIDS": 9, "LNAM": "0226200C72AB0009", "LNAM_REFS": null, "FFPT_RIND": null, "EXPSOU": 2.0, "NATSUR": null, "NATQUA": null, "NOBJNM": null, "OBJNAM": null, "QUASOU": null, "SOUACC": null, "STATUS": null, "TECSOU": null, "VALSOU": 6.1, "VERDAT": null, "WATLEV": 3, "INFORM": null, "NINFOM": null, "NTXTDS": null, "SCAMAX": null, "SCAMIN": null, "TXTDSC": null, "RECDAT": null, "RECIND": null, "SORDAT": "20150206", "SORIND": "US,US,reprt,L-246-2015", "_enc_cell": "US4TB3P0" }, "geometry": { "type": "Point", "coordinates": [ 134.523513799999989, 7.3409362 ] } },
{ "type": "Feature", "properties": { "RCID": 1152, "PRIM": 1, "GRUP": 2, "OBJL": 153, "RVER": 1, "AGEN": 550, "FIDN": 623506389, "FIDS": 9, "LNAM": "02262529F3D50009", "LNAM_REFS": null, "FFPT_RIND": null, "EXPSOU": 2.0, "NATSUR": null, "NATQUA": null, "NOBJNM": null, "OBJNAM": null, "QUASOU": null, "SOUACC": null, "STATUS": null, "TECSOU": null, "VALSOU": 2.8, "VERDAT": null, "WATLEV": 3, "INFORM": null, "NINFOM": null, "NTXTDS": null, "SCAMAX": null, "SCAMIN": null, "TXTDSC": null, "RECDAT": null, "RECIND": null, "SORDAT": "20150206", "SORIND": "US,US,reprt,L-246-2015", "_enc_cell": "US4TB3P0" }, "geometry": { "type": "Point", "coordinates": [ 134.5121307, 7.3416362 ] } },
{ "type": "Feature", "properties": { "RCID": 1153, "PRIM": 1, "GRUP": 2, "OBJL": 153, "RVER": 1, "AGEN": 550, "FIDN": 569523684, "FIDS": 9, "LNAM": "022621F23DE40009", "LNAM_REFS": null, "FFPT_RIND": null, "EXPSOU": 2.0, "NATSUR": null, "NATQUA": null, "NOBJNM": null, "OBJNAM": null, "QUASOU": null, "SOUACC": null, "STATUS": null, "TECSOU": null, "VALSOU": 4.8, "VERDAT": null, "WATLEV": 3, "INFORM": null, "NINFOM": null, "NTXTDS": null, "SCAMAX": null, "SCAMIN": null, "TXTDSC": null, "RECDAT": null, "RECIND": null, "SORDAT": "20150206", "SORIND": "US,US,reprt,L-246-2015", "_enc_cell": "US4TB3P0" }, "geometry": { "type": "Point", "coordinates": [ 134.510513300000014, 7.344986 ] } },
{ "type": "Feature", "properties": { "RCID": 1154, "PRIM": 1, "GRUP": 2, "OBJL": 153, "RVER": 1, "AGEN": 550, "FIDN": 237409219, "FIDS": 9, "LNAM": "02260E2693C30009", "LNAM_REFS": null, "FFPT_RIND": null, "EXPSOU": 2.0, "NATSUR": null, "NATQUA": null, "NOBJNM": null, "OBJNAM": null, "QUASOU": null, "SOUACC": null, "STATUS": null, "TECSOU": null, "VALSOU": 8.4, "VERDAT": null, "WATLEV": 3, "INFORM": null, "NINFOM": null, "NTXTDS": null, "SCAMAX": null, "SCAMIN": null, "TXTDSC": null, "RECDAT": null, "RECIND": null, "SORDAT": "20150206", "SORIND": "US,US,reprt,L-246-2015", "_enc_cell": "US4TB3P0" }, "geometry": { "type": "Point", "coordinates": [ 134.5062714, 7.2950721 ] } },
{ "type": "Feature", "properties": { "RCID": 1155, "PRIM": 1, "GRUP": 2, "OBJL": 153, "RVER": 1, "AGEN": 550, "FIDN": 917453133, "FIDS": 9, "LNAM": "022636AF394D0009", "LNAM_REFS": null, "FFPT_RIND": null, "EXPSOU": 2.0, "NATSUR": null, "NATQUA": null, "NOBJNM": null, "OBJNAM": null, "QUASOU": null, "SOUACC": null, "STATUS": null, "TECSOU": null, "VALSOU": 8.9, "VERDAT": null, "WATLEV": 3, "INFORM": null, "NINFOM": null, "NTXTDS": null, "SCAMAX": null, "SCAMIN": null, "TXTDSC": null, "RECDAT": null, "RECIND": null, "SORDAT": "20150206", "SORIND": "US,US,reprt,L-246-2015", "_enc_cell": "US4TB3P0" }, "geometry": { "type": "Point", "coordinates": [ 134.493866, 7.3796945 ] } },
{ "type": "Feature", "properties": { "RCID": 1156, "PRIM": 1, "GRUP": 2, "OBJL": 153, "RVER": 1, "AGEN": 550, "FIDN": 146834487, "FIDS": 9, "LNAM": "022608C084370009", "LNAM_REFS": null, "FFPT_RIND": null, "EXPSOU": null, "NATSUR": [ "9" ], "NATQUA": null, "NOBJNM": null, "OBJNAM": null, "QUASOU": [ "2" ], "SOUACC": null, "STATUS": null, "TECSOU": null, "VALSOU": null, "VERDAT": null, "WATLEV": 4, "INFORM": null, "NINFOM": null, "NTXTDS": null, "SCAMAX": null, "SCAMIN": 44999.0, "TXTDSC": null, "RECDAT": null, "RECIND": null, "SORDAT": "20150206", "SORIND": "US,US,reprt,L-246-2015", "_enc_cell": "US4TB3P0" }, "geometry": { "type": "Point", "coordinates": [ 134.49018860000001, 7.3904443 ] } },
{ "type": "Feature", "properties": { "RCID": 1236, "PRIM": 1, "GRUP": 2, "OBJL": 153, "RVER": 1, "AGEN": 550, "FIDN": 8703629, "FIDS": 9, "LNAM": "02260084CE8D0009", "LNAM_REFS": null, "FFPT_RIND": null, "EXPSOU": 2.0, "NATSUR": null, "NATQUA": null, "NOBJNM": null, "OBJNAM": null, "QUASOU": null, "SOUACC": null, "STATUS": null, "TECSOU": null, "VALSOU": 20.5, "VERDAT": null, "WATLEV": 3, "INFORM": null, "NINFOM": null, "NTXTDS": null, "SCAMAX": null, "SCAMIN": null, "TXTDSC": null, "RECDAT": null, "RECIND": null, "SORDAT": "20150206", "SORIND": "US,US,reprt,L-246-2015", "_enc_cell": "US4TB3P0" }, "geometry": { "type": "Point", "coordinates": [ 134.5548096, 7.304975 ] } },
{ "type": "Feature", "properties": { "RCID": 1237, "PRIM": 1, "GRUP": 2, "OBJL": 153, "RVER": 1, "AGEN": 550, "FIDN": 516696291, "FIDS": 9, "LNAM": "02261ECC28E30009", "LNAM_REFS": null, "FFPT_RIND": null, "EXPSOU": 2.0, "NATSUR": null, "NATQUA": null, "NOBJNM": null, "OBJNAM": null, "QUASOU": null, "SOUACC": null, "STATUS": null, "TECSOU": null, "VALSOU": 9.7, "VERDAT": null, "WATLEV": 3, "INFORM": null, "NINFOM": null, "NTXTDS": null, "SCAMAX": null, "SCAMIN": null, "TXTDSC": null, "RECDAT": null, "RECIND": null, "SORDAT": "20150206", "SORIND": "US,US,reprt,L-246-2015", "_enc_cell": "US4TB3P0" }, "geometry": { "type": "Point", "coordinates": [ 134.5437622, 7.2962308 ] } },
{ "type": "Feature", "properties": { "RCID": 1238, "PRIM": 1, "GRUP": 2, "OBJL": 153, "RVER": 1, "AGEN": 550, "FIDN": 399677120, "FIDS": 9, "LNAM": "022617D296C00009", "LNAM_REFS": null, "FFPT_RIND": null, "EXPSOU": 2.0, "NATSUR": null, "NATQUA": null, "NOBJNM": null, "OBJNAM": null, "QUASOU": null, "SOUACC": null, "STATUS": null, "TECSOU": null, "VALSOU": 15.3, "VERDAT": null, "WATLEV": 3, "INFORM": null, "NINFOM": null, "NTXTDS": null, "SCAMAX": null, "SCAMIN": null, "TXTDSC": null, "RECDAT": null, "RECIND": null, "SORDAT": "20150206", "SORIND": "US,US,reprt,L-246-2015", "_enc_cell": "US4TB3P0" }, "geometry": { "type": "Point", "coordinates": [ 134.5420837, 7.2894554 ] } },
{ "type": "Feature", "properties": { "RCID": 1239, "PRIM": 1, "GRUP": 2, "OBJL": 153, "RVER": 1, "AGEN": 550, "FIDN": 325906052, "FIDS": 9, "LNAM": "0226136CEE840009", "LNAM_REFS": null, "FFPT_RIND": null, "EXPSOU": 2.0, "NATSUR": null, "NATQUA": null, "NOBJNM": null, "OBJNAM": null, "QUASOU": null, "SOUACC": null, "STATUS": null, "TECSOU": null, "VALSOU": 8.2, "VERDAT": null, "WATLEV": 3, "INFORM": null, "NINFOM": null, "NTXTDS": null, "SCAMAX": null, "SCAMIN": null, "TXTDSC": null, "RECDAT": null, "RECIND": null, "SORDAT": "20150206", "SORIND": "US,US,reprt,L-246-2015", "_enc_cell": "US4TB3P0" }, "geometry": { "type": "Point", "coordinates": [ 134.5391693, 7.2962141 ] } },
{ "type": "Feature", "properties": { "RCID": 1240, "PRIM": 1, "GRUP": 2, "OBJL": 153, "RVER": 1, "AGEN": 550, "FIDN": 214274060, "FIDS": 9, "LNAM": "02260CC5900C0009", "LNAM_REFS": null, "FFPT_RIND": null, "EXPSOU": 2.0, "NATSUR": null, "NATQUA": null, "NOBJNM": null, "OBJNAM": null, "QUASOU": null, "SOUACC": null, "STATUS": null, "TECSOU": null, "VALSOU": 0.4, "VERDAT": null, "WATLEV": 3, "INFORM": null, "NINFOM": null, "NTXTDS": null, "SCAMAX": null, "SCAMIN": 44999.0, "TXTDSC": null, "RECDAT": null, "RECIND": null, "SORDAT": "20150206", "SORIND": "US,US,reprt,L-246-2015", "_enc_cell": "US4TB3P0" }, "geometry": { "type": "Point", "coordinates": [ 134.5284729, 7.2956276 ] } },
{ "type": "Feature", "properties": { "RCID": 1241, "PRIM": 1, "GRUP": 2, "OBJL": 153, "RVER": 1, "AGEN": 550, "FIDN": 980325531, "FIDS": 9, "LNAM": "02263A6E949B0009", "LNAM_REFS": null, "FFPT_RIND": null, "EXPSOU": null, "NATSUR": [ "9" ], "NATQUA": null, "NOBJNM": null, "OBJNAM": null, "QUASOU": [ "2" ], "SOUACC": null, "STATUS": null, "TECSOU": null, "VALSOU": null, "VERDAT": null, "WATLEV": 4, "INFORM": null, "NINFOM": null, "NTXTDS": null, "SCAMAX": null, "SCAMIN": 44999.0, "TXTDSC": null, "RECDAT": null, "RECIND": null, "SORDAT": "20150206", "SORIND": "US,US,reprt,L-246-2015", "_enc_cell": "US4TB3P0" }, "geometry": { "type": "Point", "coordinates": [ 134.517868, 7.3379974 ] } },
{ "type": "Feature", "properties": { "RCID": 1242, "PRIM": 1, "GRUP": 2, "OBJL": 153, "RVER": 1, "AGEN": 550, "FIDN": 109476100, "FIDS": 9, "LNAM": "0226068679040009", "LNAM_REFS": null, "FFPT_RIND": null, "EXPSOU": 2.0, "NATSUR": null, "NATQUA": null, "NOBJNM": null, "OBJNAM": null, "QUASOU": null, "SOUACC": null, "STATUS": null, "TECSOU": null, "VALSOU": 8.6, "VERDAT": null, "WATLEV": 3, "INFORM": null, "NINFOM": null, "NTXTDS": null, "SCAMAX": null, "SCAMIN": null, "TXTDSC": null, "RECDAT": null, "RECIND": null, "SORDAT": "20150206", "SORIND": "US,US,reprt,L-246-2015", "_enc_cell": "US4TB3P0" }, "geometry": { "type": "Point", "coordinates": [ 134.4926758, 7.3837585 ] } },
{ "type": "Feature", "properties": { "RCID": 1243, "PRIM": 1, "GRUP": 2, "OBJL": 153, "RVER": 1, "AGEN": 550, "FIDN": 401840364, "FIDS": 9, "LNAM": "022617F398EC0009", "LNAM_REFS": null, "FFPT_RIND": null, "EXPSOU": 2.0, "NATSUR": null, "NATQUA": null, "NOBJNM": null, "OBJNAM": null, "QUASOU": null, "SOUACC": null, "STATUS": null, "TECSOU": null, "VALSOU": 4.3, "VERDAT": null, "WATLEV": 3, "INFORM": null, "NINFOM": null, "NTXTDS": null, "SCAMAX": null, "SCAMIN": 44999.0, "TXTDSC": null, "RECDAT": null, "RECIND": null, "SORDAT": "20150206", "SORIND": "US,US,reprt,L-246-2015", "_enc_cell": "US4TB3P0" }, "geometry": { "type": "Point", "coordinates": [ 134.492004400000013, 7.3779221 ] } },
{ "type": "Feature", "properties": { "RCID": 1302, "PRIM": 1, "GRUP": 2, "OBJL": 153, "RVER": 1, "AGEN": 550, "FIDN": 165552381, "FIDS": 9, "LNAM": "022609DE20FD0009", "LNAM_REFS": null, "FFPT_RIND": null, "EXPSOU": null, "NATSUR": [ "9" ], "NATQUA": null, "NOBJNM": null, "OBJNAM": null, "QUASOU": [ "2" ], "SOUACC": null, "STATUS": null, "TECSOU": null, "VALSOU": null, "VERDAT": null, "WATLEV": 3, "INFORM": null, "NINFOM": null, "NTXTDS": null, "SCAMAX": null, "SCAMIN": null, "TXTDSC": null, "RECDAT": null, "RECIND": null, "SORDAT": "20150206", "SORIND": "US,US,reprt,L-246-2015", "_enc_cell": "US4TB3P0" }, "geometry": { "type": "Point", "coordinates": [ 134.602584799999988, 7.3470306 ] } },
{ "type": "Feature", "properties": { "RCID": 1303, "PRIM": 1, "GRUP": 2, "OBJL": 153, "RVER": 1, "AGEN": 550, "FIDN": 976340690, "FIDS": 9, "LNAM": "02263A31C6D20009", "LNAM_REFS": null, "FFPT_RIND": null, "EXPSOU": 2.0, "NATSUR": null, "NATQUA": null, "NOBJNM": null, "OBJNAM": null, "QUASOU": null, "SOUACC": null, "STATUS": null, "TECSOU": null, "VALSOU": 18.2, "VERDAT": null, "WATLEV": 3, "INFORM": null, "NINFOM": null, "NTXTDS": null, "SCAMAX": null, "SCAMIN": null, "TXTDSC": null, "RECDAT": null, "RECIND": null, "SORDAT": "20150206", "SORIND": "US,US,reprt,L-246-2015", "_enc_cell": "US4TB3P0" }, "geometry": { "type": "Point", "coordinates": [ 134.556427, 7.3016806 ] } },
{ "type": "Feature", "properties": { "RCID": 1304, "PRIM": 1, "GRUP": 2, "OBJL": 153, "RVER": 1, "AGEN": 550, "FIDN": 357839236, "FIDS": 9, "LNAM": "0226155431840009", "LNAM_REFS": null, "FFPT_RIND": null, "EXPSOU": null, "NATSUR": [ "9" ], "NATQUA": null, "NOBJNM": null, "OBJNAM": null, "QUASOU": [ "2" ], "SOUACC": null, "STATUS": null, "TECSOU": null, "VALSOU": null, "VERDAT": null, "WATLEV": 4, "INFORM": null, "NINFOM": null, "NTXTDS": null, "SCAMAX": null, "SCAMIN": null, "TXTDSC": null, "RECDAT": null, "RECIND": null, "SORDAT": "20150206", "SORIND": "US,US,reprt,L-246-2015", "_enc_cell": "US4TB3P0" }, "geometry": { "type": "Point", "coordinates": [ 134.5221558, 7.343164 ] } },
{ "type": "Feature", "properties": { "RCID": 1305, "PRIM": 1, "GRUP": 2, "OBJL": 153, "RVER": 1, "AGEN": 550, "FIDN": 194995460, "FIDS": 9, "LNAM": "02260B9F65040009", "LNAM_REFS": null, "FFPT_RIND": null, "EXPSOU": 2.0, "NATSUR": null, "NATQUA": null, "NOBJNM": null, "OBJNAM": null, "QUASOU": null, "SOUACC": null, "STATUS": null, "TECSOU": null, "VALSOU": 9.3, "VERDAT": null, "WATLEV": 3, "INFORM": null, "NINFOM": null, "NTXTDS": null, "SCAMAX": null, "SCAMIN": null, "TXTDSC": null, "RECDAT": null, "RECIND": null, "SORDAT": "20150206", "SORIND": "US,US,reprt,L-246-2015", "_enc_cell": "US4TB3P0" }, "geometry": { "type": "Point", "coordinates": [ 134.520965600000011, 7.343297 ] } },
{ "type": "Feature", "properties": { "RCID": 1306, "PRIM": 1, "GRUP": 2, "OBJL": 153, "RVER": 1, "AGEN": 550, "FIDN": 137795919, "FIDS": 9, "LNAM": "02260836994F0009", "LNAM_REFS": null, "FFPT_RIND": null, "EXPSOU": 2.0, "NATSUR": null, "NATQUA": null, "NOBJNM": null, "OBJNAM": null, "QUASOU": null, "SOUACC": null, "STATUS": null, "TECSOU": null, "VALSOU": 2.8, "VERDAT": null, "WATLEV": 3, "INFORM": null, "NINFOM": null, "NTXTDS": null, "SCAMAX": null, "SCAMIN": null, "TXTDSC": null, "RECDAT": null, "RECIND": null, "SORDAT": "20150206", "SORIND": "US,US,reprt,L-246-2015", "_enc_cell": "US4TB3P0" }, "geometry": { "type": "Point", "coordinates": [ 134.514831500000014, 7.3003693 ] } },
{ "type": "Feature", "properties": { "RCID": 1307, "PRIM": 1, "GRUP": 2, "OBJL": 153, "RVER": 1, "AGEN": 550, "FIDN": 392759528, "FIDS": 9, "LNAM": "0226176908E80009", "LNAM_REFS": null, "FFPT_RIND": null, "EXPSOU": null, "NATSUR": [ "9" ], "NATQUA": null, "NOBJNM": null, "OBJNAM": null, "QUASOU": [ "2" ], "SOUACC": null, "STATUS": null, "TECSOU": null, "VALSOU": null, "VERDAT": null, "WATLEV": 4, "INFORM": null, "NINFOM": null, "NTXTDS": null, "SCAMAX": null, "SCAMIN": null, "TXTDSC": null, "RECDAT": null, "RECIND": null, "SORDAT": "20150206", "SORIND": "US,US,reprt,L-246-2015", "_enc_cell": "US4TB3P0" }, "geometry": { "type": "Point", "coordinates": [ 134.513290399999988, 7.3446946 ] } },
{ "type": "Feature", "properties": { "RCID": 1308, "PRIM": 1, "GRUP": 2, "OBJL": 153, "RVER": 1, "AGEN": 550, "FIDN": 868075268, "FIDS": 9, "LNAM": "022633BDC7040009", "LNAM_REFS": null, "FFPT_RIND": null, "EXPSOU": 2.0, "NATSUR": null, "NATQUA": null, "NOBJNM": null, "OBJNAM": null, "QUASOU": null, "SOUACC": null, "STATUS": null, "TECSOU": null, "VALSOU": 0.6, "VERDAT": null, "WATLEV": 3, "INFORM": null, "NINFOM": null, "NTXTDS": null, "SCAMAX": null, "SCAMIN": null, "TXTDSC": null, "RECDAT": null, "RECIND": null, "SORDAT": "20150206", "SORIND": "US,US,reprt,L-246-2015", "_enc_cell": "US4TB3P0" }, "geometry": { "type": "Point", "coordinates": [ 134.5105896, 7.342186 ] } },
{ "type": "Feature", "properties": { "RCID": 1309, "PRIM": 1, "GRUP": 2, "OBJL": 153, "RVER": 1, "AGEN": 550, "FIDN": 972035336, "FIDS": 9, "LNAM": "022639F015080009", "LNAM_REFS": null, "FFPT_RIND": null, "EXPSOU": null, "NATSUR": [ "9" ], "NATQUA": null, "NOBJNM": null, "OBJNAM": null, "QUASOU": [ "2" ], "SOUACC": null, "STATUS": null, "TECSOU": null, "VALSOU": null, "VERDAT": null, "WATLEV": 4, "INFORM": null, "NINFOM": null, "NTXTDS": null, "SCAMAX": null, "SCAMIN": null, "TXTDSC": null, "RECDAT": null, "RECIND": null, "SORDAT": "20150206", "SORIND": "US,US,reprt,L-246-2015", "_enc_cell": "US4TB3P0" }, "geometry": { "type": "Point", "coordinates": [ 134.5047913, 7.3749304 ] } },
{ "type": "Feature", "properties": { "RCID": 1310, "PRIM": 1, "GRUP": 2, "OBJL": 153, "RVER": 1, "AGEN": 550, "FIDN": 401830587, "FIDS": 9, "LNAM": "022617F372BB0009", "LNAM_REFS": null, "FFPT_RIND": null, "EXPSOU": 2.0, "NATSUR": null, "NATQUA": null, "NOBJNM": null, "OBJNAM": null, "QUASOU": null, "SOUACC": null, "STATUS": null, "TECSOU": null, "VALSOU": 4.5, "VERDAT": null, "WATLEV": 3, "INFORM": null, "NINFOM": null, "NTXTDS": null, "SCAMAX": null, "SCAMIN": null, "TXTDSC": null, "RECDAT": null, "RECIND": null, "SORDAT": "20150206", "SORIND": "US,US,reprt,L-246-2015", "_enc_cell": "US4TB3P0" }, "geometry": { "type": "Point", "coordinates": [ 134.500946, 7.2953973 ] } },
{ "type": "Feature", "properties": { "RCID": 1311, "PRIM": 1, "GRUP": 2, "OBJL": 153, "RVER": 1, "AGEN": 550, "FIDN": 636443458, "FIDS": 9, "LNAM": "022625EF5B420009", "LNAM_REFS": null, "FFPT_RIND": null, "EXPSOU": 2.0, "NATSUR": null, "NATQUA": null, "NOBJNM": null, "OBJNAM": null, "QUASOU": null, "SOUACC": null, "STATUS": null, "TECSOU": null, "VALSOU": 9.4, "VERDAT": null, "WATLEV": 3, "INFORM": null, "NINFOM": null, "NTXTDS": null, "SCAMAX": null, "SCAMIN": null, "TXTDSC": null, "RECDAT": null, "RECIND": null, "SORDAT": "20150206", "SORIND": "US,US,reprt,L-246-2015", "_enc_cell": "US4TB3P0" }, "geometry": { "type": "Point", "coordinates": [ 134.4955139, 7.2757583 ] } },
{ "type": "Feature", "properties": { "RCID": 1312, "PRIM": 1, "GRUP": 2, "OBJL": 153, "RVER": 1, "AGEN": 550, "FIDN": 660315946, "FIDS": 9, "LNAM": "0226275B9F2A0009", "LNAM_REFS": null, "FFPT_RIND": null, "EXPSOU": 2.0, "NATSUR": null, "NATQUA": null, "NOBJNM": null, "OBJNAM": null, "QUASOU": null, "SOUACC": null, "STATUS": null, "TECSOU": null, "VALSOU": 1.1, "VERDAT": null, "WATLEV": 3, "INFORM": null, "NINFOM": null, "NTXTDS": null, "SCAMAX": null, "SCAMIN": null, "TXTDSC": null, "RECDAT": null, "RECIND": null, "SORDAT": "20150206", "SORIND": "US,US,reprt,L-246-2015", "_enc_cell": "US4TB3P0" }, "geometry": { "type": "Point", "coordinates": [ 134.4929352, 7.3717279 ] } },
{ "type": "Feature", "properties": { "RCID": 1377, "PRIM": 1, "GRUP": 2, "OBJL": 153, "RVER": 1, "AGEN": 550, "FIDN": 231303230, "FIDS": 9, "LNAM": "02260DC9683E0009", "LNAM_REFS": null, "FFPT_RIND": null, "EXPSOU": 2.0, "NATSUR": null, "NATQUA": null, "NOBJNM": null, "OBJNAM": null, "QUASOU": null, "SOUACC": null, "STATUS": null, "TECSOU": null, "VALSOU": 21.5, "VERDAT": null, "WATLEV": 3, "INFORM": null, "NINFOM": null, "NTXTDS": null, "SCAMAX": null, "SCAMIN": null, "TXTDSC": null, "RECDAT": null, "RECIND": null, "SORDAT": "20150206", "SORIND": "US,US,reprt,L-246-2015", "_enc_cell": "US4TB3P0" }, "geometry": { "type": "Point", "coordinates": [ 134.557724, 7.3255472 ] } },
{ "type": "Feature", "properties": { "RCID": 1378, "PRIM": 1, "GRUP": 2, "OBJL": 153, "RVER": 1, "AGEN": 550, "FIDN": 994462848, "FIDS": 9, "LNAM": "02263B464C800009", "LNAM_REFS": null, "FFPT_RIND": null, "EXPSOU": 2.0, "NATSUR": null, "NATQUA": null, "NOBJNM": null, "OBJNAM": null, "QUASOU": null, "SOUACC": null, "STATUS": null, "TECSOU": null, "VALSOU": 15.4, "VERDAT": null, "WATLEV": 3, "INFORM": null, "NINFOM": null, "NTXTDS": null, "SCAMAX": null, "SCAMIN": null, "TXTDSC": null, "RECDAT": null, "RECIND": null, "SORDAT": "20150206", "SORIND": "US,US,reprt,L-246-2015", "_enc_cell": "US4TB3P0" }, "geometry": { "type": "Point", "coordinates": [ 134.54487610000001, 7.2934055 ] } },
{ "type": "Feature", "properties": { "RCID": 1379, "PRIM": 1, "GRUP": 2, "OBJL": 153, "RVER": 1, "AGEN": 550, "FIDN": 851981305, "FIDS": 9, "LNAM": "022632C833F90009", "LNAM_REFS": null, "FFPT_RIND": null, "EXPSOU": 2.0, "NATSUR": null, "NATQUA": null, "NOBJNM": null, "OBJNAM": null, "QUASOU": null, "SOUACC": null, "STATUS": null, "TECSOU": null, "VALSOU": 0.9, "VERDAT": null, "WATLEV": 3, "INFORM": null, "NINFOM": null, "NTXTDS": null, "SCAMAX": null, "SCAMIN": null, "TXTDSC": null, "RECDAT": null, "RECIND": null, "SORDAT": "20150206", "SORIND": "US,US,reprt,L-246-2015", "_enc_cell": "US4TB3P0" }, "geometry": { "type": "Point", "coordinates": [ 134.53508, 7.2947168 ] } },
{ "type": "Feature", "properties": { "RCID": 1380, "PRIM": 1, "GRUP": 2, "OBJL": 153, "RVER": 1, "AGEN": 550, "FIDN": 561199492, "FIDS": 9, "LNAM": "0226217339840009", "LNAM_REFS": null, "FFPT_RIND": null, "EXPSOU": null, "NATSUR": [ "9" ], "NATQUA": null, "NOBJNM": null, "OBJNAM": null, "QUASOU": [ "2" ], "SOUACC": null, "STATUS": null, "TECSOU": null, "VALSOU": null, "VERDAT": null, "WATLEV": 4, "INFORM": null, "NINFOM": null, "NTXTDS": null, "SCAMAX": null, "SCAMIN": null, "TXTDSC": null, "RECDAT": null, "RECIND": null, "SORDAT": "20150206", "SORIND": "US,US,reprt,L-246-2015", "_enc_cell": "US4TB3P0" }, "geometry": { "type": "Point", "coordinates": [ 134.5296021, 7.3146391 ] } },
{ "type": "Feature", "properties": { "RCID": 1381, "PRIM": 1, "GRUP": 2, "OBJL": 153, "RVER": 1, "AGEN": 550, "FIDN": 281536250, "FIDS": 9, "LNAM": "022610C7E6FA0009", "LNAM_REFS": null, "FFPT_RIND": null, "EXPSOU": 2.0, "NATSUR": null, "NATQUA": null, "NOBJNM": null, "OBJNAM": null, "QUASOU": null, "SOUACC": null, "STATUS": null, "TECSOU": null, "VALSOU": 1.2, "VERDAT": null, "WATLEV": 3, "INFORM": null, "NINFOM": null, "NTXTDS": null, "SCAMAX": null, "SCAMIN": null, "TXTDSC": null, "RECDAT": null, "RECIND": null, "SORDAT": "20150206", "SORIND": "US,US,reprt,L-246-2015", "_enc_cell": "US4TB3P0" }, "geometry": { "type": "Point", "coordinates": [ 134.5220947, 7.3317471 ] } },
{ "type": "Feature", "properties": { "RCID": 1382, "PRIM": 1, "GRUP": 2, "OBJL": 153, "RVER": 1, "AGEN": 550, "FIDN": 788822609, "FIDS": 9, "LNAM": "02262F047A510009", "LNAM_REFS": null, "FFPT_RIND": null, "EXPSOU": 1.0, "NATSUR": [ "9" ], "NATQUA": null, "NOBJNM": null, "OBJNAM": null, "QUASOU": null, "SOUACC": null, "STATUS": null, "TECSOU": null, "VALSOU": null, "VERDAT": null, "WATLEV": 4, "INFORM": null, "NINFOM": null, "NTXTDS": null, "SCAMAX": null, "SCAMIN": 44999.0, "TXTDSC": null, "RECDAT": null, "RECIND": null, "SORDAT": "20150206", "SORIND": "US,US,reprt,L-246-2015", "_enc_cell": "US4TB3P0" }, "geometry": { "type": "Point", "coordinates": [ 134.5188942, 7.3471793 ] } },
{ "type": "Feature", "properties": { "RCID": 1383, "PRIM": 1, "GRUP": 2, "OBJL": 153, "RVER": 1, "AGEN": 550, "FIDN": 197337214, "FIDS": 9, "LNAM": "02260BC3207E0009", "LNAM_REFS": null, "FFPT_RIND": null, "EXPSOU": 2.0, "NATSUR": null, "NATQUA": null, "NOBJNM": null, "OBJNAM": null, "QUASOU": null, "SOUACC": null, "STATUS": null, "TECSOU": null, "VALSOU": 1.2, "VERDAT": null, "WATLEV": 3, "INFORM": null, "NINFOM": null, "NTXTDS": null, "SCAMAX": null, "SCAMIN": null, "TXTDSC": null, "RECDAT": null, "RECIND": null, "SORDAT": "20150206", "SORIND": "US,US,reprt,L-246-2015", "_enc_cell": "US4TB3P0" }, "geometry": { "type": "Point", "coordinates": [ 134.5172119, 7.3033638 ] } },
{ "type": "Feature", "properties": { "RCID": 1384, "PRIM": 1, "GRUP": 2, "OBJL": 153, "RVER": 1, "AGEN": 550, "FIDN": 407536932, "FIDS": 9, "LNAM": "0226184A85240009", "LNAM_REFS": null, "FFPT_RIND": null, "EXPSOU": null, "NATSUR": [ "9" ], "NATQUA": null, "NOBJNM": null, "OBJNAM": null, "QUASOU": [ "2" ], "SOUACC": null, "STATUS": null, "TECSOU": null, "VALSOU": null, "VERDAT": null, "WATLEV": 4, "INFORM": null, "NINFOM": null, "NTXTDS": null, "SCAMAX": null, "SCAMIN": null, "TXTDSC": null, "RECDAT": null, "RECIND": null, "SORDAT": "20150206", "SORIND": "US,US,reprt,L-246-2015", "_enc_cell": "US4TB3P0" }, "geometry": { "type": "Point", "coordinates": [ 134.5106049, 7.343986 ] } },
{ "type": "Feature", "properties": { "RCID": 1386, "PRIM": 1, "GRUP": 2, "OBJL": 153, "RVER": 1, "AGEN": 550, "FIDN": 703037930, "FIDS": 9, "LNAM": "022629E781EA0009", "LNAM_REFS": null, "FFPT_RIND": null, "EXPSOU": 2.0, "NATSUR": null, "NATQUA": null, "NOBJNM": null, "OBJNAM": null, "QUASOU": null, "SOUACC": null, "STATUS": null, "TECSOU": null, "VALSOU": 7.4, "VERDAT": null, "WATLEV": 3, "INFORM": null, "NINFOM": null, "NTXTDS": null, "SCAMAX": null, "SCAMIN": null, "TXTDSC": null, "RECDAT": null, "RECIND": null, "SORDAT": "20150206", "SORIND": "US,US,reprt,L-246-2015", "_enc_cell": "US4TB3P0" }, "geometry": { "type": "Point", "coordinates": [ 134.5032349, 7.2998195 ] } },
{ "type": "Feature", "properties": { "RCID": 1388, "PRIM": 1, "GRUP": 2, "OBJL": 153, "RVER": 1, "AGEN": 550, "FIDN": 448681748, "FIDS": 9, "LNAM": "02261ABE57140009", "LNAM_REFS": null, "FFPT_RIND": null, "EXPSOU": null, "NATSUR": [ "9" ], "NATQUA": null, "NOBJNM": null, "OBJNAM": null, "QUASOU": [ "2" ], "SOUACC": null, "STATUS": null, "TECSOU": null, "VALSOU": null, "VERDAT": null, "WATLEV": 4, "INFORM": null, "NINFOM": null, "NTXTDS": null, "SCAMAX": null, "SCAMIN": null, "TXTDSC": null, "RECDAT": null, "RECIND": null, "SORDAT": "20150206", "SORIND": "US,US,reprt,L-246-2015", "_enc_cell": "US4TB3P0" }, "geometry": { "type": "Point", "coordinates": [ 134.4947052, 7.3779278 ] } },
{ "type": "Feature", "properties": { "RCID": 1389, "PRIM": 1, "GRUP": 2, "OBJL": 153, "RVER": 1, "AGEN": 550, "FIDN": 527637173, "FIDS": 9, "LNAM": "02261F731AB50009", "LNAM_REFS": null, "FFPT_RIND": null, "EXPSOU": 2.0, "NATSUR": null, "NATQUA": null, "NOBJNM": null, "OBJNAM": null, "QUASOU": null, "SOUACC": null, "STATUS": null, "TECSOU": null, "VALSOU": 0.9, "VERDAT": null, "WATLEV": 3, "INFORM": null, "NINFOM": null, "NTXTDS": null, "SCAMAX": null, "SCAMIN": null, "TXTDSC": null, "RECDAT": null, "RECIND": null, "SORDAT": "20150206", "SORIND": "US,US,reprt,L-246-2015", "_enc_cell": "US4TB3P0" }, "geometry": { "type": "Point", "coordinates": [ 134.494339, 7.382236 ] } },
{ "type": "Feature", "properties": { "RCID": 1390, "PRIM": 1, "GRUP": 2, "OBJL": 153, "RVER": 1, "AGEN": 550, "FIDN": 411507563, "FIDS": 9, "LNAM": "022618871B6B0009", "LNAM_REFS": null, "FFPT_RIND": null, "EXPSOU": 2.0, "NATSUR": null, "NATQUA": null, "NOBJNM": null, "OBJNAM": null, "QUASOU": null, "SOUACC": null, "STATUS": null, "TECSOU": null, "VALSOU": 7.4, "VERDAT": null, "WATLEV": 3, "INFORM": null, "NINFOM": null, "NTXTDS": null, "SCAMAX": null, "SCAMIN": null, "TXTDSC": null, "RECDAT": null, "RECIND": null, "SORDAT": "20150206", "SORIND": "US,US,reprt,L-246-2015", "_enc_cell": "US4TB3P0" }, "geometry": { "type": "Point", "coordinates": [ 134.4911194, 7.3949585 ] } }
]
}
